Store Name,Address,State,City,Pin Code,Timings,"Coordinates(Latitude,Longitude)",Phone Number
Raymond Made to Measure,"Raymond Made To Measure, 109A First Floor -Orion Mall at Brigade Gateway Campus, 26/1, Dr. Raj Kumar Road, Malleshwaram (W), Bangalore -560055, Karnataka",Karnataka,Bangalore,560055,11:00 AM TO 9:00 PM,"13.0112928,77.5569265",080-226822169
Raymond Made to Measure,"Raymond Made To Measure, 14 B, Khan Market, Subrahmaniam Bharti Marg, New Delhi -110003",Delhi,Newdelhi,110003,11:00 AM TO 9:00 PM,"28.599797,77.2266984",011-47340319
Raymond Made to Measure,"17A, Upper Ground Floor, Block-A, World Trade Park, Jawahar Lal Nehru Marg., Malviya Nagar",Rajasthan,Jaipur,302017,11:00 AM TO 9:00 PM,"26.853481641431628,75.80272554424027","0141-2728134, 9958899311"
Raymond Made to Measure,"Raymond Made To Measure ,Unit No 11 & 12, Vr Bengaluru, Upper Ground Floor, Whitefield Road, Mahadevpura, Bangalore 48",Karnataka,Bangalore,560048,11:00 AM TO 9:00 PM,"12.9853591,77.7081261",
Raymond Made to Measure,"Raymond Made To Measureraymond Made To Measure / No.Ab-3, 2Nd Avenue, / Chennai-600040",Tamil Nadu,Chennai,600040,11:00 AM TO 9:00 PM,"13.0845369,80.212358","044-42054020, 9845571769"
Raymond Made to Measure,"Raymond Made To Measures 57, Second Floor, Lulu Mall, Nh 17, Edapally, Cochin-682024",Kerala,Cochin,682024,11:00 AM TO 9:00 PM,"10.0274398,76.3078531",0484-4099916
Raymond Made to Measure,"Raymond Made To Measure,F 373, Second Floor, Mall Of India, Noida",Uttar Pradesh,Noida,201301,11:00 AM TO 9:00 PM,"28.5675625,77.3190415","0120-6662337, 9845571769"
Raymond Made to Measure,"Raymond - Made To Measure, 167, Unit No. 217, 33, Second Floor, Quest Mall, Syed Amir Ali Avenue, Kolkata - 700017, West Bengal",West Bengal,Kolkata,700017,11:00 AM TO 9:00 PM,"22.53876651,88.36563192","033-40631384, 9310068177"
Raymond Made to Measure,"Raymond Made To Measure / Amanora Town Centre, Ground Floor,Pune-411028",Maharashtra,Pune,411028,11:00 AM TO 9:00 PM,"18.5189222,73.9338211",020-67278635
Raymond Made to Measure,"Raymond Made-To-Measure, Rtw Indiranagar,100 Feet Road, Indiranagar, Bangalore - 560038",Karnataka,Bangalore,560038,11:00 AM TO 9:00 PM,"12.9695166,77.6412333",080-25252875
Raymond Made to Measure,"#18, Ground Floor, 3rd Cross Street, Kasturi bai Nagar, Adayar, Chennai - 600020",Tamil Nadu,Chennai,600020,11:00 AM TO 9:00 PM,"13.003704594558716,80.2516439830417","044-42632255, 9000489992"
Raymond Made to Measure,"Raymond Made To Measure, 218, First Floor, Dlf Promenade Mall, Nelson Mandela Marg, Vasant Kunj, Delhi",Delhi,Newdelhi,110070,11:00 AM TO 9:00 PM,"28.5425586,77.1563644","011-41606294, 9958899311"
Raymond Made to Measure,"Raymond Made To Measureshop No G3, Milroc Neurekar Pride Building, Panjim North, Goa-403001",Goa,Panjim,403001,11:00 AM TO 9:00 PM,"15.4988104,73.8277407",0832-2234111
Raymond Made to Measure,"Raymond Made To Measure, Park Avenue Store, Elante Mall, Chandigarh- 160002, Punjab",Chandigarh,Chandigarh,160002,11:00 AM TO 9:00 PM,"30.7051963,76.8014399",0172-4670140
Raymond Made to Measure,"Raymond Made To Measure, F-12A, First Floor -Phoenix Marketcity, Chennai, No. 142, Velachery Main Road, Velachery, Chennai -600042, Tamil Nadu.",Tamil Nadu,Chennai,600042,11:00 AM TO 9:00 PM,"12.9913026,80.2166199",044-30083625
Raymond Made to Measure,"Raymond Made To Measure, virtuous Retail Surat, Store No.",Gujarat,Surat,395007,11:00 AM TO 9:00 PM,"21.144431,72.7576703","0261-4133466, 9986900252"
Raymond Made to Measure,"Raymond Made To Measure, 14/2, Ground Floor, Daigonal Road, Elephant Rock Road, 3Rd Block, Jayanagar, Ward No. 15, Bangalore -560011, Karnataka",Karnataka,Bangalore,560011,11:00 AM TO 9:00 PM,"12.9351095,77.5814979",080-41217205
Raymond Made to Measure,"Raymond Made To Measuref 42, First Floor, Inorbit Mall Opp. Alembic School Near Gunjan Tower, Gorwa Road, 390023 Vadodara-390023",Gujarat,Baroda,390023,11:00 AM TO 9:00 PM,"22.3222523,73.1655496",0265-2299100
Raymond Made to Measure,"Raymond Made To Measure, T 22A, Third Floor, Palladium, High Street Phoenix, S.B. Marg, Lower Parel,Mumbai -400 013",Maharashtra,Mumbai,400013,11:00 AM TO 9:00 PM,"18.9940127,72.8241045",022-67439700
Raymond Made to Measure,"Raymond Made To Measure, Shop No.7, Door No. 40-1-154, N.T.S. No.78, M.G.Road, Labbipet, Vijayawada",Andhra Pradesh,Vijayawada,520010,11:00 AM TO 9:00 PM,"16.4979975,80.6534031","0866-6661299, 9845571769"
ColorPlus,"Colorplus Fashions Limited, Unit No. 108, Unitech Mall, Sector-38, New Okhla Industrial Development Area, Gautam Budh Nagar, Noida, Uttar Pradesh - 201301",Uttar Pradesh,Noida,201301,10:00 AM TO 10:00 PM,"28.57125389,77.32675736","0120-6492348, 9810574574"
ColorPlus,"Colorplus Fashions Ltd., Phoenix Marketcity, Mahadevpura, Nr. Krishnarajapuram Flyover, Bangalore-560048",Karnataka,Bangalore,560048,10:00 AM TO 10:00 PM,"12.99586325,77.69641387","080-67266144, 9844792728"
ColorPlus,"Colorplus Fashions Limited Shop No.118, Ground Floor, Dlf Promenade Mall, Dlf Place, Nelson Mandela Marg, Next To Dlf Emporio Vasant Vihar,New Delhi - 110057",Delhi,Newdelhi,110057,10:00 AM TO 10:00 PM,"28.5425899,77.1555486","011-46609057, 9871923231"
ColorPlus,"Colorplus Fashions Limited, Shop No. 414, 3rd Floor, Focus Mall, Rajaji-Mavoor Road Junction, Calicut, Kerala",Kerala,Calicut,673001,10:00 AM TO 10:00 PM,"11.25849736,75.78584009","0495-4013657, 9567974122"
Raymond Made to Measure,"Raymond Made To Measure,Shop No 6, Lower Ground Floor, Gvk One Mall, Hyderabad",Telangana,Hyderabad,500034,11:00 AM TO 9:00 PM,"17.4193665,78.4465546",040-67466554
Raymond Made to Measure,"Unit Nos. Ug-42, Upper Gr. Seawoods Grand Central, Nerul Rode, Navi Mumbai 400706",Maharashtra,Navi-Mumbai,400706,11:00 AM TO 9:00 PM,"19.0218844,73.0185706","022-39684224, 9819764022"
Raymond Made to Measure,"Raymond Made-To-Measure,142,Palladium,Near Gurunanak College,Velachery Main Road,Chennai-600042",Tamil Nadu,Chennai,600042,11:00 AM TO 9:00 PM,"12.9913026,80.2166199",-
Raymond Made to Measure,"Raymond Made To Measure, Shop Number S-122/Ff (1St Floor) Express Avenue Mall Near Club House Road ,Whites Road Royalpettah Chennai -600014, Tamilnadu",Tamil Nadu,Chennai,600014,11:00 AM TO 9:00 PM,"13.0584546,80.2641844",044-28464009
Raymond Made to Measure,"Raymond Made To Measure, Raymond Apparel Ltd  & Raymond Ltd, Ready To Wear & Mtm, Plot Number 20B, Ts 77-A, Waltair Main Road,Siripuram Junction, Opp To Hsbc Call Center, Vishakhapatnam- 530003.",Andhra Pradesh,Vizag,530020,11:00 AM TO 9:00 PM,"17.7152731,83.3021842","0891-6665522, 9986110628"
Raymond Made to Measure,"Raymond Made To Measure, Shop Nos. 8 & 9, Ground Floor & Basement, Golden Chamber, Link Road, Andheri (West), Mumbai",Maharashtra,Mumbai,400102,11:00 AM TO 9:00 PM,"19.1418961,72.834424",022-67423846
Raymond Made to Measure,"Raymond Made To Measure, Naidu Hall, Gandhi Nagar, 1St Main Road, Chennai, Tamil Nadu-600044",Tamil Nadu,Chennai,600044,11:00 AM TO 9:00 PM,"13.0843605,80.2221849","044-42645600, 9986110628"
Raymond Made to Measure,"Raymond Made To Measure,Ff 121, First Floor, Infinity Malad, Next To Goregaon Sports Complex, New Link Rd, Mindspace, Malad West, Mumbai, Maharashtra 400064",Maharashtra,Mumbai,400064,11:00 AM TO 9:00 PM,"19.1848469,72.8345642","022-67023533, 9833628274"
Raymond Made to Measure,"F-3, First flr, MTM-VR MaEgmore, Nungambakkam Chennai-600 040, TN",Tamil Nadu,Chennai,600040,11:00 AM TO 9:00 PM,"13.0549913,80.2462217",-
ColorPlus,"Shop-182, Nalini Apts. Cp Linking Road, Khar West",Maharashtra,Mumbai,400052,10:00 AM TO 10:00 PM,"19.0699506,72.8340244",022-26008699
ColorPlus,"Colorplus Fashions Ltd., No. 3, Apex Plaza, Nungambakkam High Road, Chennai-600034",Tamil Nadu,Chennai,600034,10:00 AM TO 10:00 PM,"13.05474395,80.24697898","044-45008515, 9600140613"
Raymond Made to Measure,"Raymond Made To Measure Shop,Jw Marriott Hotel, Juhu Tara Road, Mumbai 400049",Maharashtra,Mumbai,400049,11:00 AM TO 9:00 PM,"19.101944,72.8265052","022-62231346, 9819257564"
Raymond Made to Measure,"Raymond Made To Measure, Shop No. 4 & 5, Zainab Villa, 187 Turner Road, Bandra (W)-400050",Maharashtra,Mumbai,400050,11:00 AM TO 9:00 PM,"19.0545693,72.839884",022-26405821
ColorPlus,"Colorplus Fashions Limited 14-E, Connaught Place New Delhi - 110001",Delhi,Newdelhi,110001,10:00 AM TO 10:00 PM,"28.6327188,77.2214768","011-41517786, 9650506979"
Raymond Made to Measure,"Raymond Ready To Wear Store Lower Ground, Ground & First",Uttar Pradesh,Varanasi,221010,11:00 AM TO 9:00 PM,"25.3122148,82.9889213","0542-2221697, 9836911007"
Raymond Made to Measure,"Raymond Made To Measure Shop No 2B, Upper Ground Floor, Mezzanine Floor And First Floor, H. No. 8-2-120/84, Jyothi Majestic, Banjara Hills, Hyderabad",Telangana,Hyderabad,500073,11:00 AM TO 9:00 PM,"17.4251221,78.432645","040-42767667, 7416352901"
Raymond Made to Measure,"Raymond Made To Measure, Ground Floor, Delphi Building, Hiranandani Garden, Powai, Mumbai 400 076.",Maharashtra,Mumbai,400076,11:00 AM TO 9:00 PM,"19.1204404,72.9092998",022-61271018
Raymond Made to Measure,"Raymond Ready To Wear Store Upper Ground And Ground Floor, 17/33, Tashkand Marg, Civil Lines, Allahabad 211001",Uttar Pradesh,Allahabad,211001,11:00 AM TO 9:00 PM,"25.4550313,81.834961",0532-2261777
ColorPlus,"No.15 & 16, New Bel Road, 6Th Main, Chikkamaranahalli, Bangalore 560094",Karnataka,Bangalore,560054,10:00 AM TO 10:00 PM,"13.0347438,77.5561729",080-42008450
ColorPlus,"RAL-CP-Shop, Seaport airpot, KOCHI-682 021, Kerala",Kerala,Kochi,682021,10:30 AM TO 8:30 PM,"10.0013925,76.3495884",9847341080
The Raymond Shop,"Shop No. 33& 34, Tangent, Sarghasan Cross Roads, Gandhinagar-380 058, Gujarat",Gujarat,Gandhinagar,380058,10:30 AM TO 8:30 PM,"23.0363228,72.5159173",-
The Raymond Shop,"Dosti Imperia, Manpada, Ghodbunder Road, Thane - 400607, Maharashtra",Maharashtra,Thane,406607,10:30 AM TO 8:30 PM,"19.23040276,72.974262",-
The Raymond Shop,"Main Bazar, Near Mangala chowk, Dalsinghsarai, Dist. Samastipur-848 114, Bihar",Bihar,Samastipur,848114,10:30 AM TO 8:30 PM,"25.6673026,85.8340764",-
Raymond Made to Measure,"Raymond Made-To-Measure,No. 117 & 117/1, D. Devraj Urs Road,Road, Mysore- 570001 Karnataka",Karnataka,Mysore,570001,11:00 AM TO 9:00 PM,"12.3095504,76.6443912",-
The Raymond Shop,Shop,Rajasthan,Kota,324005,10:30 AM TO 8:30 PM,-,-
Raymond Made to Measure,"Raymond Made-To-Measure,Ug 19 & 20, Ground Floor, City Centre Mall, K.S. Rao Road, Hampanakatta, Mangalore-575001",Karnataka,Mangalore,575001,11:00 AM TO 9:00 PM,"12.8708975,74.8393176",0824-4262533
Raymond Made to Measure,"Raymond Made To Measure,Shop No. 47, Rajpur Road, New No. 224/395,Next To Syndicate Bank ,Dehradun",Uttrakhand,Dehradun,248001,11:00 AM TO 9:00 PM,"30.3574638,78.0667287",0135-2659816
ColorPlus,"Colorplus Fashions Ltd., 7/1-A, Dr. U.N. Brahmachari Street, Kolkata-700017",West Bengal,Kolkata,700017,10:00 AM TO 10:00 PM,"22.54509938,88.35656223","033-40065758, 9831718020"
The Raymond Shop,"Altrix Complex, Near Komala Dosa World & Kunnamkulam - 680503, Kerala",Kerala,Kunnamkulam,680503,10:30 AM TO 8:30 PM,"10.659258,76.0714495",-
The Raymond Shop,"G1,G2, Radhasaomi Sayujya,V. V.Nagar Road, Vallabh, Anand-388 120, GJ",Gujarat,Anand,388120,10:30 AM TO 8:30 PM,"22.5482008,72.9406658",-
ColorPlus,"Colorplus Fashions Ltd., Pee Jay Enterprises-Iii, Gb-05, Crown Plaza Mall, Sector-15A, Faridabad-121007",Haryana,Faridabad,121007,10:00 AM TO 10:00 PM,"28.39801664,77.31281523","0129-4008046, 9811018602"
ColorPlus,"Colorplus Fashions Ltd Lulu International Shopping Mall First Floor, N0.50/2392, Edappally, Cochin-682024",Kerala,Kochi,683024,10:00 AM TO 10:00 PM,"10.0272846,76.3079082","0484-4030909, 9843901115"
ColorPlus,"28-A,Subramanian Bharathi Marg Khan Market New Delhi - 110003",Delhi,Newdelhi,110003,10:00 AM TO 10:00 PM,"28.6015414,77.228979","011 - 45652601, 9911396396"
Raymond Made to Measure,"Raymond Made-To-Measure,Ground Floor Shop No G1,Jp Square, Plot No 1068,Law Collage Sq Nagpur 440010",Maharashtra,Nagpur,440010,11:00 AM TO 9:00 PM,"21.1464049,79.0621443",-
Raymond Made to Measure,"Ug 59, Upper Ground Floor, Mantri Square,No.1, Sampige Road, Malleswaram, Bangalore-560003",Karnataka,Bangalore,560003,11:00 AM TO 9:00 PM,"12.9916302,77.5711719",-
Raymond Made to Measure,"Raymond Made-To-Measure,The Forum Vijaya Mall,Unit No.025, Upper Ground Flr,Arcot Road, Vadapalani,Chennai-600026",Tamil Nadu,Chennai,600026,11:00 AM TO 9:00 PM,"13.0498937,80.2095018",-
Raymond Made to Measure,"UG-060,1F-060, Saraths City, Gachibowli-Miyapur Rd, Hyderabad-500 084,TELANGANA",Telangana,Hyderabad,500084,10:30 AM TO 8:30 PM,"17.4575952,78.3639493",-
ColorPlus,"Colorplus Fashions Ltd Shop , 32 Jagat Bannerjee Ghat Road, Shop No-48, Avani Riverside, Howrah, Kolkata, West Bengal",West Bengal,Howrah,111002,10:00 AM TO 10:00 PM,"22.56319481,88.32150939","033-26785200, 9163847279"
Raymond Made to Measure,"H. No. 1-B, Narbheram House, Bistupur Main Road, Jamshedpur - 831 001, JH",Jharkhand,Jamshedpur,831001,11:00 AM TO 9:00 PM,"22.7975499,86.181769",-
Raymond Made to Measure,"Raymond Made-To-Measure,G-010, Prozone Mall, At Old Sivanandha Mills, Sivanandhapuram, Sathy Road, Coimbatore-641035",Tamil Nadu,Coimbatore,641035,11:00 AM TO 9:00 PM,"11.0553082,76.9940345",-
Raymond Made to Measure,"Ground & Mezzannie floor, Bldg no.13, N. S. Patker Kemps Corner, Mumbai -400 007 MH",Maharashtra,Mumbai,400007,11:00 AM TO 9:00 PM,"18.9631834,72.8175672",-
Raymond Made to Measure,"Raymond Made To Measure, Unit No: Gf - 66, Ground Floor,Viviana Mall, Voltas Compound, Pokhran Road No 2, Subhash Nagar, Next To Jupiter Hospital,Thane (West) - 400606",Maharashtra,Thane,400606,11:00 AM TO 9:00 PM,"19.2087175,72.9715119",022-61701383
ColorPlus,Treasure Island Bhilai,Chattisgarh,Bhilai,490020,10:00 AM TO 10:00 PM,"21.21828855,81.32048995",0788-4012515
Raymond Made to Measure,"Raymond Made-To-Measure,Ground Floor: Gf - 23 Mall Of Travancore (Mot),Chakai-Enchakkal Bypass Road, Chakai, Trivandrum,Thiruvananthapuram",Kerala,Thiruvanathapuram,659024,11:00 AM TO 9:00 PM,"8.4874168,76.9267424",-
Raymond Made to Measure,"Raymond Made To Measure,Rtw-Pacific Mall-Dehradun,Opposite Scholars Home School,Kishanpur,Dehradun-248006,Uttarakhand",Uttrakhand,Dehradun,248006,11:00 AM TO 9:00 PM,"30.3663965,78.0703402",0135-2738892
Raymond Made to Measure,"Raymond Made-To-Measure,G-23 Ground Floor Db City Mall, Opp Mp Nagar On Khasra 1511 & 1509, Arera Hills, Bhopal, Madhya Pradesh -462011",Madhya Pradesh,Bhopal,462011,11:00 AM TO 9:00 PM,"23.2326024,77.4299282",-
Raymond Made to Measure,"Raymond Made To Measure,18/2, Vm Road, Bangalore",Karnataka,Bangalore,560 001,11:00 AM TO 9:00 PM,"12.9709213,77.5988947","080-41741100, 9986110628"
The Raymond Shop,"Shop No G-B-2, Dwarka Plazza, Opp Sbi Bank, Dwaraka Nagr, Vishakhapatnam-530 016, Ap",Andhra Pradesh,Vishakhapattanam,530016,10:30 AM TO 8:30 PM,"17.7294211,83.3014319",-
ColorPlus,"Rainbow creation, 15/B, Mah, Chamunda Circle, MUMBAI-400092, Maharashtra",Maharashtra,Mumbai,400092,10.30 AM TO 9.30 PM,"19.235251025029108,72.85302346494932","022-28955290, 9820184321"
The Raymond Shop,"431 Gupta House, Chakinaya Main Road, Bhadohi-221 401, Up",Uttar Pradesh,Bhadohi,221401,10:30 AM TO 8:30 PM,"25.4007837,82.5680033",-
Raymond Made to Measure,"Unit No.5&6, Ground Floor, Db Mall, Gwalior Race Course, Gwalior-474001 Mp",Madhya Pradesh,Gwalior,474001,11:00 AM TO 9:00 PM,"26.1748905,78.1450412",-
Raymond Ceremonial,"Ground & Mezzannie floor N.S Patker Marg, Kemps Corner MUMBAI - 400 006, MH",Maharashtra,Mumbai,400006,10.30 AM TO 9.30 PM,"18.9540855,72.8004477",-
ColorPlus,"Colorplus Fashions Limited, Sco-370, Sector-8, Panchkula, Haryana - 134109",Haryana,Panchkula,134109,10:00 AM TO 10:00 PM,"30.69899325,76.84907958","0172-5011157, 9041227875"
The Raymond Shop,"Gr.Floor, H.No.205000593, Bagaha Bazar, West Champaran-845 101, Bihar",Bihar,West Champaran,845101,10:30 AM TO 8:30 PM,"27.0937772,84.0933652",-
ColorPlus,"Colorplus Fashions Ltd., C08, Ambattur Industrial Estate, Chennai-600058",Tamil Nadu,Chennai,600058,10:00 AM TO 10:00 PM,"13.09467371,80.17115159",044-42189298
The Raymond Shop,"Main Road, Warud, District-Amravati-444 906 MH",Maharashtra,Amravati,444906,10:30 AM TO 8:30 PM,"21.4698113,78.2687687",-
ColorPlus,"Colorplus Fashion Ltd, 1St Floor, Shop No- 125, Forum Sujana Mall, Kukkatpally, Hyderabad, Telangana- 500072",Telangana,Hyderabad,570001,10:00 AM TO 10:00 PM,"17.4843261,78.388836",040-30534080
The Raymond Shop,"78, Villanur Main Road,  Azis Nagar, Reddiarpalaya, Puducherry-605005,",Pondicherry,Pondicherry,605005,10:30 AM TO 8:30 PM,"11.9313005,79.8001734",-
ColorPlus,"COLOR PLUSFASHIONS LTD, SHOP NO:113, 164/1, MANIKTALA MAINROAD, KOLKATA-700054",West Bengal,Kolkata,700054,10:00 AM TO 10:00 PM,"22.57761215,88.40092342","033-40603195, 9163918393"
ColorPlus,"Solar Creations Pvt Ltd., No.- 11, Cusrow Baug, Colaba, Mumbai - 400001",Maharashtra,Mumbai,400001,10:00 AM TO 10:00 PM,"18.92011468,72.82989961",9122-22841821
Raymond Made to Measure,"Raymond Made-To-Measure,Gf 07, Ground Floor, Mbm Farm, Gt Road, Amritsar143001",Punjab,Amritsar,143001,11:00 AM TO 9:00 PM,"31.6346767,74.8694261",-
Raymond Made to Measure,"Raymond Ready To Wear,Saroj Rock Fort Complex, B 31, Shastri Road, Thillai Nagar, Trichy-620018",Tamil Nadu,Tiruchirapalli,620002,11:00 AM TO 9:00 PM,"10.8226484,78.6852037","0431-4216661, 9986110628"
ColorPlus,"The Attire, Shop No-110-A, 1St Floor, Fountain Chowk, Ludhiyana-141001,",Punjab,Ludhiana,141001,10:00 AM TO 10:00 PM,"30.9138832,75.8402404","0161-4640050, 9872877770"
The Raymond Shop,"49, Tagore Marg, Neemuch-458 441, Madhya Pradesh",Madhya Pradesh,Neemuch,458441,10:30 AM TO 8:30 PM,"24.4593747,74.8681737",-
ColorPlus,"M247, Ashok Nagar, Opp.-TRI UDAIPUR-313001, Rajasthan UDAIPUR",Rajasthan,Udaipur,313001,10:00 AM TO 10:00 PM,"24.58706314,73.70956099",9610004051
ColorPlus,"Colorplus Fashions Ltd., Viviana City Mall, Pokhran Road No-2, Subhash Nagar, Next To Jupiter Hospital,Thane (West)-400610",Maharashtra,Thane,400610,10:00 AM TO 10:00 PM,"19.20896299,72.97174943","022-61701391, 9702129142"
ColorPlus,"32, Hazratganj, Lucknow, UP-226001",Uttar Pradesh,Lucknow,226001,10:00 AM TO 10:00 PM,"26.84099923,80.95070627","0522-4082515, 9810975751"
ColorPlus,"Colorplus Fashions Ltd., Offbeat Developers Pvt. ltd., Kurla Market City, Naaz Hotel, L.B.S.Marg, Kurla(W), Old Mukund Factory, Near Kamani Junction, Opp. Mumbai-400070",Maharashtra,Mumbai,400070,10:00 AM TO 10:00 PM,"19.08618463,72.8892997","022-66981309, 9820759521"
ColorPlus,"Colorplus Fashions Limited Shop No Ub2, Ground Floor, Jawahar Nagar, Bungalow Road,New Delhi - 110007",Delhi,Newdelhi,110007,10:00 AM TO 10:00 PM,"28.682356,77.206604","011-47015516, 9811567832"
ColorPlus,"Colorplus Fashions Limited, Citi Centre Mall, B-007, Dc Block, Salt Lake, Sector-1, Kolkata, West Bengal - 700064",West Bengal,Kolkata,700064,10:00 AM TO 10:00 PM,"22.58802476,88.40518485","033-40065757, 9830307125"
ColorPlus,"Color Plus, Peanuts Retail Pvt Ltd, Shop No A017, City Centre Mall, Uttorayan, Matigara, West Bengal, Siliguri-734010",West Bengal,Siliguri,734010,10:00 AM TO 10:00 PM,"26.72427097,88.39472529","0353 -2777843, 9800866703"
ColorPlus,"Colorplus Fashions Ltd Plot No.Vc-3, Sector-3, Vaishali, Unit 121, 1St Fl, The Mahagun Metro Mall Ghaziabad Uttar Pradesh",Uttar Pradesh,Ghaziabad,201012,10:00 AM TO 10:00 PM,"28.6447946,77.3355371","0120-4214384, 9717215509"
Formal,"Shop No.4, Shilpa CHS, Som Manish Nagar, Nagpur - 440 005, MH",Maharashtra,Nagpur,440005,10:30 AM TO 8:30 PM,"21.0938434,79.0750138",-
ColorPlus,"Shop. 20, Gr Floor R Gandhi Teck Park, Dlf City Center Mall, Chandigarh - 160101",Chandigarh,Chandigarh,160101,10:00 AM TO 10:00 PM,"30.7288586,76.8454261","0172-4016751, 9914834848"
ColorPlus,"Colorplus Fashions Ltd Shop No 2298/3, Sector 14,Old Delhi Gurgaon Road, Opp. Sector -14, Hudda Market, Gurgaon, Haryana-122001",Haryana,Gurgaon,122001,10:00 AM TO 10:00 PM,"28.5223395,77.0825978",0124-4270303
ColorPlus,"One Awadh Mall, Plot No. - Vibhuti Khand, Gomti Nagar, Lucknow - 226010, UP",Uttar Pradesh,Lucknow,226010,10:00 AM TO 10:00 PM,"26.86262397,81.01048411",0522 - 4958879
ColorPlus,"Colorplus Fashions Limited, F-57, First Floor, R-City Mall, L.B.S. Marg, Ghatkopar(W), Mumbai, Maharashtra - 400086",Maharashtra,Mumbai,400086,10:00 AM TO 10:00 PM,"19.09962563,72.91638228","022-66977891, 9920668184"
Raymond Made to Measure,"Raymond Made To Measure Shop, Hg 27, Westend Mall, S No 169/1, Cts No. 2495, Dp Road, Sector 1, Aundh, Pune 411007",Maharashtra,Pune,411007,11:00 AM TO 9:00 PM,"18.5616348,73.8070305","020-27207416, 9986900252"
ColorPlus,"Color Plus Fashions Ltd, Color Plus # 8-2-120/86/9/3, Road No.- 2, Banjara Hills, Landmark - Next To Diesel Store & Opp. To Hayat Hotel, Hyderabad- 500034",Telangana,Hyderabad,500034,10:00 AM TO 10:00 PM,"17.42528972,78.43262788",040-40077159
ColorPlus,"Hind Vastra Bhandar, Shop no.: 1, 2, Shree Mohini Complex, Kingsway, Station Road, Nagpur - 440001",Maharashtra,Nagpur,440001,10:00 AM TO 10:00 PM,"21.14930538,79.08018348","0712-2558034, 9923682001"
ColorPlus,"Shop No:13, Phoenix United, Bareilly  - 243002, UP",Uttar Pradesh,Bareilly,243002,10:00 AM TO 10:00 PM,"28.39483199,79.45643215",0581-2583308
The Raymond Shop,"BESIDE HOTEL PAWAN, NEHRU ROAD, SHIVAMOGGA-577 201, KT",Karnataka,Shimoga,577201,10:30 AM TO 8:30 PM,"13.9344262,75.5725396",-
ColorPlus,"Solar Creations Pvt. Ltd., Shop No.: 18, 19, 20, 21 & 44, Ground Floor, Topiwala Building, Dr. Ambedkar Road, Mumbai-400012",Maharashtra,Mumbai,400012,10:00 AM TO 10:00 PM,"18.99721093,72.83765395","9122-24100281, 9892844035"
The Raymond Shop,Shop,Rajasthan,Jhotwada,302012,10:30 AM TO 8:30 PM,-,-
ColorPlus,"Colorplus Fashions Ltd., No-6, Narottam Niwas, Opp. Gandhi Market, Sion Main Road, Sion, Mumbai-400022",Maharashtra,Mumbai,400022,10:00 AM TO 10:00 PM,"19.03752607,72.86192339","022-65659006, 9702673446"
The Raymond Shop,"CHIKHALWADI CORNER, GURUD OPP-ORIENTAL BANK, NANDED-431 601, MH",Maharashtra,Nanded,431601,10:30 AM TO 8:30 PM,"19.1678399,77.3266991",-
The Raymond Shop,"Mall Building No 341G, S/At Sadar Bazar, Jhansi-284 001 Uttar Pradesh",Uttar Pradesh,Jhansi,284001,10:30 AM TO 8:30 PM,"25.4390968,78.5816988",-
ColorPlus,"Yagnik Road, Race Course Circle, Nath Edifice Ground Floor, Jilla Panchayat Chowk, Race Course Circle, Rajkot - 360001",Gujarat,Rajkot,360001,10:00 AM TO 10:00 PM,"22.29817505,70.79102578","0281-2472254, 9824222254"
ColorPlus,"396/397, Jain Estate, Ground Floor, Opp. To Nanking Restaurant, Park Lane, Secunderabad-500003",Telangana,Secunderabad,500003,10:00 AM TO 10:00 PM,"17.44257183,78.49015542",040-40119902
The Raymond Shop,"Gr Fl, H/O Vijay Kumar Kes, Main Road, GARHWA - 822114, JHARKHAND",Jharkhand,Garhwa,822114,10:30 AM TO 8:30 PM,"24.1548982,83.7995617",-
Raymond Made to Measure,"Opp. Yes Bank, C.G Road, Gf-Ff/1, Shree Ahmedabad - 380 006, Gj",Gujarat,Ahmedabad,380006,11:00 AM TO 9:00 PM,"23.0346734,72.5602746",-
ColorPlus,"Ramchander & Sons, S.C.O.41, Sector 17-E, Chandigarh - 160017",Chandigarh,Chandigarh,160017,10:00 AM TO 10:00 PM,"30.73825873,76.78303375","0172-5002077, 8289079742"
The Raymond Shop,"Shop No G16 & G17,",Madhya Pradesh,Khargone,451001,10:30 AM TO 8:30 PM,"21.9289386,75.5742467",-
ColorPlus,"Colorplus Fashions Ltd, No.32-33, Gold Field Plaza, 164, Sasoon Road, Pune-411001",Maharashtra,Pune,411001,10:00 AM TO 10:00 PM,"18.53404746,73.87852413","9120-26163388, 9028993828"
The Raymond Shop,"342/287/A Malancha Rd, Opp.Fashion World, P.O.-Kh Paschim Medinipur-721 301 Wb",West Bengal,Mednapur,721301,10:30 AM TO 8:30 PM,-,-
ColorPlus,"No-337, 8Th Main Road, 3Rd Stage, 4Th Block Basaveshwara Nagar, Bangalore 560 079",Karnataka,Bangalore,560079,10:00 AM TO 10:00 PM,"12.9914814,77.5380903","080 - 41323030, 9742433389"
The Raymond Shop,"Plot-No-40-1-148.163, opp-near Hotel Forunte, Mural VIJAYWADA-520 010, AP",Andhra Pradesh,Vijayawada,520010,10:30 AM TO 8:30 PM,"16.5012476,80.6459265",-
ColorPlus,"Shop No. As-Ic, The Treasure Island, Indore",Madhya Pradesh,Indore,452001,10:00 AM TO 10:00 PM,"22.72158286,75.87855909","0731-4245843, 9009441812"
The Raymond Shop,"GR FLOOR, 4-1-218-23, ADITI KODIALBAIL, DAKSHINA KANNADA, MANGALORE-575 004, KT",Karnataka,Mangalore,575004,10:30 AM TO 8:30 PM,"12.8853029,74.8536372",-
ColorPlus,"Solar Creation Pvt Ltdshop No-18, 19, 20, 21 & 44, Ground Flr, Sarvodaya,Topiwala Buldg, Dr Ambedkar Rd Mumbai-400012",Maharashtra,Mumbai,400012,10:00 AM TO 10:00 PM,"18.9972782,72.8377469","9122-24100281, 9892844035"
The Raymond Shop,"Barni Road, Masaurhi, Patna - 804 452, Bihar",Bihar,Patna,804452,10:30 AM TO 8:30 PM,"25.3505672,85.0390504",-
ColorPlus,"20, DLF City Center, Digvi, Chandigarh - 160101",Chandigarh,Chandigarh,160101,10:00 AM TO 10:00 PM,"30.72890893,76.84548141","0172-4016751, 9914834848"
ColorPlus,"Shop No. B-207, First Floor, Mall Of India, Noida, UP-201301",Uttar Pradesh,Noida,201301,10:00 AM TO 10:00 PM,"28.56741835,77.32057075","0120-6662463, 9810394785"
ColorPlus,"Solar Creations Pvt Ltd, S-43, First Floor, Inorbit Mall, Link Road, Malad(West), Mumbai, Maharastra - 400064",Maharashtra,Mumbai,400064,10:00 AM TO 10:00 PM,"19.1729281,72.8359056",9122-67100447
ColorPlus,"Shop No.9, Z Square Shopping, Block 16, The Mall, Kanpur- 208001, UP",Uttar Pradesh,Kanpur,208001,10:00 AM TO 10:00 PM,"26.47343535,80.35265154","0512-2302958, 9235462147"
ColorPlus,"Raymond Apparel Ltd,colorplus Shop No D,ist Floor, Fun Republic Mall Gomthi Nagar Lucknow,uttarpradesh - 226010,",Uttar Pradesh,Lucknow,226010,10:00 AM TO 10:00 PM,"26.85819707,80.97621904","0522 - 4007568, 9935507739"
The Raymond Shop,"Arya Nagar, Purana Bus Stand, barhalgang, Gorakhpur-273402, Up",Uttar Pradesh,Gorakhpur,273402,10:30 AM TO 8:30 PM,"26.2888956,83.5040187",-
The Raymond Shop,"9-3-125, Mohinpura, Siddipet - 502 103, Tg",Telangana,Siddipet,502103,10:30 AM TO 8:30 PM,"18.1048969,78.8421433",08457-222224
The Raymond Shop,"Nilugal Complex, Gun Circl, Hubli-Hospet Road, Koppal-583231, Kt",Karnataka,Koppal,583231,10:30 AM TO 8:30 PM,"15.3507843,76.1674394",-
The Raymond Shop,"Sec- 10 HBC, Faridabad-121 006, Haryana",Haryana,Faridabad,121006,10:30 AM TO 8:30 PM,"28.3767392,77.3252633",-
The Raymond Shop,"3/3/36, Sai Kripa Complex, above Hi Fashion, Near Parrakabganj, Faizabad, Uttar Pradesh 224001",Uttar Pradesh,Faizabad,224001,10:30 AM TO 8:30 PM,"26.7805681,82.1443127",-
ColorPlus,"4&5, First Floor, The West Plot No. 2&3, Ferozpur Road, Ludhiana - 141001, Punjab",Punjab,Ludhiana,141001,10:00 AM TO 10:00 PM,"30.88617301,75.78800226","161-4640014, 8968287744"
The Raymond Shop,"B R Jindal, Shopping Complex, M G Road,",Maharashtra,Jalna,431203,10:30 AM TO 8:30 PM,-,-
ColorPlus,"Colorplus, Shop No. F-7A, Brook Field Mall, Annupurp Krishnaswamy Rd., Coimbatore-641001",Tamil Nadu,Coimbatore,641001,10:00 AM TO 10:00 PM,"11.0099319,76.95701847",0422-2255522
ColorPlus,"M-43, Ground Floor, Greater Kailash Part I, New Delhi - 110048",Delhi,Newdelhi,110048,10:00 AM TO 10:00 PM,"28.55108642,77.23362041",011-64640176
The Raymond Shop,"215/45, KRISHNA  NAGAR, GOVARDHAN ROAD, MATHURA - 281 004, UP",Uttar Pradesh,Mathura,281004,10:30 AM TO 8:30 PM,"27.5004067,77.6557848",-
ColorPlus,"Shop No. F-33, First Floor, The Pacific Mall, Plot No.1, Sahibabad Industrial Area, Ghaziabad, UP-201010,",Uttar Pradesh,Ghaziabad,201010,10:00 AM TO 10:00 PM,"28.64646226,77.31927233","0120-4541743, 9899499114"
ColorPlus,"Shop No. 3, Ten 11 Building, Opposite Cargo Ford, Next to Union bank, C.G. Road,",Gujarat,Ahmedabad,380009,10:00 AM TO 10:00 PM,"23.026964842928326,72.55695210546781",079-40020022 09978445575
The Raymond Shop,"G -10, Pink Square Mall, Govind Marg, Rajapark, JaJaipur-302 004, Rajasthan",Rajasthan,Jaipur,302004,10:30 AM TO 8:30 PM,"26.9031809,75.8367426",-
ColorPlus,"Colorplus Fashions Ltd Shop No - 2, First Floor. C21 Mall, Scheme No.54, Pu4, A.B Road, Indore",Madhya Pradesh,Indore,452010,10:00 AM TO 10:00 PM,"22.7441207,75.8940231","0731-2575451, 9893045451"
ColorPlus,"Ral-Phoenix Market City, Velachery Main Road, Velachery, Chennai-600042",Tamil Nadu,Chennai,600042,10:00 AM TO 10:00 PM,"12.99212767,80.21465787",044-30083382
ColorPlus,"Solar Creations Pvt Ltd., F-17/18, H, Seawoods Ground Plot-R1, Sector 40, Seawood, Navi Mumbai-400706",Maharashtra,Navi-Mumbai,400706,10:00 AM TO 10:00 PM,"18.9737229,72.80572241","022 - 39684230, 7798499699"
ColorPlus,"F-37, Alpha One Mall, Nr. Vastrapur Lake, Ahmedabad-380054",Gujarat,Ahmedabad,380054,10:00 AM TO 10:00 PM,"23.04013383,72.5314659","079-40033637, 9974562461"
ColorPlus,"Shop No. 129, First Floor, Plot No. 178-178A, Elante Mall, Industrial Area Phase-1, Chandigarh - 160002, Chandigarh",Chandigarh,Chandigarh,160002,11:00 AM TO 9:30 PM,"30.705714744530777,76.80138703568183","0172-4666005, 9041227875"
ColorPlus,"Unit No: L3-35, B7, Nagarjun Punjagutta, Hyderabad-500082, Telangana",Telangana,Hyderabad,500082,10:00 AM TO 10:00 PM,"17.42907392,78.44807937",040-46478085
The Raymond Shop,"Backside Mishrana Chourah, Lakhimpur",Uttar Pradesh,Lakhimpur Kheri,262701,10:30 AM TO 8:30 PM,-,-
ColorPlus,"Unit-F8-P80, APJ Compound MIDC, Chikalthana, Aurangabad-431210, MH",Maharashtra,Aurangabad,431210,10:30 AM TO 8:30 PM,"19.87617893,75.37119103",-
ColorPlus,"Shop-G, Ground Floor, District Centre, Janakpuri, New Delhi - 110053",Delhi,Newdelhi,110053,10:00 AM TO 10:00 PM,"28.62977907,77.07804717",011-45651722
ColorPlus,"Unit No.Gf-09, Chakka Bye Eanchakkal,",Kerala,Thiruvanathapuram,695024,10:00 AM TO 10:00 PM,"8.4916931,76.9220933",-
The Raymond Shop,"Sco-53, Near Kessel Mall, Sector 17, Market, Kurukshetra-136118, Haryana",Haryana,Kurukhetra,136118,10:30 AM TO 8:30 PM,"29.9706171,76.8365483",-
ColorPlus,"Shop No-2, Plot No 673B,",Rajasthan,Jodhpur,342003,10:00 AM TO 10:00 PM,"26.274241,73.0069164",-
ColorPlus,"G-11,12, Rudraksha Mall, G.H.A.G.A.G., A-R8, G. S. R. Gawahati-781005, Assam",Assam,Guwahati,781005,10:00 AM TO 10:00 PM,"26.1573052,91.7952762",0361-254124
ColorPlus,"Shop No. FF 512, first Floor, Gaur City Mall, Sector 4, Greater Noida, Noida - 201301",Uttar Pradesh,Noida,201301,10.30 AM TO 9.30 PM,"28.60617489,77.42959712",9810394785
ColorPlus,"Shop No. 13, Ground Floor, Sardar Patel Marg, Civil Allahabad, Pin - 211001, Allahabad",Uttar Pradesh,Allahabad,211001,10:00 AM TO 10:00 PM,"25.45555884,81.83522646",0532-2260560
ColorPlus,"RAL-CP, NO.4, 75A, MAC PLAZDILA RAM CHOWK, RAJPUR ROAD, DEHRADUN-248001, UTTARANCHAL",Uttrakhand,Dehradun,248001,10:30 AM TO 8:30 PM,"30.3247864,78.04224709",0135 -2742888
Ethnix by Raymond,"L4 & L5, Bhasin Arcade, BMain road, Gorakhpur, JABALPUR - 482 001, MP",Madhya Pradesh,Jabalpur,482001,10.30 AM TO 9.30 PM,"23.1620072,79.9584397",-
ColorPlus,"RAL-CP, O.C-1/A, GREEN PARK, NEW DELHI-110016 DL",Delhi,Newdelhi,110016,10:30 AM TO 8:30 PM,"28.55451349,77.17750171",011-40610271
ColorPlus,"CP- Golmaheem Bild. Ground Floor, Sisa Golai, NH31A, GANGTOK-737101, SIKKIM",Sikkim,Gangtok,737101,10:00 AM TO 10:00 PM,"27.34103074,88.60554762",-
ColorPlus,"CP-shop no-4, Vintage Highschool, Opp-Brinjal Hospital, Poly HALDAWANI-263 129, Uttaranchal",Uttrakhand,Haldwani,263129,10:00 AM TO 10:00 PM,"29.2182644,79.5129767",-
ColorPlus,"Shop No 3, Ground Floor, R S Sayujya, A.Vidyanagar, Anand - 388120, GUJRAT",Gujarat,Anand,388120,10:30 AM TO 8:30 PM,"22.55006082,72.9288193",9594744488
ColorPlus,"Shop No. G-02, Ground Floor, N.P. Centre, New Dak Bunglow Road, Patna - 800001, Bihar",Bihar,Patna,800001,10:00 AM TO 10:00 PM,"25.61010616,85.13870934","9693411115, 9334279084"
ColorPlus,"Shop No. 4 Lower Ground, Narwal Bye Pass, Jammu - 180006, Jk",Jammu & Kashmir,Jammu,180015,10:00 AM TO 10:00 PM,"32.6923922,74.8945692","0191-246610, 9204209839"
The Raymond Shop,"19/B Survey 15/1, Hyder sho Gandipet mandal, Ranga Reddy Dist.-500 091, TELANGANA",Telangana,Rangareddy,500091,10:30 AM TO 8:30 PM,"17.3889258,78.3176276",-
ColorPlus,"RAL-CP, NH 7, Factory Outlet NH 7, Opp. Walmart, McDonalds, Kalyan Post Office, BATHINDA - 151101",Punjab,Bathinda,151101,10:30 AM TO 8:30 PM,"30.22442392,75.0636362",9357500007
Ethnix by Raymond,"House No-2753, Main Road, Kankarbagh, PATNA-800020, BIHAR",Bihar,Patna,800020,10.30 AM TO 9.30 PM,"25.60344977,85.1517312",-
Ethnix by Raymond,"397, L/A, 2nd Floor, Model Town Prakash Nagar Road, JALANDHAR-144003, PUNJAB",Punjab,Jalandhar,144003,10.30 AM TO 9.30 PM,"31.30552517,75.57685502",9814064761
ColorPlus,"Shop No.- 34/35, Ground Floor, Citi Centre Mall, RAIPUR-492001, CHHATTISGARH",Chattisgarh,Raipur,492001,10.30 AM TO 9.30 PM,"21.25523587,81.64633215",9479067000
ColorPlus,"Shop Number 6, NH9 Factory Outlet, Near GD Goenka School, Sirsa, Haryana 125055",Haryana,Sirsa,125055,10.30 AM TO 9.30 PM,"29.52627165,75.12812113",-
ColorPlus,"Rama Magneto Mall, Deen Shrikant Verma Road, Bilaspur-495005, CHATTISGARH",Chattisgarh,Bilaspur,495005,10.30 AM TO 9.30 PM,"22.0722337,82.14843375",-
ColorPlus,"Shop-F14, Phoenix United, First Floor, LUCKNOW-226 005, UP",Uttar Pradesh,Lucknow,226005,10:00 AM TO 10:00 PM,"26.79859747,80.89467083",-
ColorPlus,"Shop No 7-114&115, 80 Ft Road, HSR layout, Bangalore-560 010, KT",Karnataka,Bangalore,560010,10:00 AM TO 10:00 PM,"12.9849815,77.553344",-
ColorPlus,"505, L Orange Square, Prakash Nagar Road, Model, Jalandhar-144003",Punjab,Jalandhar,144003,10:00 AM TO 10:00 PM,"31.30792454,75.57926302",0181-4600654
ColorPlus,"RAL-CP-GOLDEN AVENUE, 266 Brough Road, ERODE - 638001, TN",Tamil Nadu,Erode,638001,10:00 AM TO 10:00 PM,"11.34014988,77.72483552",-
The Raymond Shop,"1, Shop No.Ff-02, Crown Interiorz Mall, Faridabad-121003, Haryana",Haryana,Faridabad,121003,10:30 AM TO 8:30 PM,"28.469675,77.307363",-
ColorPlus,"A-16, CITY WALK MALL, Ground Floor, Residency Road, SRINAGAR - 190001, J&K",Jammu & Kashmir,Srinagar,190001,10:30 AM TO 8:30 PM,"34.07256478,74.81713666",9811430373
Ethnix by Raymond,"93, Crown plaza, Vaishali Nagar, Jaipur-302021, RAJASTHAN",Rajasthan,Jaipur,302021,10.30 AM TO 9.30 PM,"26.91172959,75.74074783",7737060607
ColorPlus,"RAL-CP, SCO NO.2, RANI IND BHUPINDRA ROAD, 22 NO. PHATA, PATIALA - 147001, PUNJAB",Punjab,Patiala,147001,10:30 AM TO 8:30 PM,"30.34556986,76.39543838",0175-5007263
ColorPlus,"F-03A, North SKY ZONE, HIGH STREET PHOENIX, S.B. Marg, LOWER PAREL, MUMBAI-400013",Maharashtra,Mumbai,400013,10:30 AM TO 8:30 PM,"18.99471661,72.82452203","022-24964464, 7021374516"
ColorPlus,"80, Waltair Road, Ramnagar, Sripuram, Opp. Waltair Club VISAKHAPATNAM-530003",Andhra Pradesh,Vishakhapattanam,530003,10:30 AM TO 8:30 PM,"17.73149791,83.33437007",9246626030
The Raymond Shop,"Marwari Mohalla, Sadar Bazar, Jamalpur, Munger-811 214, BIHAR",Bihar,Munger,811214,10:30 AM TO 8:30 PM,"25.3127879,86.4906749",-
ColorPlus,"RAL-CP, NEAR CANARA BANK, 5706, THE MALL, BHATINDA-151001, PUNJAB",Punjab,Bathinda,151001,10:30 AM TO 8:30 PM,"30.20963743,74.88898017",0164-5000143
Ethnix by Raymond,"2-5-746, Subedari, Opp. Arts and Science College, WARANGAL- 506001,TELANGANA",Telangana,Warangal,506001,10.30 AM TO 9.30 PM,"17.99614632,79.54593233",-
ColorPlus,"Shop No.- 57 Vr Mall - Chennai Jawaharlal Nehru Rd, Anna Chennai - 600040, Tamil Nadu",Tamil Nadu,Chennai,600040,10:00 AM TO 10:00 PM,"13.08099835,80.19680501",-
Ethnix by Raymond,"757/D-2, 1st Floor, Main Road, Near Sujata Cinema,, G.P.O RANCHI, RANCHI, Jharkhand 834001",Jharkhand,RANCHI,834001,10.00 AM TO 9.00 PM,"23.36437327183739,85.32300220630549",-
ColorPlus,"Shop No Ff 24, B Wing, Trilium Mall, Circular Road, Amritsar-143001, Punjab",Punjab,Amritsar,143001,10:00 AM TO 10:00 PM,"31.658722,74.8789951","0183-5044413, 9415216531"
ColorPlus,"7, City quare Complex, Ambala-Chandigarh Highway, Zirakpur-140603, PUNJAB",Punjab,Zirakpur,140603,10:00 AM TO 10:00 PM,"30.632055,76.8232224",0172-5071245
ColorPlus,"RAL-CP, CARNIVAL COMPLEX, LUDHIANA - 141001, PB",Punjab,Ludhiana,141001,10:30 AM TO 8:30 PM,"30.90921839,75.83967617",0161- 5012474
The Raymond Shop,"Shaukat Ali Road, Near Afroz miya ki Kothi, Rampur-244 901, UP",Uttar Pradesh,Rampur,244901,10:30 AM TO 8:30 PM,"28.7936309,79.0222809",-
Ethnix by Raymond,"Plot No 75, 3rd Block , Opp11th Main Road, Jayanagar, Bengaluru-560 011",Karnataka,Bangalore,560011,10.30 AM TO 9.30 PM,"12.9342625,77.5827774",-
ColorPlus,"No. 1 F-107, Sarath's City Capital, Gachibowli - Miyapur Rd, Hyderabad-500084, Telangana",Telangana,Hyderabad,500084,10:00 AM TO 10:00 PM,"17.45771787,78.36173396",-
ColorPlus,"South City Projects Kolkata 375, Prince Anwar Shah Road, Kolkata 700068",West Bengal,Kolkata,700068,10:00 AM TO 10:00 PM,"22.501714,88.3617386",033-40066650
Ethnix by Raymond,"Plot-5, Upper Basement, Opp-S.P. Residence, Delhi, HISAR-125 001, HARYANA",Haryana,Hissar,125001,10.30 AM TO 9.30 PM,"29.1491875,75.7216527",-
ColorPlus,"Shop No. 3, The Mall, Mall Road, SHIMLA-171001, Himachal Pradesh",Himachal Pradesh,Shimla,171001,10.30 AM TO 9.30 PM,"31.10565577,77.16187387",9872689992
Ethnix by Raymond,"38, Malviya Nagar, Lower T.T. Nagar, BHOPAL-462003, MP",Madhya Pradesh,Bhopal,462003,10.30 AM TO 9.30 PM,"23.23883262,77.40124527",-
ColorPlus,"West End Mall, Unit-Hg 27, Shop No.- 169/1Dp Road, Sector-1, Aundh, Pune - 411007, MH",Maharashtra,Pune,411007,10:00 AM TO 10:00 PM,"18.56286474,73.80671964",020-27207449
ColorPlus,"Providence Mall-Shop No-2, Venkata Subha Reddiav Sal, Puducerry-605001",Pondicherry,Pondicherry,605001,10:00 AM TO 10:00 PM,"11.929175,79.820007",-
ColorPlus,"P And M Mall, 2nd Floor, Patliputra, Patna - 800013 Bihar",Bihar,Patna,800013,10:00 AM TO 10:00 PM,"25.63427671,85.10638323",
ColorPlus,"SHOP-FF9, City Centre Mall, G.S.Road, GUWAHATI - 781005, ASSAM",Assam,Guwahati,781005,10:30 AM TO 8:30 PM,"26.15462778,91.78132869",9800866228
ColorPlus,"E-13, Basement And Ground Floor, NDSE-II, New Delhi - 110049",Delhi,Newdelhi,110049,10:00 AM TO 10:00 PM,"28.57223465,77.22029042","011-46052740, 9990101971"
The Raymond Shop,"Bazarpara, Ward No.18, P.O.Raghunathganj, District-Murshidabad - 742 225",West Bengal,Murshidabad,742225,10:30 AM TO 8:30 PM,"24.4621105,88.0657209",-
Ethnix by Raymond,"Ground Floor, House No. 11, Sanjay Gandhi Transport, Lajpat Nagar - 110024, Delhi",Delhi,Delhi,110024,10.30 AM TO 9.30 PM,"28.74466571,77.149321",9971476858
The Raymond Shop,"Deviganj Road, Ambikapur, Raipur, Chattisgarh 497001",Chattisgarh,Raipur,497001,10:30 AM TO 8:30 PM,-,-
ColorPlus,"Shop No. 4, Natarang Mansi Main Road, Bistupur, Jamshedpur-831001, Jharkhand",Jharkhand,Jamshedpur,831001,10:00 AM TO 10:00 PM,"22.79268339,86.1839658",-
Ethnix by Raymond,"91, Scheme No 114, A.B Road, Indore - 452 001, MP",Madhya Pradesh,Indore,452001,10.30 AM TO 9.30 PM,"22.7676272,75.9006844",-
The Raymond Shop,"540, GURUKUL ROAD, OPP RAILWAY STATION,",Madhya Pradesh,Khurai,470117,10:30 AM TO 8:30 PM,-,-
The Raymond Shop,"8A, Anand Vaibhav  Opp. Shree Shivaji Mandir,  Next to Plaza Cinema,  N C Kelkar Road, Dadar, Mumbai - 400028, Maharashtra",Maharashtra,Mumbai,400028,10:30 AM TO 8:30 PM,"19.02293627,72.84245754",9820044550
ColorPlus,"Shop No:- F003, First Floor, Nucleus Mall, Circular Road, Ranchi- 834001",Jharkhand,Ranchi,834001,10:00 AM TO 10:00 PM,"23.37601453,85.33191729","0651-2563315, 9821763961"
ColorPlus,"Unit-18, The Crossroad Mall, Station Road, Opp-Railway Station, ROURKELA-769001, ODISHA",Orissa,Rourkela,769001,10:30 AM TO 8:30 PM,"22.22704702,84.86384553",9831199960
ColorPlus,"Unit No. F-62, First Floor, Prozone Mall, Coimbatore - 641035, Tamil Nadu",Tamil Nadu,Coimbatore,641035,10:00 AM TO 10:00 PM,"11.05557144,76.99400231",0422-6628367
ColorPlus,"Shop F-123, Vegas Mall, 1st Floor, Pocket-1, Dwarka-110078, NEW DELHI",Delhi,Delhi,110078,10:30 AM TO 8:30 PM,"28.60092636,77.02955054",9999774218
ColorPlus,"10-Nageswaran Road, T. Nagar, Opp-Panagal Park, Chennai-600017, Tamil Nadu",Tamil Nadu,Chennai,600017,10:00 AM TO 10:00 PM,"13.04094981,80.23289006",044-24343434
ColorPlus,"Santham Complex, Saradha College Road, Salem-635016, Tamil Nadu",Tamil Nadu,Salem,635016,10:00 AM TO 10:00 PM,"11.67742317,78.13828806",-
Ethnix by Raymond,"Shop No 2 and 23, A D Mal, Vijay Chowk, PURDKPUR, Gorakhpur-273 001, UP",Uttar Pradesh,Gorakhpur,273001,10.30 AM TO 9.30 PM,"26.7564822,83.366649",9523472979
ColorPlus,"G-7, Ground Floor, Orion Mall, Bungalow No. 8/96, Gorakhpur - 273008, UP",Uttar Pradesh,Gorakhpur,273008,10.30 AM TO 9.30 PM,"26.74984539,83.39840832",9005003333
ColorPlus,"RAL-CP-Shop, Seaport airport, next to Naipunnya Public School, KOCHI-682021, Kerala",Kerala,Kochi,682021,10:30 AM TO 8:30 PM,"10.03274491,76.33388559",9847341080
ColorPlus,"Studio 72, Sharma Building, Mirza Ismail Road, Jaipur-302001, Rajasthan",Rajasthan,Jaipur,302001,10:30 AM TO 8:30 PM,"26.91654709,75.81196028",-
Ethnix by Raymond,"H.No. 582-2-9, M.G.Road, INDORE-452001, MP",Madhya Pradesh,Indore,452001,10.30 AM TO 9.30 PM,"22.72315166,75.88274715",9981230492
The Raymond Shop,"Shop No. 150/151,  G D Complex,  Opp. RTC Bus Stand,  Main Road,, Kavali - 524201, Andhra Pradesh",Andhra Pradesh,Kavali,524201,10:30 AM TO 8:30 PM,"14.909702217295363,79.99199085396799",-
The Raymond Shop,"GF 02, Nilamber Primero, Bansal Mall Road, Vasna, Vadodara-390 015, Gujarat",Gujarat,Vadodara,390015,10:30 AM TO 8:30 PM,"22.3036886,73.1381666",-
The Raymond Shop,"01, Ram Nagar,",Madhya Pradesh,Devas,455001,10:30 AM TO 8:30 PM,-,-
The Raymond Shop,"Near Pusad Urban Bank, Mondha Road, Basmatnagar, Hingoli-431 512, Mh",Maharashtra,Hingoli,431512,10:30 AM TO 8:30 PM,"19.3301963,77.1589479",-
The Raymond Shop,"Plot No.8, Survey no.88/1, opp. Shevantabai Mangal Karyalay, Sillod Bhokardan Rd, Sillod 431 112 MH",Maharashtra,Sillod,431112,10:30 AM TO 8:30 PM,"20.2951577,75.6610036",-
The Raymond Shop,"15-31/17, 18, 19, 20 Ground Opp Market Yard, Nagarkurnool-509 209, TELANGANA",Telangana,Nagarkurnool,509209,10:30 AM TO 8:30 PM,"16.4737724,78.3336414",-
The Raymond Shop,"50-G-BLOCK, Goshala Road, Sri Ganganagar",Rajasthan,Shri Ganganagar,335001,10:30 AM TO 8:30 PM,-,-
The Raymond Shop,"Near Hotel Harsha, Bhatta Bazar, Purnea-854 301, Bihar",Bihar,Purnia,854301,10:30 AM TO 8:30 PM,"25.7736144,87.4779269",-
The Raymond Shop,"Near LIC Office,  Reva Road, Saraiya Kothi - 843126, Bihar",Bihar,Saraiya Kothi,843126,10:30 AM TO 8:30 PM,"26.07940659454485,85.19931626931199",9939017916
The Raymond Shop,"Near Police Station, Main Road, Nalanda, Hilsa - 801302, Bihar",Bihar,Hilsa,801302,10:30 AM TO 8:30 PM,"25.31292808780652,85.27412925396801",-
ColorPlus,"Shop No.- 25, Purshottam Market, Nr. Dr. Mogga Hospital, Karnal-132001, HARYANA",Haryana,Karnal,132001,10.30 AM TO 9.30 PM,"29.69210583,76.9929396",9813100009
The Raymond Shop,"5-3-678, NH ROAD,",Telangana,Kamareddy,503111,10:30 AM TO 8:30 PM,-,-
The Raymond Shop,"Shop no 11,12,111,112, New Ward no 1, Maktampur Road, BHARUCH-392 001, GJ",Gujarat,Bharuch,392001,10:30 AM TO 8:30 PM,"21.7078109,73.0103649",-
The Raymond Shop,"11(7), S. N. Banerjee Road, Barrackpore, North 24 Parganas-700 120",West Bengal,North24Parganas,700120,10:30 AM TO 8:30 PM,"22.7623439,88.3641982",-
The Raymond Shop,"In front of Radio Colony, Panna Naka, Chhatarpur-471 001, MP",Madhya Pradesh,Chhatarpur,471001,10:30 AM TO 8:30 PM,"24.8925067,79.6000591",-
The Raymond Shop,"GF-01, Vinayak Commercial, Near Hotel Park, Junagadh VERAVAL-362 265, GJ",Gujarat,Veraval,362265,10:30 AM TO 8:30 PM,"20.934537,70.351827",-
The Raymond Shop,"Dsc Clothing, City Center, Upper Ground, shop No 3,5,6, Govindbagh, balrampur 271201 UP",Uttar Pradesh,Gorakhpur,271201,10:30 AM TO 8:30 PM,"27.4307473,82.1805203",-
The Raymond Shop,"Teen Pulva Chowk,  Near Axis Bank, Lalganj - 844121, Bihar",Bihar,Lalganj,844121,10:30 AM TO 8:30 PM,"25.773185529418335,85.069069569312",-
The Raymond Shop,"555, 9th Cross, JP Nagar, Near Bannerghatta Road,  Mini Forest, Bangalore-560078",Karnataka,Bangalore,560078,10:30 AM TO 8:30 PM,"12.9116185,77.5986986",-
The Raymond Shop,"4-407-2-1 Near RTC Bus Stand,  Madanapalle, Madanapalle - 517325, Andhra Pradesh",Andhra Pradesh,Madanapalle,517325,10:30 AM TO 8:30 PM,"13.557697549102587,78.49002505396801",-
The Raymond Shop,"Busyland Complex, Shop No166, Nagpur Road, Amravati-444901 MH",Maharashtra,Amravati,444901,10:30 AM TO 8:30 PM,"20.9319821,77.7523039",-
The Raymond Shop,"126, SUBHASH WARD,",Madhya Pradesh,Harda,461331,10:30 AM TO 8:30 PM,-,-
The Raymond Shop,"Plot no 389, Patia, Bhubaneshwar, Khordha-751 024, ODISHA",Orissa,Bhubhaneshwar,751024,10:30 AM TO 8:30 PM,"20.3514984,85.8229464",-
Ethnix by Raymond,"20, Land bearing No.20 (old New Delhi South Extension) New Delhi -110020",Delhi,Newdelhi,110020,10.30 AM TO 9.30 PM,"28.56955139,77.22107462",9971476858
Park Avenue,"Shop No. 140, 1st Floor, Elante Mall, Plot No. 178, Industrial Area Phase 1, Chandigarh-160002",Chandigarh,Chandigarh,160002,10.30 AM TO 9.30 PM,"30.70611209,76.8014501","0172-4080062, 9811142691"
Ethnix by Raymond,"Shop No.A1, Gr.floor, Kessel MAll, Kurukshetra-136 118, Haryana",Haryana,Kurukhetra,136118,10.30 AM TO 9.30 PM,"29.9706171,76.8365483",9871793574
The Raymond Shop,"Holding no.1497/1213D/603O.T Road, P.S.-Uluberia,  Howrah-711 316, West Bengal",West Bengal,Howrah,711316,10:30 AM TO 8:30 PM,"22.6027181,88.3164221",-
Ethnix by Raymond,"Plot No.- 3, 1st Floor, Above Vijaya Bank,, Aerodrome Circle, KOTA, Rajasthan 324005",Rajasthan,Kota,324005,10.00 AM TO 9.00 PM,"25.168399528726344,75.84883913976604",-
Park Avenue,"SCO - 3, Bhupindra Road, Patiala, Punjab - 147001",Punjab,Patiala,147001,10.30 AM TO 9.30 PM,"30.34562489,76.37689419","0175-5061006, 7837809013"
The Raymond Shop,"Plot No 24-235, Opp.Twill Ramanaidupeta, Machilipatnam- 521 001, ANDHRA PRADESH",Andhra Pradesh,Machilipattanam,521001,10:30 AM TO 8:30 PM,"16.1838595,81.1369017",-
The Raymond Shop,"Labh Complex, Bus Stand Road, Opp.M P Shah Arts & Science collage, Surendra Nagar-360 001,GJ",Gujarat,Surendra Nagar,360001,10:30 AM TO 8:30 PM,"22.2964051,70.7941564",-
The Raymond Shop,"D-3/17, Ground Floor, Lal Krishna Nagar, Delhi-110 051, DL",Delhi,Delhi,110051,10:30 AM TO 8:30 PM,"28.6509821,77.286333",-
The Raymond Shop,"C/O Tanishq,",Uttar Pradesh,Muzafarnagar,244901,10:30 AM TO 8:30 PM,-,-
Ethnix By Raymond,"Shop no. 3F-026, 3rd floor, Gachibowli-Miyapur road, Hyderabad-500084, Telangana",Telangana,Hyderabad,500084,10.30 AM TO 9.30 PM,"17.46968572,78.36344856",9989843434
The Raymond Shop,"GR. FLOOR, 01, CENTRO MALCHANDHAPURA, KODUNGALLUR,Thrissur-680 664, Kerala",Kerala,Thrissur,680664,10:30 AM TO 8:30 PM,"10.2189381,76.21025",-
Ethnix by Raymond,"Shop No.6-3-348, Unit-6,  Up Midtown comp., Rd No.1, Hyderabad 500034, TG",Telangana,Hyderabad,500034,10.30 AM TO 9.30 PM,"17.42342094,78.44914201",9394555444
Park Avenue,"9,10 & 11, Upper Ground Floor, The West End Mall, Ludhiana-141001, Punjab",Punjab,Ludhiana,141001,10.30 AM TO 9.30 PM,"30.88612667,75.78805167","0161-4660027, 9988346101"
The Raymond Shop,"RS Complex, Main Road, Phusro, Bokaro-829 144, Jharkhand",Jharkhand,Bokaro,829144,10:30 AM TO 8:30 PM,-,-
Park Avenue,"1st Floor, Pacific Mall, Site IV, Sahibabad Industrial Area, Ghaziabad - 201010, Uttar Pradesh",Uttar Pradesh,Ghaziabad,201010,10.30 AM TO 9.30 PM,"28.6464533,77.3200057","0120-4560325, 9136420669"
The Raymond Shop,"MADHAVI RESIDENCY, SHOP NOSEC-23, PLOT NO-205, ULWE. TALUKA-PANVEL-410 206, MH",Maharashtra,Panvel,410206,10:30 AM TO 8:30 PM,"18.987712,73.111268",-
Ethnix by Raymond,"Shop 15, 1st Floor, R-City Mall, LBS Road, Amrut Nagar, Ghatkopar West, Mumbai-400086, Maharashtra",Maharashtra,Mumbai,400086,10.30 AM TO 9.30 PM,"19.09998022,72.91474348",-
The Raymond Shop,"Near MRF Showroom, NH-80, Kahalgaon, Bhagalpur-813 204, BH",Bihar,Bhagalpur,813204,10:30 AM TO 8:30 PM,"25.2509196,86.9934803",-
Ethnix by Raymond,"Shop No. 171 and 178, Block Vegas Mall, Plot No.06, Dwarka-110078, New Delhi",Delhi,Newdelhi,110078,10:30 AM TO 8:30 PM,"28.60192813,77.0272835",8826486929
Ethnix by Raymond,"Shop no. 13,14, CITY CENTRE, Near APOLLO Hospital, G.S. Guwahati-781005, ASSAM",Assam,Guwahati,781005,10.30 AM TO 9.30 PM,"26.1539075,91.77907872",9435016653
Ethnix by Raymond,"Jaistambh Chowk, AMRAVATI-444601, MAHARASHTRA",Maharashtra,Amravati,444601,10.30 AM TO 9.30 PM,"20.93068035,77.75260433",9422918801
Ethnix by Raymond,"Shop no.14/122-A, MG Marg, PPN market, KANPUR - 208001, UP",Uttar Pradesh,Kanpur,208001,10.30 AM TO 9.30 PM,"26.47426985,80.33894157",-
Park Avenue,"Shop No. Gf-10, DLF City Center Mall, Rajiv Gandhi Tech Park, Kishangarh, Chandigarh-160101",Chandigarh,Chandigarh,141001,10.30 AM TO 9.30 PM,"30.7288586,76.8454261","0172-4656013, 9646575228"
The Raymond Shop,"G41 TO 45, Square One Mall, Radhanpur Road, MEHSANA-384002, GJ",Gujarat,Mehsana,384002,10:30 AM TO 8:30 PM,"23.6113956,72.3734508",-
Ethnix by Raymond,"102/103, CENTER POINT, ALKAPURI, BARODA, Gujarat - 390005",Gujarat,BARODA,390005,10.00 AM TO 9.00 PM,"22.310174085128406,73.1704818845867",-
Park Avenue,"Shop No. 5, Ground Floor, 5A Sardar Patel Marg, Civil Lines, Allahabad-211001, Uttar Pradesh",Uttar Pradesh,Allahabad,211001,10.30 AM TO 9.30 PM,"25.45163615,81.83491004","0532-2400124, 9811142691"
Ethnix by Raymond,"SHOP NO. 3A, KAKADIA COMPANY, GHOD-DOD ROAD, SURAT-395 007, GJ",Gujarat,Surat,395007,10:30 AM TO 8:30 PM,"21.173968,72.7973279",-
Park Avenue,"1st Floor, One Awadh Center Mall, Opp. Apna Bazar, Vibhuti Khand, Gomti Nagar Lucknow-226010",Uttar Pradesh,Lucknow,226010,10.30 AM TO 9.30 PM,"26.86494216,80.99952335","0522-4958943, 9999743990"
Ethnix by Raymond,"46-7-10, Opp. Tipsy Topsy, N Danavaipeta road, Rajahmundry, East Godavari -533101, AP",Andhra Pradesh,Rajahmundry,533101,10:30 AM TO 8:30 PM,"17.0072742,81.78050074",7093717675
Ethnix by Raymond,"SHOP NO-3, HIRA-PANNA COMPLEX MARKET, PATNA-800013, BIHAR",Bihar,Patna,800013,10.30 AM TO 9.30 PM,"25.61176728,85.12300991",9334102995
Ethnix by Raymond,"SHOP NO. 373-A,B, GROUND FLOOR,  OPP. SARDARPURA THANA, 4TH JODHPUR-342001, RAJASTHAN",Rajasthan,Jodhpur,342001,10.30 AM TO 9.30 PM,"26.27716499,73.00858662",-
Ethnix by Raymond,"9/11, Rajpur Road, DEHRADUN-248001, UTTARAKHAND",Uttrakhand,Dehradun,248001,10.30 AM TO 9.30 PM,"30.34008153,78.05717642",-
Ethnix by Raymond,"Shop No. SF 210, 2nd Floor, Infinity Mall, MALAD - West, Mumbai-400064, Maharashtra",Maharashtra,Mumbai,400064,10:30 AM TO 8:30 PM,"19.1848671,72.83228968",9820270534
Park Avenue,"Shop No. F-49, First Floor, Phase 2, R-City Mall, LBS Marg, Ghatkopar(W), Mumbai 400086, Maharashtra",Maharashtra,Mumbai,400086,10.30 AM TO 9.30 PM,"19.0997508,72.916423","022-61275677, 9820937374"
Park Avenue,"Park Avenue, Sco - 23, Sector - 17, Chandigarh - 160017",Chandigarh,Chandigarh,160017,10.30 AM TO 9.30 PM,"30.73930033,76.78147107",0172-4658486
Ethnix by Raymond,"Shop NO.:- 10, 1st Floor, Model Town, Near Nehru Park, YAMUNANAGAR-135001, HARYANA",Haryana,Yamuna Nagar,135001,10.30 AM TO 9.30 PM,"30.13570837,77.28791426","01732 260071, 9810394785"
Park Avenue,"Shop No. F-54, 1st Floor, Phoenix Market City, Viman Nagar Road, Pune - 411014, Maharashtra",Maharashtra,Pune,411014,10.30 AM TO 9.30 PM,"18.5620613,73.9167451",020-30950489
Ethnix by Raymond,"Ground Floor, Plot No.11, Kapil Vihar, Pitampura,  Delhi - 110034",Delhi,Delhi,110034,10.30 AM TO 9.30 PM,"28.6992739,77.1376577",9643949895
Park Avenue,"100 - A, Rajpur Road, Dehradun-248001, Uttarakhand",Uttrakhand,Dehradun,248001,10.30 AM TO 9.30 PM,"30.34109998,78.06017486",0135-2748777
Park Avenue,"Shop No. 8, Cusrow Bagh, SBS Road, Colaba, Mumbai - 400005, Maharashtra",Maharashtra,Mumbai,400005,10.30 AM TO 9.30 PM,"18.9206282,72.8301987",022-22821860
Park Avenue,"UG 19-20, A Wing, WTP Mall, Jawahar Lal Nehru Marg, Malviya Nagar, Jaipur-302017",Rajasthan,Jaipur,302017,10.30 AM TO 9.30 PM,"26.85395128,75.80509967","0141-2728088, 9811142691"
Park Avenue,"Shop No. 74-76, Ground Floor, Hilite Mall, NH17, Guruvayoorappan College, Thondayad Bypass, Calicut-673014",Kerala,Calicut,673014,10.30 AM TO 9.30 PM,"11.24835393,75.83349672","0495-2435500 , 9880830358"
Park Avenue,"Shop No. F 1 , First Floor, Korum Mall, Eastern Express Highway, Thane (W), Thane-400606",Maharashtra,Thane,400606,10.30 AM TO 9.30 PM,"19.2028031,72.9653798","022-67935298, 9819133226"
Park Avenue,"Shop No. G2 & G3, Sector-12, Plot No.-7, Dwarka, New Delhi",Delhi,Delhi,110075,10.30 AM TO 9.30 PM,"28.59710968,77.05695865",011-42482244
Park Avenue,"Shop No. F67 & F68, Lulu International Shopping Mall, National Highway 17, Edappally, Kochi-682024",Kerala,Kochi,682024,10.30 AM TO 9.30 PM,"10.0272816,76.3079519","0484 - 4064911, 9900600386"
Park Avenue,"E-10/1, Inner Circle, Connaught Place, New Delhi 110001",Delhi,Delhi,110001,10.30 AM TO 9.30 PM,"28.6337665,77.2209976",011-41536008
Park Avenue,"Shop No. 118,Great India Palace Mall,Noida",Uttar Pradesh,Noida,201301,10.30 AM TO 9.30 PM,"28.56828508,77.32630132",0120-4242020
Ethnix by Raymond,"Phoenix Market City, Gomti Nagar Extension, Lucknow - 226010, UP",Uttar Pradesh,Lucknow,226010,10.30 AM TO 9.30 PM,"26.88320585,80.99141159",9415835875
Park Avenue,"Ground Floor, 72-74, The Metropolitan Mall, Gurgaon-122002, NCR",Haryana,Gurgaon,122001,10.30 AM TO 9.30 PM,"28.48067802,77.08033255",0124-4300209
Ethnix by Raymond,"F22, F16, 1st Floor, D.R.B. Palace Mall, Opp.B.B Collegiate, Motijheel, Muzaffarpur-842001, BIHAR",Bihar,Muzaffarpur,842001,10.30 AM TO 9.30 PM,"26.12011512,85.38657299",9934222000
Park Avenue,"Shop No. 2, Ground Floor, H Plot-8-2, Hyderabad, Telangana - 500034",Telangana,Hyderabad,500034,10.30 AM TO 9.30 PM,"17.4198477,78.4411539","040-42014422, 7569334393"
Park Avenue,"Ground Floor,United Tractors,7 ,Park Road,Golghar,,Gorakpur, Uttar Pradesh",Uttar Pradesh,Gorakhpur,273001,10.30 AM TO 9.30 PM,"26.7528941,83.379017",-
Park Avenue,"Shop No.2, Ambedkar Road, Opp. Civil Hospital, Belgaum-590001, Karnataka",Karnataka,Belgaum,590001,10.30 AM TO 9.30 PM,"15.87052787,74.51181062","0831-4200022 , 98880830358"
Park Avenue,"Ground Floor, DB City Mall, Opp. Railway Station, Gwalior-474005, Mp",Madhya Pradesh,Gwalior,474005,10.30 AM TO 9.30 PM,"26.2162366,78.1850463",0751-4924137
Park Avenue,"F-10, Z- Square Mall, Near Bada Chauraha, Kanpur-208001, Uttar Pradesh",Uttar Pradesh,Kanpur,208001,10.30 AM TO 9.30 PM,"26.4736425,80.35224392",05122-303313
Park Avenue,"Shop No. 2A, Kotri Road, Gumanpura, Kota-324 007, RAJASTHAN",Rajasthan,Kota,324007,10:30 AM TO 8:30 PM,"25.1766802,75.8502764",7777073904
Park Avenue,"Shop No. 15, Phoenix United, Near Mahanagar Colony, Pilibhit Bypass Road, Bareilly-243002, Uttar Pradesh",Uttar Pradesh,Bareilly,243002,10.30 AM TO 9.30 PM,"28.39044238,79.45766104","0581-2583297, 9811142691"
Park Avenue,"Shop No. 8 & 9, Level II, Ground Floor, Shipra Mall, Vaibhav Khand, Indirapuram, Ghaziabad-201014",Uttar Pradesh,Ghaziabad,201014,10.30 AM TO 9.30 PM,"28.6345333,77.36989401","0120-4284441, 9811142691"
Park Avenue,"Shop No.417, Focus Mall, Rajaji Road, Mavoor Road, Calicut-673001, Kerala",Kerala,Calicut,673001,10.30 AM TO 9.30 PM,"11.25870248,75.78577131",0495-4021006
Park Avenue,"Ground & First Floors, 47, Devraj Urs Road, Mysore- 570001, Karnataka",Karnataka,Mysore,570001,10.30 AM TO 9.30 PM,"12.30955077,76.64745012","0821-4256788, 9900600386"
Park Avenue,"SCF - 85, Ground Floor, Urban Estate-2, Hisar, Haryana - 125001",Haryana,Hissar,125001,10.30 AM TO 9.30 PM,"29.1352781,75.7459671",9170670000
Park Avenue,"Shop No.4, First Floor, Mall De Goa, Povorim-403501, Goa",Goa,Povorim,403501,10.30 AM TO 9.30 PM,"15.5259314,73.8272436","0832-2415567, 9819133226"
Park Avenue,"V3S Mall, Shop No. G26/27, Ground Floor, East Centre, District Centre, Delhi- 110092",Delhi,Delhi,110092,10.30 AM TO 9.30 PM,"28.6374289,77.2867373",-
The Raymond Shop,"NO 53, DURUGAM ROAD, DISTRICT KALLAKURICHI,",Tamil Nadu,Kallakurichi,606202,10:30 AM TO 8:30 PM,-,-
Park Avenue,"G-7A, Ground Floor,",Delhi,Newdelhi,110058,10.30 AM TO 9.30 PM,"28.629525,77.0822574",-
Park Avenue,"FF/S/12 A, GAUR CITY MALL, GREATER NOIDA ( W), UTTAR PRADESH - 201009   NOIDA",Uttar Pradesh,Noida,201009,10.30 AM TO 9.30 PM,"28.6135866,77.426125",7777073904
Park Avenue,"Shop No. 209 B, First Floor, Fun Republic Mall, Gomti, Lucknow-226016, Up",Uttar Pradesh,Lucknow,226016,10.30 AM TO 9.30 PM,"26.858098,80.9762617","0522-4233568, 9890123914"
Park Avenue,"FF 109, Pavilion Mall, B-I-B-I-1258, Kailash Cinema, Ludhiana-141 008,Punjab",Punjab,Ludhiana,141008,10:30 AM TO 8:30 PM,"30.9158333,75.8408333",706690791
Park Avenue,"Shop No. FF3, 1st Floor, AD Khewat No.7, House No. C/12Purdilpur, Gorakhpur-273 001",Uttar Pradesh,Gorakhpur,273001,10:30 AM TO 8:30 PM,"26.7448496,83.3655823",-
Park Avenue,"Ground Floor,Shop No- 8/239,Pratap Road,Opp One New Town,Moga,Punjab",Punjab,Moga,142001,10.00 AM TO 9.00 PM,"30.81471890442155,75.16856268796988","01636-230818, 9718296777"
Park Avenue,"Shop no 6,Ground Floor , Mall Road,Himachal Pradesh",Himachal Pradesh,Shimla,171001,10.30 AM TO 9.30 PM,"31.102538,77.177085",0177-2810111
Park Avenue,"Shop No. 1/2/3, Maharaja Nirala Bazar Rd, Samarth, Aurangabad-431001, Mh",Maharashtra,Ahmednagar,431001,10.30 AM TO 9.30 PM,"19.8785239,75.3221193","0240-6649666, 8007110011"
Park Avenue,"West End Mall, Unit No-Gsferandawane, Aundh, Pune-411 007, Mh",Maharashtra,Pune,411007,10.30 AM TO 9.30 PM,"18.561618,73.806919","022-22821860, 9890123914"
Park Avenue,"Ground Floor, Shop No. 490 Model Town, Prakash Nagar, Jalandhar-144003, Punjab",Punjab,Jalandhar,144003,10.30 AM TO 9.30 PM,"31.3065794,75.5772475",-
Parx,"Phoenix Market City, Bengalaru East.F-46, First Floor, Mahadevpura,Near Krishnarajapuram Flyover, Bengalaru - 560 048",Karnataka,Bangalore,560048,10:30 AM TO 8:30 PM,"12.99600032,77.69649336","080-67266243, 9902955229"
Park Avenue,"Ground Floor, Near Chandr, Opp ICICI Bank, Haridwar, Uttarakhand-249407",Uttrakhand,Haridwar,249407,10.30 AM TO 9.30 PM,"29.9332,78.1332",7066907911
Park Avenue,"285, 286, 312 & 314 On The Indirapuram Habitat Centre, Indirapuram, Ghaziabad-201014",Uttar Pradesh,Ghaziabad,201014,10.30 AM TO 9.30 PM,"28.6493468,77.3521163","0120-4233800, 7081779777"
Parx,"103, Trinity, Keshav Park, Mhow-453 331, INDORE MP",Madhya Pradesh,Mhow,453331,10.30 AM TO 9.30 PM,"22.6069699,75.7950898",9644540502
Parx,"B-54, JANPATH, SHAHEED NAG, BHUBANESWAR-751007, ODISHA",Orissa,Bhubaneshwar,751007,10:30 AM TO 8:30 PM,"20.29331647,85.84258993",-
Park Avenue,"Unit No. 51, 1st Floor, Sector",Uttar Pradesh,Lucknow,226010,10.30 AM TO 9.30 PM,"26.8994229,80.9278468",9005003333
Parx,"Shop No.49, Line No.1, Bistupur Main Road, Jamshedpur-831 001, Jharkhand",Jharkhand,Jamshedpur,831001,10.30 AM TO 9.30 PM,"22.77866303,86.17287896",9051498451
Park Avenue,"Showroom No. 3, Village Singhpura, Ambala Chandigarh Expy, Ambala SAS Nagar, Zirakpur, Punjab 140603",Punjab,Zirakpur,140603,10.30 AM TO 9.00 PM,"30.63100306015035,76.82327269485813",01762480992
Parx,"Shop No-G-11, City Mall, Indraprastha Industrial Area, Kota-324 005, RJ",Rajasthan,Kota,324005,10.30 AM TO 9.30 PM,"25.13683584,75.85510664",7820976816
Park Avenue,"Shop No. 5-6, May Fair Complex, Ramdas Sutralaya Marg, Off Chandravarkar Rd,  Opp. ICICI Bank, Borivali - West, Mumbai-400092, Maharashtra",Maharashtra,Mumbai,400092,10.30 AM TO 9.30 PM,"19.2461119,72.8508984",022-28911036
Parx,"Shop No.416, Focus Mall, Rajaji Road, Mavoor Road Junction, Opp.New Bus Stand, Calicut-673001",Kerala,Calicut,673001,10:30 AM TO 8:30 PM,"11.25867073,75.78540008",0495-4021109
The Raymond Shop,"158, M.G.Road, Tilkamanjhi, Bhagalpur - 812001, Bihar",Bihar,Bhagalpur,812001,10:30 AM TO 8:30 PM,"25.25338040221181,86.99931581534399",0641-2401056
Park Avenue,"Forum Mall, Shop No. 006, Upper Ground Floor, 183 NSK Salai, Vadapalani, Chennai-600026, Tamil Nadu",Tamil Nadu,Chennai,600026,10.30 AM TO 9.30 PM,"13.04994321,80.2094896","044-66528352, 9900600386"
Parx,"Shop No.F6, First Floor, Or Mohaddipur, Gorakhpur-273 008, Uttar Pradesh",Uttar Pradesh,Gorakhpur,273008,10:30 AM TO 8:30 PM,"26.74981297,83.4008915",9005003333
Park Avenue,PARK AVENUE NEAR RAJENDRA NAGAR OVER BRIDGE KANKERBAGH MAIN ROAD PATNA-800020,Bihar,Patna,800020,10.30 AM TO 9.30 PM,"25.5932239,85.1576079","91 8004869031, 7081779777"
Park Avenue,"BMG Mall, Circular Road, Leo Chowk, ,Shop no.7, First Floor,,Rewari, Haryana",Maharashtra,Mumbai,400072,10.30 AM TO 9.30 PM,"19.1060752,72.8854701",9769005642
Park Avenue,"Shanti Square Building, 2nd Mile, Sevoke Road,",West Bengal,Siliguri,734001,10.30 AM TO 9.30 PM,"26.734588,88.432797",-
Park Avenue,"66/6284 - A1, Mahatma",Kerala,Kochi,682035,10.30 AM TO 9.30 PM,"9.9778512,76.2838337",0484-4046360
Parx,"Unit No.G-20, Ground Floor, Cosmos Mall, Plot No.D9, Ujjain-456 010, MP",Madhya Pradesh,Ujjain,456010,10.30 AM TO 9.30 PM,"23.15647721,75.79235533",9742022333
Park Avenue,"Park Avenue, Shop No. 8, Opp Brijlal Hospital, Pol Haldwani, Uttarakhand - 263126",Uttrakhand,Haldwani,263126,10.30 AM TO 9.30 PM,"29.2182644,79.5129767",9758114000
Park Avenue,"Shop No.14, Ground Floor, CG Mall, Next To Mahalaxmi Cloth Market, Devendra Nagar, Pandari, Raipur-492001, Chhattisgarh,",Chattisgarh,Raipur,492001,10.30 AM TO 9.30 PM,"21.2569394,81.647574","0771-4043488, 9819133226"
Parx,"25-510/15,Near Parsvanath Temple, Telephone Exchange Rd,  Saharanpur-247001, Up",Uttar Pradesh,Saharanpur,247001,10.30 AM TO 9.30 PM,"29.9680035,77.5552066",-
The Raymond Shop,"PLOT NO. 91 , WARD NO. 31, NEAR ALLAHABAD BANK , 5TH DIST- HOSHANGABAD, ATARSI  BHOPAL- 461111 MP",Madhya Pradesh,Bhopal,461111,10.30 AM TO 9.30 PM,"23.2518927,77.416817",-
Park Avenue,"Azad Garden, Kamala Nehru Gandhi Chowk Rd, Hospital, Chandrapur-442 402, MH",Maharashtra,Chandrapur,442402,10:30 AM TO 8:30 PM,"19.946342,79.2971156",-
Parx,"Ground Floor, Khasra No. 2-4, 9, Rajpur Road, Dehradun, Uttarakhand - 248009",Uttrakhand,Dehradun,248009,10:30 AM TO 8:30 PM,"30.32600473,78.04309918",0135-2749777
Parx,"Prozone Mall Unit No. F-22, First Floor, P-80, Midc, Chikhalthana, Aurangabad - 431210",Maharashtra,Aurangabad,431210,10:30 AM TO 8:30 PM,"19.87725815,75.37209822","0240-6614999, 9673596450"
Raymond RTW,"Unit No. 8, S No. 169/1, Raymond Ready To Wear, Near Parihar Chowk, Erandawane, Westend Mall, Aundh, Pune - 411007",Maharashtra,Pune,411007,10:30 AM TO 8:30 PM,"18.5618914,73.8070335",020-27207416
Park Avenue,"Unit No. F-6, Felicity Mall, First Floor, Ambedkar Nagar, Nellore-524003, Ap",Andhra Pradesh,Nellore,524003,10:30 AM TO 8:30 PM,"14.4321736,79.9666998",-
Park Avenue,"Old Door No. 25, New Door, First Main Road, Gandhi Nagar, Adyar, Chennai-600020, Tn",Tamil Nadu,Chennai,600020,10.30 AM TO 9.30 PM,"13.0069075,80.2516867","044-65350009, 9702910222"
Park Avenue,"shop No. S-109, Express Ave49, 50L, Whites Road, Royal, Chennai-600 014, TN",Tamil Nadu,Chennai,600014,10.30 AM TO 9.30 PM,"13.0582151,80.2631238",8778172084
Parx,"Trinity Mall, Keshav Park, Umariya, Dist-Indore, Mhow - 453 331, MP",Madhya Pradesh,Mhow,453331,10:30 AM TO 8:30 PM,"22.6069699,75.7950898",9827022367
Parx,"Z Square Mall, Shop No-10, Near bara chouraha kanpur-208001",Uttar Pradesh,Kanpur,208001,10:30 AM TO 8:30 PM,"26.47373104,80.35236138",0512-2302973
Parx,"B-22 GP Mall, Village Kulh Mun, Ward No.25, Near Bus Stand, Harda-461 331, MP",Madhya Pradesh,Harda,461331,10.30 AM TO 9.30 PM,"22.34110016,77.09599984",9742022333
Park Avenue,"Unit No- G1-Ts-37/38 , Seawoods Grand Central Mall , Plot R-1, Seawoods Railway Station , Nerul, Navi Mumbai, Maharashtra 400706",Maharashtra,Navi-Mumbai,400706,10.30 AM TO 9.30 PM,"19.0344647,73.0110096","022-39684298, 9769005642"
The Raymond Shop,"P P Road, Buxar",Bihar,Buxar,802101,10:30 AM TO 8:30 PM,-,"06183-227227, 9334111101"
Park Avenue,"Shop No. 17, Near Randhir Cinema, Kunjpura Road,",Haryana,Karnal,132001,10.30 AM TO 9.30 PM,"29.7088911,77.0086706",-
Park Avenue,"11, Tukogunj Main Road,",Madhya Pradesh,Indore,452001,10.30 AM TO 9.30 PM,"22.7209468,75.8785393",-
Parx,"Phoenix United Mall, G-30 Near Mahanagar Colony, Pilibhit Bypass Road, Bareilly - Uttar Pradesh 243002",Uttar Pradesh,Bareilly,243002,10:30 AM TO 8:30 PM,"28.39489806,79.45646434","0581-2583327, 8126604449"
Parx,"Shop No 35, Pramukh Tange, Next To TRS-Sargasan, Gandhinagar-382 421, GJ",Gujarat,Gandhinagar,382421,10.30 AM TO 9.30 PM,"23.1957278,72.6073709",9662168058
Parx,"Royal Trade Centre, Lower Ground, Khurram Nagar, Lucknow-206 622, UP",Uttar Pradesh,Lucknow,206622,10.30 AM TO 9.30 PM,"26.88602333,80.96987269",-
Parx,"Shop No.1&2, Ratan Cinema, Opp.John Player, Udham Singh, Kashipur-244 713, UT",Uttrakhand,Kashipur,244713,10:30 AM TO 8:30 PM,"29.21365988,78.95777271",9927990908
Park Avenue,"GF - 69, Vivana Mall, Next To Jupiter Hospital, Pokhran Road No.2, Thane (W),400610, Maharashtra",Maharashtra,Thane,400610,10.30 AM TO 9.30 PM,"19.2097096,72.9723931","022-61701199, 9819133226"
Parx,"Dr.Rajendra Prasad Road, Khalifa bagh Chowk, Bhagalpur-800 001, BIHAR",Bihar,Bhagalpur,800001,10.30 AM TO 9.30 PM,"25.24704662,86.97524458",-
Park Avenue,"Shop No. F51, Phoenix Market City, Velachery Main Road, Chennai-600042, Tamil Nadu",Tamil Nadu,Chennai,600042,10.30 AM TO 9.30 PM,"12.99233925,80.21709625","044-30083551, 9940565657"
Parx,"Raghunath City Mall, Shop No-35, Ground Floor,  Almora - 263601 Uttarakhand",Uttrakhand,Almora,263601,10.30 AM TO 9.30 PM,"29.59024514,79.64092022",-
Park Avenue,"Ground Floor,",Uttar Pradesh,Lucknow,226001,10:30 AM TO 8:30 PM,"26.8528297,80.9503041",-
Park Avenue,"Brookfield Mall, 1St Floor, F-22, Shop No. 6, Krishnaswamy Road, Coimbatore - 641001, Tn",Tamil Nadu,Coimbatore,641001,10:30 AM TO 8:30 PM,"11.0088682,76.9595363",-
Park Avenue,"Ground Floor, C-8/4, ROHINI, DELHI-110 085, NEW DELHI",Delhi,Newdelhi,110085,10.30 AM TO 9.30 PM,"28.7153451,77.1088008",8722130444
The Raymond Shop,"G-10,N.D.S.E. Part -I New Delhi, Delhi - 110049, Delhi",Delhi,Delhi,110049,10:30 AM TO 8:30 PM,"28.570372148964,77.21992145396801",011-24624901
Park Avenue,"Gala No. 431, Opp-Pilikothi, Civil Lines,",Uttar Pradesh,Moradabad,244001,10.30 AM TO 9.30 PM,"28.8455541,78.7648663","0591-2418222, 8194947775"
Park Avenue,"Shop No. F-141, 1st Floor, Plot No. 6, Sector 14, Dwarka-110 078, New Delhi",Delhi,Newdelhi,110078,10.30 AM TO 9.30 PM,"28.6038371,77.0290995",7777073904
Parx,"Kotri road, Gumanpura, Near Bata store, KOTA - 324 007, RAJASTHAN",Rajasthan,Kota,324007,10:30 AM TO 8:30 PM,"25.1760559,75.8476309",8104665064
Parx,"Plot No.1 & 2 Part of 5689th C Road, Sardarpura, Jodhpur-342 003,RAJASTHAN",Rajasthan,Jodhpur,342003,10:30 AM TO 8:30 PM,"26.27709042,73.00945034",9828163000
Park Avenue,"Shop No. 1, Plot no. 673B, Sardarpura C-Road, Jodhpur - 342 003, RJ",Rajasthan,Jodhpur,342003,10:30 AM TO 8:30 PM,"26.2771315,73.0116029",-
Park Avenue,"Shop No. 3A, 3B, 4A and 4B, CoinCorner, Beside Rajkot, RAJKOT-360 001, GUJRAT",Gujarat,Rajkot,360001,10:30 AM TO 8:30 PM,"22.2964051,70.7941564",9820937374
Park Avenue,"Shop No.114, First Floor, Infinity Mall, Malad(W), Mumbai-400064, Maharashtra",Maharashtra,Mumbai,400064,10.30 AM TO 9.30 PM,"19.1848469,72.8345642",022-28811016
Park Avenue,"Ff-33, 1St Floor, Mbm Farm, GT Road, Amritsar-143001 Punjab",Punjab,Amritsar,143001,10.30 AM TO 9.30 PM,"31.6195693,74.9074289",-
Park Avenue,"Inorbit Mall, Unit No. F-36, 1St Floor, Survey No 100, Subhanpura Village, Alembic Road, Vadodara-390003, Gujarat,",Gujarat,Vadodara,390003,10.30 AM TO 9.30 PM,"22.3222523,73.1655496","0265-2290433, 9702910222"
Park Avenue,"Shop No.4 & 5, Kanchan Dhara CO - OP Housing Society, Manpada Road, Dombivali (E), Mumbai-421204, Maharashtra,",Maharashtra,Mumbai,421204,10.30 AM TO 9.30 PM,"19.1545487,73.0618097","0251-2445141, 9819133226"
Parx,"72-B, Chauri Gali, New Man, Muzzafar Nagar-251002, UP",Uttar Pradesh,Muzafarnagar,251002,10.30 AM TO 9.30 PM,"29.47075387,77.6974786",-
Park Avenue,"Ratan Cinema Road, Near SR, Kashipur-244 713,UTTRANCHAL",Uttrakhand,Kashipur,244713,10.30 AM TO 9.30 PM,"29.2135986,78.9588587",05947-274235
Park Avenue,"1St Floor, F11B, DB City Mall, Opposite MP Nagar, Arera Hills, Zone-1, Bhopal, Madhya Pradesh 462 001",Madhya Pradesh,Bhopal,462001,10.30 AM TO 9.30 PM,"23.2326024,77.4299282","0755-6644231, 9819133226"
Parx,"Chaudhary Mall, Near Pnb Civil Lines, BIJNOR-246 701, UP",Uttar Pradesh,Bijnor,246701,10.30 AM TO 9.30 PM,"29.37640895,78.13616271",-
Parx,"Shree Complex, Near Degree College, Bareilly-Pin 229001 Up",Uttar Pradesh,Bareilly,229001,10:30 AM TO 8:30 PM,"28.39796906,79.45652624",5352700070
Parx,"Shop No.G-22,G-23, Singapor-192, Virat Khand, Gmoti, Lucknow -226010, Up",Uttar Pradesh,Lucknow,226010,10.30 AM TO 9.30 PM,"26.8516748,81.0160578",-
Parx,"Near Radha Mohan Jew Temple, Ranihat, Cuttack-753 001, Odisha",Orissa,Cuttack,753001,10:30 AM TO 8:30 PM,"20.46809205,85.89024634",9437603451
Park Avenue,"The Icon,Upper Ground Floor ,Ug01,E Ward , Rajarampuri ,6Th Lane Shop No: B,Near Shriram High School,Cs No: 1730/ 1( A),1730 B Kolhapur, Maharastra 416008",Maharashtra,Kolhapur,416008,10.30 AM TO 9.30 PM,"16.695104,74.2409578",-
Park Avenue,"Ug/1, Jagat Millennium, Opp RTO, Amravati Road, Dharampeth, Nagpur-440012, Maharashtra,",Maharashtra,Nagpur,440012,10.30 AM TO 9.30 PM,"21.1397098,79.0631278","0712-6626278, 9373566969"
Parx,"Shop No. G-26,G-27, Shalim Bhootnath, Indira Nagar,  Lucknow-226016, UP",Uttar Pradesh,Lucknow,226016,10.30 AM TO 9.30 PM,"26.87366339,80.98484872",-
Park Avenue,"21-21, A-22, City Center Mall, Christian Basti, Gangesh, Guwahati-780 005, Assam",Assam,Guwahati,780005,10:30 AM TO 8:30 PM,"26.1572284,91.7778091",7777073904
Raymond RTW,"Shop No. 2,Raymond Ready To Wear H No. 8-2-120/84, Banjara Hills-500036 Hyderabad",Telangana,Hyderabad,500073,10:30 AM TO 8:30 PM,"17.4254423,78.4356376","040-42767667, 9773108045"
Park Avenue,"F-23, First Floor, Prozone Mall, P-80 Midc, Chikhalthana, Aurangabad-431210, Maharashtra,",Maharashtra,Aurangabad,431210,10.30 AM TO 9.30 PM,"19.877019,75.3712662","0240-6617555, 9764900017"
Park Avenue,"Shop no. 21, First Floor, City Walk Mall,",Jammu & Kashmir,Srinagar,190001,10:30 AM TO 8:30 PM,"34.0739603,74.8189008",7006308385
Parx,"B, 1/5 SECTOR 18, NOIDA GAUTAMBUDHA NAGAR, NOIDA-201 301, UP",Uttar Pradesh,Noida,201301,10.30 AM TO 9.30 PM,"28.57095827,77.32569737",9461616264
Park Avenue,"C-12, Inner Circle, Connaught Place, New Delhi 110001",Delhi,Newdelhi,110001,10.30 AM TO 9.30 PM,"28.6335056,77.2187287",011-41516555
Park Avenue,"PARK AVENUE 757/D-2 MAIN ROAD,NEAR SUJATA CINEMA ,G.P.O LOWER BAZAAR RANCHI -834001",Jharkhand,Ranchi,834001,10:30 AM TO 8:30 PM,"23.3642979,85.325185",7666454442
The Raymond Shop,"Krishna Colony, Plot No-2, Near Ambedkar Circle, Alwar - 301001, RJ",Rajasthan,Alwar,301001,10:30 AM TO 8:30 PM,"27.5730617,76.6140313",-
Park Avenue,"No.7,Unit No-18, Venkata Subha Reddiar Sal, Pondicherry",Pondicherry,Pondicherry,605001,10:30 AM TO 8:30 PM,"11.9311572,79.8180097",-
Parx,"Kay Life Style, Civil Liroorkee, Haridwar, Uttarakhand, Roorkee -247667",Uttrakhand,Roorkee,247667,10.30 AM TO 9.30 PM,"29.96915861,78.03678049",-
Parx,"V3S East Centre Mall, Shop No.F-75/F-76, 1St Flr, Laxmi Nagar, New Delhi-110092",Delhi,Delhi,110092,10:30 AM TO 8:30 PM,"28.6370175,77.2866689",011-43019920
The Raymond Shop,"53-54, First Floor Z Square, Bara Chauraha, 16/113, M.Gkanpur, Kanpur - 208001, Uttar Pradesh",Uttar Pradesh,Kanpur,208001,10:30 AM TO 8:30 PM,"26.47324109,80.35266473",0512-2302174
Park Avenue,"1F-113, First Floor, Gachi White Fields, Kondapur, Hyderabad-500084, Tg",Telangana,Hyderabad,500084,10.30 AM TO 9.30 PM,"17.4554835,78.3684902",-
Park Avenue,"Shop. 19, 1st Floor, Supertech, Rudrapur-263 153, Uttarakhand",Uttrakhand,Rudrapur,263153,10:30 AM TO 8:30 PM,"28.9875082,79.4141214",9045807577
Parx,"Nihal Apparels, Near Satkar Parasia Road, Chhindwara-480 001, MP",Madhya Pradesh,Chhindwara,480001,10.30 AM TO 9.30 PM,"22.05882884,78.93403973",-
Raymond RTW,"Virtuous Retail,25-A,25C-1, Raymond Ready To Wear, Vr Mall, Rundh Village,Dumas Road, Magdalla -395007 Surat",Gujarat,Surat,395007,10:30 AM TO 8:30 PM,"21.1445923,72.7575489","0261-4133466, 9773108045"
The Raymond Shop,"3934-3939 Club Road, Belgaum, Karnataka",Karnataka,Belgaum,590001,10:30 AM TO 8:30 PM,"15.868747,74.507389","0831-2426194, 9448352194"
The Raymond Shop,"172 Rash Behari Avenue, Gariahat, (Opp: Triangular Park), Kolkata - 700 029, West Bengal",West Bengal,Kolkata,700029,10:30 AM TO 8:30 PM,"22.5176139,88.3568371",033-24667240
The Raymond Shop,"Town Hall Road, Near Satyam Hotel, Shahjahanpur - U.P. Pin Code- 242001.",Uttar Pradesh,Shahjahanpur,242001,10:30 AM TO 8:30 PM,"27.8869377,79.9142936","05842-281337, 9336931340"
The Raymond Shop,"65 Royapettah High Road, Mylapore, Chennai - 600 004, Tamil Nadu",Tamil Nadu,Chennai,600004,10:30 AM TO 8:30 PM,"13.0440906,80.267174","044-24984354, 9841097153"
The Raymond Shop,"359 Civil Lines, Elite Chowk, Jhansi Uttar Pradesh",Uttar Pradesh,Jhansi,284001,10:30 AM TO 8:30 PM,"25.448828,78.569953",0510-2333083
The Raymond Shop,"328 Civil Lines, Near Marble Palace, Azamgarh - 276001, Uttar Pradesh",Uttar Pradesh,Azamgarh,276001,10:30 AM TO 8:30 PM,"26.055006687660995,83.18203956962998","9451099650, 9451099652"
The Raymond Shop,"Shop No 66 & 67, Ground Floor, Ansal Plaza, Noida - 201 308, Uttar Pradesh",Uttar Pradesh,Noida,201306,10:30 AM TO 8:30 PM,"28.5199,77.4587239",0120-4293699
The Raymond Shop,"R S Creations, Nr. Main Chauraha, Ramnagar Road, Kashipur - 244 713, Uttarkhand",Uttrakhand,Kashipur,244713,10:30 AM TO 8:30 PM,"29.2101493,78.9619221","05947-271888, 9837173802"
The Raymond Shop,"8, Lic Complex, Dholpur House, M. G. Road, Rawli, Agra Uttar Pradesh",Uttar Pradesh,Agra,282001,10:30 AM TO 8:30 PM,"27.1753002,78.0070439","0562-4061310, 9897009222"
The Raymond Shop,"Near Radika Complex, Medic Basharatpur, Gorakhpur-273004, Up",Uttar Pradesh,Gorakhpur,273004,10:30 AM TO 8:30 PM,"26.7743868,83.3830715","0551-2281101, 9838518500"
The Raymond Shop,"C-2 & C-3 Radial Road, Opp. PVR Plaza, Connaught Place, Delhi - 110 001, Delhi",Delhi,Delhi,110001,10:30 AM TO 8:30 PM,"28.635638091365607,77.21997636931201",011-23414499
The Raymond Shop,M.G. Marg Chowk Ballia - 277 001 Uttar Pradesh,Uttar Pradesh,Ballia,277001,10:30 AM TO 8:30 PM,"25.7713496,84.1751648","05498-220492, 9838718964"
The Raymond Shop,"880 Station Road, Opp. District Hospital, Gonda",Uttar Pradesh,Gondia,271001,10:30 AM TO 8:30 PM,-,"05262-220700, 8874447700"
The Raymond Shop,"Shop B-1/5 Sector-18, Noida- 201 301 Uttar Pradesh",Uttar Pradesh,Noida,201301,10:30 AM TO 8:30 PM,"28.567178,77.320619",0120-2514635
The Raymond Shop,"44, Ambedkar Road, Ghaziabad - 201 009, Uttar Pradesh",Uttar Pradesh,Ghaziabad,201009,10:30 AM TO 8:30 PM,"28.656465,77.434017",0120-2750371
The Raymond Shop,"S 2/13-A, Bhuvaneshwar Nagar, Orderly Bazar, Varanasi - 221 001, Uttar Pradesh",Uttar Pradesh,Varanasi,221001,10:30 AM TO 8:30 PM,"25.3500459,82.9779824","0542-2509007, 9839460042"
The Raymond Shop,"B-77, People Co-Op. Colony, Panch Mandir Road, Kankarbagh, Patna Bihar",Bihar,Patna,800020,10:30 AM TO 8:30 PM,"25.600329,85.150286",0612-2356699
The Raymond Shop,"Faizabad Guest House, Subhash Nagar, Faizabad - 224 001, Uttar Pradesh",Uttar Pradesh,Faizabad,224001,10:30 AM TO 8:30 PM,"26.7572151,82.1425465","05278-223449, 9889057835"
The Raymond Shop,"Sivam Plaza, 5 Karur Bypass Road, Thiruchirapalli - 620 003, Tamil Nadu",Tamil Nadu,Tiruchirapalli,620003,10:30 AM TO 8:30 PM,"10.8287875,78.6854479","0431-4021661, 9843056712"
The Raymond Shop,"No.36, Nethaji Road, Manjakuppam, CUDDALORE-607 001,TamilNadu",Tamil Nadu,Cuddalore,607001,10.30 AM TO 9.30 PM,"11.7596544,79.7635912",6382162985
Raymond RTW,"Wb-Gf-02 & 03, Raymond Ready To Wear, Ground Floor, Block West, Amanora Town Centre, Pune 411004, Maharashtra,",Maharashtra,Pune,411004,10:30 AM TO 8:30 PM,"18.515729,73.8348683","020-67278635, 9773108045"
Raymond RTW,"Raymond Ready To Wear, Ground Floor: G1 & G2 Hotel Jw Marriot, Juhu Tara Road Mumbai 400049, Tel No 022-62231346",Maharashtra,Mumbai,400049,10:30 AM TO 8:30 PM,"19.1019041,72.8262652","022-62231346, 9742881464"
Raymond RTW,"Raymond Ready To Wear, Basement, Ground & First Floor, Plot No.20B, T.S No.77-A, Waltair Ward, Ramnagar Ward No.19, Siripuram, Visakhapatnam 530003 Contact Person-Ranjan-7893657373",Andhra Pradesh,Vijayawada,530045,10:30 AM TO 8:30 PM,"17.7878396,83.3735966","0891-6665522, 9930053221"
The Raymond Shop,"The Raymond Shop, City Chowk, Patna City, Bihar- 800008",Bihar,Patna,800008,10:30 AM TO 8:30 PM,"25.597983,85.2270681","0612-2640303, 9741636465"
The Raymond Shop,"Srk Tower, Lower Ground Floor, 14, The Mall Road, Amritsar - 143 001, Punjab",Punjab,Amritsar,143001,10:30 AM TO 8:30 PM,"31.642205,74.865458","0183-2560933, 9814052313"
The Raymond Shop,"C-2, Malviya Nagar,",Delhi,Newdelhi,110017,10:30 AM TO 8:30 PM,-,011-40349904
Raymond RTW,"F-42,1st FLOOR, INORBIT MGORWA ROAD, NEAR GUNJAN TBARODA-390 023, GJ",Gujarat,Baroda,390023,10:30 AM TO 8:30 PM,"22.3222523,73.1655496",0265-22992200
MANHAR,"STORE NO. 40-1-77, JYOTHI ARCADE, NTR CIRCLE, PATAMATA, M.G. ROAD, VIJAYAWADA - 520010, Andhra Pradesh",Andhra Pradesh,VIJAYAWADA,520010,10:00 AM TO 9:00 PM,"16.49665035,80.65672629","7095688376, 08662482477"
The Raymond Shop,"S. Durai Raj Complex, Vellore Road, Arni-632301,  Tamilnadu",Tamil Nadu,Arni,632301,10:30 AM TO 8:30 PM,"12.5713292,79.1681769",-
Raymond RTW,"Unit No.025, Upper Ground Flr, The Forum Vijaya Mall,  Arcot Road, Vadapalani, Chennai-600026",Tamil Nadu,Chennai,600026,10:30 AM TO 8:30 PM,"13.0498937,80.2095018",044 66528380
The Raymond Shop,"A-7, Main 100 Feet Road, North Chajjupur, Near Rajivraj Bajaj,(Durgapuri Chowk) Shahdara, Delhi- 110094",Delhi,Newdelhi,100094,10:30 AM TO 8:30 PM,"28.6895215,77.2878269","011-22801770, 9899170180"
The Raymond Shop,"163/1, Bhikampur Road, Deoria - 274 001, Uttar Pradesh",Uttar Pradesh,Deoria,274001,10:30 AM TO 8:30 PM,"26.502538,83.7934792","05568-222772, 9415213484"
The Raymond Shop,"Chhikara Chowk, Old Barfk, Arya Nagar,",Haryana,Jhajjar,124103,10:30 AM TO 8:30 PM,-,-
The Raymond Shop,"Asthana Towers, Pandu Nagar, Kanpur Uttar Pradesh",Uttar Pradesh,Kanpur,208005,10:30 AM TO 8:30 PM,"26.4765047,80.2962164",0512-2295854
Raymond RTW,"No. 117 & 117/1, D. Devra",Karnataka,Mysore,570001,10:30 AM TO 8:30 PM,"12.3095504,76.6443912",-
The Raymond Shop,"New Bus Stand, Dakshindinajpur, Gangarampur-733 124,Wb",West Bengal,Ganganagar,733124,10:30 AM TO 8:30 PM,"25.40091,88.5323606",-
Ethnix by Raymond,"12/29/3, 12/29/4, 12/29/5, 11th main road, 4th Block, Jayanagar",Karnataka,Bengaluru,560011,10:00 AM to 9:00 PM,"12.929457510169826,77.58610937949864",
Raymond RTW,"Ug-05, Upper Gr Fl, Surve, Phoenix Marketcity Mall, Pune-411 014, Mh",Maharashtra,Pune,411014,10:30 AM TO 8:30 PM,"18.5620613,73.9167451",-
The Raymond Shop,"21 Camac Street, Kolkata - 700 016, West Bengal",West Bengal,Kolkata,700017,10:30 AM TO 8:30 PM,"22.546124,88.353359",033-22837932
Raymond RTW,"F-3, First Flr, Rtw, Vr Mall, Koyambedu Village, Egmore, Chennai-600040,Tn",Tamil Nadu,Chennai,600040,10.30 AM TO 9.30 PM,"13.0805465,80.197132",-
Raymond RTW,"Ground Floor, Shop No G1, Jp Square, Plot No.1068, Law Collage Sq, Dharampeth, Nagpur-  440010",Maharashtra,Nagpur,440010,10:30 AM TO 8:30 PM,"21.1276689,79.0645483",0712-6662932
Raymond RTW,"Raymond Ready To Wear, Ground Floor, 18/2 Vittal Mallya Road,Bangalore:560001; Tel No.080-41741100",Karnataka,Bangalore,560001,10:30 AM TO 8:30 PM,"12.9717208,77.6006245",080-41741100
The Raymond Shop,"83/1/A By Pass Road, Sujaynagar, Akluj, Tal-Mal, Dist-Solapur -413 101,Mh",Maharashtra,Solapur,413101,10:30 AM TO 8:30 PM,"17.8962281,74.9793243",02185-223250
The Raymond Shop,"SANJEEB Apartment, K.B. Road, Near LIC Office, Jorhat-785 001, Assam",Assam,Jorhat,785001,10.30 AM TO 9.30 PM,"26.754173,94.212925",9831167671
Ethnix By Raymond,"Heera Panna Complex, Boring Rd, crossing, Anandpuri, Patna, Bihar 800001",Patna,Bihar,800001,,-,
Raymond RTW,"Shop.6,Raymond Ready To Wear, Lower Ground Floor, Gvk One Mall 6-3-251/1 & 6-3-251/5 To 6-3-251/7 Road No.1, Banjarahills, Hyderabad- 500034",Telangana,Hyderabad,500036,10:30 AM TO 8:30 PM,"17.4193139,78.4484909",040-67466554
The Raymond Shop,"2Nd Floor, S22, Phoenix Market City, Survey No.207, Viman Nagar., Pune - 411014, Maharashtra",Maharashtra,Pune,411014,10:30 AM TO 8:30 PM,"18.5619911,73.91663613",020-48614047
The Raymond Shop,"Shop No. 1,2, 3 White Business Hob, Naroda Dahegam Road, Naroda, Ahmedabad - 382330, Gujarat",Gujarat,Ahmedabad,382330,10:00 AM - 9:30 PM,"23.0826762,72.6736323",9408572242
Raymond RTW,"109/110, Raymond Ready To Wear, Hi-Lite Mall,",Kerala,Calicut,673014,10:30 AM TO 8:30 PM,"11.2586632,75.7853276","0495-2434649, 9773108045"
Raymond RTW,"Shop No. Gf-26, Ground Floor, Raymond Ready To Wear, Viviana Mall,",Maharashtra,Thane,400606,10:30 AM TO 8:30 PM,"19.2085036,72.9713349","022-61701416, 9930053221"
Raymond RTW,"Raymond Ready To Wear, Shop No 47, Rajpur Road, New No 224/395, Dehradun - 248 001, Uttarakhand.",Uttrakhand,Dehradun,248001,10:30 AM TO 8:30 PM,"30.3663946,78.0703874","0135-2659816, 9930053221"
The Raymond Shop,"B-108, D C Block, City Centre Mall, Salt Lake City, Kolkata - 700 064, West Bengal",West Bengal,Kolkata,700064,10:30 AM TO 8:30 PM,"22.588261,88.4085007",033-40063317
The Raymond Shop,"Akhura Road, Old Rms Chowmuhani, Agartalla - , Tripura",Tripura,Tripura,799001,10:30 AM TO 8:30 PM,"23.8319023,91.279281","0381-2310039, 9804260803"
The Raymond Shop,"25/1646-2 Kuruppam Road, , Thrissur - 680 001, Kerala",Kerala,Thrissur,680001,10:30 AM TO 8:30 PM,"10.520972,76.212416",0487-3102842
The Raymond Shop,"4A-4B, Ground Floor, ICC Trade Tower, Senapati Bapat Marg., Pune - 411016, Maharashtra",Maharashtra,Pune,411016,10:30 AM TO 8:30 PM,"18.53569336,73.83003702",020-48602845
The Raymond Shop,"Gf 02, Trade Centre, Kalanala, Bhavnagar, Gujarat 364001",Gujarat,Bhavnagar,364001,10:30 AM TO 8:30 PM,"21.7697044,72.1447603",-
The Raymond Shop,"Plot No. 12, Main Road Kosabadi, Korba -495677, Chhattisgarh",Chattisgarh,Korba,495677,10:30 AM TO 8:30 PM,"22.3708372,82.7392121","07759-227055, 9827799901"
The Raymond Shop,"ABDULLAH KHAN ESTATE, PARK ROAD, Kurnool - 518001, Andhra Pradesh",Andhra Pradesh,Kurnool,518001,10:30 AM TO 8:30 PM,"15.830680098653998,78.04189958465601","08518-226899, 9880511999"
Raymond RTW,"Raymond Ready To Wear, Saroj, Rock Fort Complex, B-31,Sastri Road, Thillai, Trichy 620018 ,Tamilnadu. Tel No. 0431-4216661",Tamil Nadu,Tiruchirapalli,620002,10:30 AM TO 8:30 PM,"10.8226484,78.6852037","0431-4216661, 9930053221"
The Raymond Shop,"C.S.I. Shopping Complex (New) Opp. Fire Station, Salem, Tn",Tamil Nadu,Salem,636001,10:30 AM TO 8:30 PM,"11.6542085,78.1532299",0427-2211916
The Raymond Shop,"11 Parwaz Plaza Shopping Mall, Vijaynagar College Road, Hospet - 583 201, Karnataka",Karnataka,Hospet,583201,10:30 AM TO 8:30 PM,"15.2755125,76.3871771","08384-224449, 9880511199"
The Raymond Shop,"103 Park Street, Kolkata - 700 016, West Bengal",West Bengal,Kolkata,700016,10:30 AM TO 8:30 PM,"22.5490352,88.3583944",033-22272155
SHIV CLOTH STORES,"JAHANGIRBAD, , JAUNPUR - 222002, Uttar Pradesh",Uttar Pradesh,JAUNPUR,222002,10:30 AM TO 8:30 PM,"25.74741229,82.68339222",542262116
Ethnix by Raymond,"Shop No.1, Shankar Ashish, Plot bearing CTS No.530 Plot No.68, TPS - I, RC Patel Rd, Borivali West",Maharashtra,Mumbai,400092,,",19.232927",022-46099521
The Raymond Shop,"G/5, Deepkamal 2, VARACHHA KAMRAJ ROAD, SURAT - 395 013 GJ",Gujarat,Surat,395013,10:30 AM TO 8:30 PM,"21.2293327,72.8972827",-
Raymond RTW,"Raymond Ready To Wear, Unit No. Ug-42-Sh, Upper Ground Floor, Seawoods Grand Central, Plot R-1, Sec 40, Seawood Station Road, Nerul Node, Navi Mumbai 400706 Tel No.022-39684224",Maharashtra,Navi-Mumbai,400706,10:30 AM TO 8:30 PM,"19.0213635,73.0183599","022-39684224, 84850910018"
The Raymond Shop,"Plot No.3/264, Thandi Sadak, Tikonia, Haldawani- Nanital, Uttarakhand, Pin- 263139",Uttrakhand,Nanital,263139,10:30 AM TO 8:30 PM,"29.2261306,79.5311356","05946-285888, 9820232071"
The Raymond Shop,"4/38, Vivek Khand, Opp. Kendriya Vidyalaya, Gomti Nagar, Lucknow Uttar Pradesh",Uttar Pradesh,Lucknow,226010,10:30 AM TO 8:30 PM,"26.852892,80.9965553","0522-4064600, 8604072357"
The Raymond Shop,"Surya Towers, G T Road, Khanna Punjab",Punjab,Khanna,141401,10:30 AM TO 8:30 PM,"30.7007372,76.2289542",01628-500790
NEW VASTRALOK,"D-4, R.D.C., RAJ NAGAR, OPP. TELEPHONE EXCHANGE, GHAZIABAD - 201002, Uttar Pradesh",Uttar Pradesh,GHAZIABAD,201002,10:30 AM TO 8:30 PM,"28.67545621,77.44150134","9810020998, 9810020998"
The Raymond Shop,"Lig-B-9, Dr A S Rao Nagar, Ecil Post, Hyderabad - 500 082, Andhra Pradesh",Telangana,Hyderabad,500062,10:30 AM TO 8:30 PM,"17.4774585,78.5542901","040-65212670, 9246870048"
The Raymond Shop,"Parboni Complex, Padri Para, G T Road, Chandannagore - West Bengal",West Bengal,Chandannagore,712136,10:30 AM TO 8:30 PM,"22.8550472,88.3649951","033-26856471, 9830061101"
S.K.PANT WALAWALKAR CLOTH SHOP TRUS,"1957 C, LAXMI ROAD, , KOLHAPUR - 416002, Maharashtra",Maharashtra,KOLHAPUR,416002,10:00 AM TO 8:00 PM,"16.69877449,74.22622239",-
The Raymond Shop,"O. T. Road, Kacheri Bazar, Bhadrak Odisha",Orissa,Bhadrak,756101,10:30 AM TO 8:30 PM,"21.0573616,86.4962996","06784-243015, 9861412999/9861477777"
The Raymond Shop,"Engineering Road, Zila School Chowk, Daltonganj - 822010 Jharkhand",Jharkhand,Daltonganj,822101,10:30 AM TO 8:30 PM,"24.038885,84.06193","8092929229, 9572233993"
The Raymond Shop,"Opposite Old Courts, Dalhousie road, Pathankot-145 001, Punjab",Punjab,Pathankot,145001,10:30 AM TO 8:30 PM,"32.2726133,75.6687216",-
The Raymond Shop,"Kohli Villa, 130 S V Road, Andheri (W), Mumbai - 400058, Maharashtra",Maharashtra,Mumbai,400058,11:00 AM TO 9:30 PM,"19.11284254,72.84198863",022-26247506
The Raymond Shop,"No. 135, BEML Layout, Uttranhali - 560061, Karnataka",Karnataka,Uttranhali,560061,10:30 AM - 8:30 PM,"29.8041406,76.4018939",-
The Raymond Shop,"Unitech Great India Place, Shop No 116, Upper Ground Floor, Unitech, Noida - 201301, Uttar Pradesh",Uttar Pradesh,Noida,201301,10:30 AM TO 8:30 PM,"28.56767552748901,77.32627718048442",0120-4574770
The Raymond Shop,"J 10, Anikate arcade, RDC, Opp New Ghaziabad Railway, Ghaziabad-201 002, UP",Uttar Pradesh,Ghaziabad,201002,10:30 AM TO 8:30 PM,"28.674407,77.4379223",-
The Raymond Shop,"SHOP NO 8, NEELSHRUSTI COMTEMBHODE ROAD, OPP. PNB BAPALGHAR(WEST)-401 404, MH",Maharashtra,Palghar,401404,10:30 AM TO 8:30 PM,"19.6969543,72.766514",8928123632
The Raymond Shop,"G-13 A, Krishna Plaza, Bairagarh, Bhopal-462 030, Madhya Pradesh",Madhya Pradesh,Bhopal,462030,10:30 AM TO 8:30 PM,"23.2727673,77.3429967",-
The Raymond Shop,"19, N.S.B. Road, Opp State Bank Of India, Raniganj, West Bengal- 713347",West Bengal,Raniganj,713347,10:30 AM TO 8:30 PM,-,-
The Raymond Shop,"Infront Krishna tailoring Market square,Paralakhemu GAJAPATHI-761200, OR",Orissa,Gajapathi,761200,10:30 AM TO 8:30 PM,"18.7680652,84.0960056",-
The Raymond Shop,"978, 1st Main Road, Opp. Kabhir Mutt, Kengeri Satellite Town, Kengeri, Bengaluru, Karnataka 560060",Karnataka,Bangalore,560060,10:30 AM TO 9:00 PM,"12.92075827730365,77.48389868527984",080-28485899
The Raymond Shop,"REGISTRY OFFICE PARA, WARD NO.-7 BAIRATIGURI PARA, Dhupguri Dhupguri - 735210, West Bengal",West Bengal,Dhupguri,735210,10.30 AM - 9.30 PM,"26.580946,89.0242056",8101016209
The Raymond Shop,"D-22 Rajnagar District Centre, Opp. New Railway Station, Ghaziabad - 201 002 Uttar Pradesh",Uttar Pradesh,Ghaziabad,201002,10:30 AM TO 8:30 PM,"28.6721701,77.4400218","0120-2823999, 9310707675"
The Raymond Shop,"N.H. Trissur Road,",Kerala,Angamaly,683572,10:30 AM TO 8:30 PM,-,0484-2134666
The Raymond Shop,"14/9, Kowshik Plaza, ICS Next to Samsung Smart Shop, Gudur - 524101",Andhra Pradesh,Gudur,524101,10:30 AM TO 8:30 PM,"14.1460565,79.8504408",-
ColorPlus,"Shop 2 and 3, Ground floor, Plot no 65E,, Moonstone Apartments , Linking rd, Santacruz (W) , Mumbai, Maharashtra 400054",Maharashtra,Mumbai,400054,10:00 AM To 7:00 PM,"19.0765805,72.8345815",022-31779300
The Raymond Shop,"4C, Ground Floor, Global Palam Vihar,",Haryana,Gurgaon,122017,10:30 AM TO 8:30 PM,-,-
The Raymond Shop,"706, Amimas Castle, Ground Floor, CBI  Main Road, HMT Layout, Ganganagar, RT Nagar, Bengaluru - 560032, Karnataka",Karnataka,Bangalore,560032,10:30 AM TO 8:30 PM,"13.026433,77.592102",09986877469
Raymond RTW,"GF-FF/1, Shree Vardhman Bank, Opp. Yes Bank, raindrop complex ahmedabad, Beside Rai Ahmedabad-380009 GJ",Gujarat,Ahmedabad,380009,10.30 AM TO 9.30 PM,"23.0274357,72.5577768",-
DEVANAND CLOTHS LANE,"# 29 SUPER MARKET, , GULBARGA - 585101, Karnataka",Karnataka,GULBARGA,585101,10:00 AM TO 10:00 PM,"17.33877094,76.83734324","08472-228399, 9448219999"
The Raymond Shop,"Lalganesh Tinali, Beside NSubhash Palli, Lokhra Road, Guwahati-781 034, ASSAM",Assam,Guwahati,781034,10:30 AM TO 8:30 PM,"26.1375038,91.7388735",-
The Raymond Shop,"Jaiwal tower, Gr.floor, Kh Village kanwali, GMS Road, Dehradun-248 001, UT",Uttrakhand,Dehradun,248001,10:30 AM TO 8:30 PM,"30.3232315,78.0132025",-
The Raymond Shop,"NAKSHATRA II FLOOR, SHOP N150, FT.RING ROAD, NR.KKV RAJKOT-360 007, GJ",Gujarat,Rajkot,360007,10:30 AM TO 8:30 PM,"22.2854262,70.7722004",-
The Raymond Shop,"40/6809, M.G. ROAD, KOCHI -682 035 KERALA",Kerala,Kochi,682035,10:30 AM TO 8:30 PM,"9.9779285,76.2830593",-
Raymond RTW,"Ff 121, First Floor, Infinity Malad, Next To Goregaon Sports Complex, New Link Rd, Mindspace, Malad West, Mumbai-400064, Tel No.022-66430921",Maharashtra,Mumbai,400064,10:30 AM TO 8:30 PM,"19.1878099,72.845366",022-66430921
The Raymond Shop,"L Road West, Bistupur, Jamshedpur - 831 001, Jharkhand",Jharkhand,Jamshedpur,831001,10:30 AM TO 8:30 PM,"22.7942404,86.1807064",0657-2321637
The Raymond Shop,"Shop No-G2 (Ground Floor)Bangalore Main Road, IAF, Kogilu -560063",Karnataka,Kogilu,560063,10:30 AM TO 8:30 PM,"13.1041184,77.6181816",-
The Raymond Shop,"Shop No. 3, MIDC, Waluj-431 001, Mh",Maharashtra,Waluj,431001,10:30 AM TO 8:30 PM,"19.8756639,75.3393162",-
The Raymond Shop,"S.C Enterprises, Near Iti Chauraha, Thandi, farrukhabad, UP 209601",Uttar Pradesh,Farrukhabad,209601,10:30 AM TO 8:30 PM,"27.3825452,79.5840352",-
The Raymond Shop,"Shop no. 131, Bapu Bazar, Ferozpur Cantt-152 001, PB",Punjab,Firozpur City,152001,10:30 AM TO 8:30 PM,"30.9241917,74.6199085",-
The Raymond Shop,"792/2, T S Gupta Arcade, P. B. Road, Renebennur - 581115, Karnataka",Karnataka,Ranebennur,581115,10:00 AM TO 9:00 PM,"14.612872,75.636406",08373-297442
The Raymond Shop,"Shop No-2, Triraj Tower, Near Chordia Petrol Pump, Jaipur-302 029, RAJASTHAN",Rajasthan,Jaipur,302029,10:30 AM TO 8:30 PM,"26.8078684,75.7255192",-
The Raymond Shop,"Shop no- 28-131, 132, KGN C Nagar, kurnool Road,Jadcherla-509 301,Telangana",Telangana,Jadcherla,509301,10:30 AM TO 8:30 PM,"16.7692277,78.1269553",-
The Raymond Shop,"104, G. T. Road, Opp. Tinkonia Bus Stand, Burdwan West Bengal",West Bengal,Burdwan,713101,10:30 AM TO 8:30 PM,"23.245893,87.8689936",0342-2568686
The Raymond Shop,"Pushp Business Campus, Near Vastral Circle , S.V.P Ring Road, Vastral, Ahmedabad-382418, Gujarat",Gujarat,Ahmedabad,382418,10:30 AM TO 8:30 PM,"22.9983987,72.6657538","079-65253030, 9824017840"
The Raymond Shop,"108A,109, Mahagun Mall, Vaishali, Ghaziabad - 201010, Up",Uttar Pradesh,Ghaziabad,201010,10:30 AM TO 8:30 PM,"28.645055,77.335954","0120-4160344, 9811554737"
The Raymond Shop,"Shop No.1,2,3 & 4 Mid Towroad No.1, Banjarahills, Hyderabad - 500 034, Ap",Telangana,Hyderabad,500034,10:30 AM TO 8:30 PM,"17.4258963,78.4353804","040-23351646, 8985104943"
The Raymond Shop,"Opp-Jayswal Petrol Pump, Ratu Road,",Jharkhand,Ranchi,834001,10:30 AM TO 8:30 PM,-,-
The Raymond Shop,"88, Empire Mahal 806, Ambedkar Rd Khodadad Circle, Mumbai - 400014, Maharashtra",Maharashtra,Mumbai,400014,10:30 AM TO 8:30 PM,"19.01778662,72.84837169",022-24124425
The Raymond Shop,"1-3-155/13/3, Shastri nagar, Opp. Honda Showroom, Nirmal-504 106,Telangana",Telangana,Nirmal,504106,10:30 AM TO 8:30 PM,"19.0872515,78.3511475",-
Formal,"85/92, Chenoy Trade Centreparklane Road, Secunderabad, Hyderabad-500 003, Ap",Telangana,Hyderabad,500003,10:30 AM TO 8:30 PM,"17.438653,78.488832","040-27849911, 9848846226"
The Raymond Shop,"Shop No 117, 1st Floor, Orion Mall, Dr. Rajkumar Road, Malleswaram West, Bengaluru - 560055, Karnataka",Karnataka,Bangalore,560055,10:30 AM TO 8:30 PM,"13.01097653766503,77.55495060967918",080-22682202
The Raymond Shop,"Balaji Complex, M.G. Road, Bow Bazar, Jaigaon-736182 Wb",West Bengal,Jaigaon,736182,10:30 AM TO 8:30 PM,"22.5668237,88.3614764",-
Raymond RTW,"High Street Phoenix Mall, 462, Senapati Bapat Marg, Lower Parel, Mumbai-400013",Maharashtra,Mumbai,400013,10:30 AM TO 8:30 PM,"18.9940532,72.8241298",8450970018
The Raymond Shop,"38, Malviya Nagar, Opposite T.T.Nagar, Bhopal - 462003, Mp",Madhya Pradesh,Bhopal,462003,10:30 AM TO 8:30 PM,"23.2348448,77.402428",0755-2578550
Raymond RTW,"Gf 07, Ground Floor, Mbm Farm, Gt Road, Amritsar-143001 Punjab, Tel No.0183-5015233",Punjab,Amritsar,143001,10:30 AM TO 8:30 PM,"31.6346767,74.8694261",0183-5015233
Raymond RTW,"Ug 59, Upper Ground Floor, Mantri Square No.1, Sampige Road, Malleswaram, Bangalore- 560003",Karnataka,Bangalore,560003,10:30 AM TO 8:30 PM,"12.9916302,77.5711719",-
VED TEXTILES & APPARELS,"MAIN ROAD, BAGROY MARKET, RANCHI - 834001, Jharkhand",Jharkhand,RANCHI,834001,10:00 AM TO 9:00 PM,"23.35509114,85.32436599",-
ColorPlus,"Shop no. 1 & 2 ground floor, The Haveli Co-Op Hsg. Society, plot no. 15, Chandavarkar Rd, Borivali West,",Maharashtra,Mumbai,400092,10AM - 9PM,"19.23035646,72.85353762",022 3513 4985
Raymond RTW,"No.Ab-3, Raymond Ready To Wear , 2Nd Avenue, Anna Nagar- 600040 Chennai Contact Person",Tamil Nadu,Chennai,600040,10:30 AM TO 8:30 PM,"13.084724,80.211237","044-42054020, 9773108045"
The Raymond Shop,"The Platina No:136, Kondapur To Gachibowli Road, Hyderabad - 500 032, Tg",Telangana,Hyderabad,500032,10:30 AM TO 8:30 PM,"17.4627644,78.3646636",9885177770
Raymond RTW,"H. No. 1-B, Narbheram Chas. B. Road, Bistupur Main, Jamshedpur-831001, Jharkhand",Jharkhand,Jamshedpur,831001,10:30 AM TO 8:30 PM,"22.7975499,86.181769",-
Raymond RTW,"Raymond Ready To Wear, Upper Ground & Ground Floor, 17/33 Tashkand Marg, Civil Line, Allahabad- 211001, Up Contact Person-Vishwajit-9889032555",Uttar Pradesh,Allahabad,211001,10:30 AM TO 8:30 PM,"25.4550313,81.834961","0532-2261777, 9930053221"
Raymond RTW,"0-1F-060,Saraths City, Gachibowli, Miyapur Rd, Hyderabad-500084,Tg",Telangana,Hyderabad,500084,10:30 AM TO 8:30 PM,"17.4575952,78.3639493",-
Raymond RTW,"Shop No.11/12,Raymond Ready To Wear Shop No.11/12, Plot No.118,Survey No.40/9, V R Mall, Krishna Raj Puram, Bangalore 560048",Karnataka,Bangalore,560049,10:30 AM TO 8:30 PM,"12.996577,77.695746","080-46524035 , 9773108045"
Raymond RTW,"Raymond Ready To Wear, Plot No. H. 03, Sector 18, D225 & D226, 1St Floor, Dlf Mall Of India,Noida 201301 Uttar Pradesh Contact Person",Uttar Pradesh,Noida,201301,10:30 AM TO 8:30 PM,"28.5673927,77.3210531","0120-6612852, 9742881464"
Raymond RTW,"LULU MALL, SHOP NO: 34/91, First Floor, EDAPALLY,  KOCHI-682 024, KERALA",Kerala,Cochin,682024,10:30 AM TO 8:30 PM,"10.0343274,76.3014569","0484-4099916, 7736520799"
The Raymond Shop,"India Motor Circle, Ajmer - 305 001, Rajasthan",Rajasthan,Ajmer,305001,10:30 AM TO 8:30 PM,"26.4643355,74.6391182","0145-2432222, 9414007854"
Raymond RTW,"Pacific Mall, Raymond Ready To Wear, Mauia Jakhan,Raipur Road, Dehradun, Dehradun-248006, Uttarakhand",Uttrakhand,Dehradun,248006,10:30 AM TO 8:30 PM,"30.366465,78.0703122","0135-2738892, 9773108045"
The Raymond Shop,"Aastha Enterprises, Aatishay Bhavan, Old Power House Chowk, Satna",Madhya Pradesh,Indore,485001,10:30 AM TO 8:30 PM,-,"07672-234999, 9425173999"
The Raymond Shop,"14, A. B. Road, Indore - 452 018, Madhya Pradesh",Madhya Pradesh,Indore,452018,10:30 AM TO 8:30 PM,"22.7333244,75.8904968",0731-2545657
The Raymond Shop,"Gr. Floor , Venkatlaxmi Co, Hangloor,",Karnataka,Kundapur,576217,10:30 AM TO 8:30 PM,-,-
The Raymond Shop,"The Raymond Shop, Near Subhash Chowk, Amalner-425 401 Dist-Jalgaon, MH",Maharashtra,Jalgaon,425401,10:30 AM TO 8:30 PM,"21.0442897,75.0645963",9404596868
The Raymond Shop,"Shri Shyam Complex, Mall Road, Solan, Himachal Pradesh- 173212",Himachal Pradesh,Shimla,173212,10:30 AM TO 8:30 PM,"30.909541,77.1014112",-
The Raymond Shop,"Xiv/209 A6, Xiv/209 A7,",Kerala,Ernakulam,682301,10:30 AM TO 8:30 PM,-,-
The Raymond Shop,"Gr.Floor, Vrundavan Heights Savy Swaraj To Vandemataram Road, Gota, Ahmedabad-382481, Gj",Gujarat,Ahmedabad,382481,10:30 AM TO 8:30 PM,"23.100976748489124,72.5469239",079-48921155
The Raymond Shop,"Dm. 01, Sector, 104, Noida-201303, Uttar Pradesh",Uttar Pradesh,Noida,201303,10:30 AM TO 8:30 PM,"28.540577,77.368202",-
The Raymond Shop,"5-1-908/2,3,4,Pushpanjali, Opp.Osmania Medical College, Hyderabad-500095,Tg",Telangana,Hyderabad,500095,10:30 AM TO 8:30 PM,"17.3822473,78.4828573","040-24741880, 9949849898"
The Raymond Shop,"14-176 to 14-178, Parameswar Rangareddy, Dist. Shadnagar-509 216,Telangana",Telangana,Shadnagar,509216,10:30 AM TO 8:30 PM,"17.0712949,78.2058966",-
The Raymond Shop,"Guru Gopal sweets, Sanjay Nagar, Bareilly, Uttar Pradesh - 243001",Uttar Pradesh,Bareilly,243001,10.30 AM TO 9.30 PM,"28.378517,79.4390713",-
The Raymond Shop,"Atrium Area, G86-87, Vegas Mall, Sec 14, Dwarka-110 078, New Delhi",Delhi,Newdelhi,110078,10.30 AM TO 9.30 PM,"28.6007474,77.029572",8826486929
The Raymond Shop,"Agarwal Textiles,Telagi R, P.O.Basavana Bagewadi, Bijapur- 586203, Karnataka",Karnataka,Bijapur,586203,10:30 AM TO 8:30 PM,"16.5754492,75.9708409",9343270276
The Raymond Shop,"Bekapur, Munger - 811 201, Bihar",Bihar,Munger,811201,10:30 AM TO 8:30 PM,"25.376044,86.474195","06344-227844, 9431276575"
The Raymond Shop,"Shop C-1&2, Advance Busine, Opp.Swaminarayan Temple, Shahibaug, Ahmedabad-380 004",Gujarat,Ahmedabad,380004,10.30 AM TO 9.30 PM,"23.0508936,72.5798506",-
The Raymond Shop,"551,JHA/38 Jewel palace, Kanpur Road, Alambagh, Lucknow-226 005, UP",Uttar Pradesh,Lucknow,226005,10.30 AM TO 9.30 PM,"26.7999413,80.8948597",995634330
The Raymond Shop,"Near OBC Bank, Narsinghpur Road, Chhindwara-480 002, MP",Madhya Pradesh,Chhindwara,480002,10:30 AM TO 8:30 PM,"22.0611554,78.95167",-
The Raymond Shop,"No-55, PID No.35-3-55, 17 CMRCR Extn, Ward No-125, Bangalore-560 040, KT",Karnataka,Bangalore,560040,10.30 AM TO 9.30 PM,"12.9680322,77.5304726",9953938899
The Raymond Shop,"Vikash Engineering store, Near Roadways, Salempur, UTTAR PRADESH  274509",Uttar Pradesh,Salempur,274509,10.30 AM TO 9.30 PM,"26.2901396,83.9180695",9415353609
The Raymond Shop,"3163 Khade Bazar, Sanyukta Maharashtra Chowk, Belgaum Karnataka",Karnataka,Belgaum,590002,10:30 AM TO 8:30 PM,"15.8607868,74.5116416",0831-2426194
The Raymond Shop,"Near Marothi,  Marothi Chowk,  Nokha-334 803, Rajasthan",Rajasthan,Nokha,334803,10.30 AM TO 9.30 PM,"27.554239,73.4702512",9099255144
The Raymond Shop,"Disha Tower, Shankar Nagar, Raipur-492 004, Chhattisgarh",Chattisgarh,Raipur,492004,10:30 AM TO 8:30 PM,"21.2512699,81.6686809",-
The Raymond Shop,"J P Royale, Sampige (2Nd Main) Road, 13Th Cross, Opposite To New Shanti Sagar, Malleswaram, Bangalore",Karnataka,Bangalore,560003,10:30 AM TO 8:30 PM,-,"080-40943040, 9341227086"
The Raymond Shop,"La-Bella House, Near Calico Dom, Relief Road, Ahmedabad Gujarat",Gujarat,Ahmedabad,380001,10:30 AM TO 8:30 PM,"23.0283219,72.5913152","079-25357314, 9825200444"
The Raymond Shop,"Raymond Complex,",Bihar,Supaul,852131,10:30 AM TO 8:30 PM,-,06473-223227
The Raymond Shop,"Vijaya Bank Building, Subhash Chowk, Near C M Sc College, Darbhanga, Bihar Darbhanga Bihar",Bihar,Darbhaga,846004,10:30 AM TO 8:30 PM,"26.1521534,85.8923839","06272-222375, 9334277696"
The Raymond Shop,"Hindwastra Bhandar, Main Road, Sitabuldi, Nagpur Maharashtra - 440012",Maharashtra,Nagpur,440012,10:30 AM TO 8:30 PM,"21.143839,79.08142","0712-2552597, 9823010852"
The Raymond Shop,"NEAR GLASS HOUSE CENTER, MAIN ROAD, KAKINADA-533 001, AP",Andhra Pradesh,Kakinada,533001,10.30 AM TO 9.30 PM,"16.9486611,82.2339729",9989846966
The Raymond Shop,"Central Plaza, Opp Bahauddin College, Bhootnath Road, Junagadh",Gujarat,Junagadh,362001,10:30 AM TO 8:30 PM,"21.5096183,70.4597167","0285-2671121, 9228008396 / 9821033268"
The Raymond Shop,"Swantal Centre, B. D. Road, Chitradurga Karnataka",Karnataka,Chitradurga,577501,10:30 AM TO 9:30 PM,"14.224710975909195,76.40032747397477",08194-224432
Formal,"Alankar Place, Boring Road, Patna - 800 001, Bihar",Bihar,Patna,800001,10:30 AM TO 8:30 PM,"25.6119256,85.1194042",0612-2227634
The Raymond Shop,"Gr Floor,01, E-sector, JNKNH-52A, Papum Pare, ITANAGAR-791 111, ARUNACHAL PRADESH",Arunachal Pradesh,Papumpare,791111,10.30 AM TO 9.30 PM,-,8730011102
The Raymond Shop,"Chorda Chhak, Above RBL BANK LTD., JAJPUR ROAD-755 019,ODISHA",Orissa,Jajpur,755019,10.30 AM TO 9.30 PM,"20.9539052,86.1282256",9820812885
The Raymond Shop,"27 / 31 Park Stadium, Solapur - 413 001, Maharashtra",Maharashtra,Solapur,413001,10:30 AM TO 8:30 PM,"17.673057,75.907125",0217-2626999
The Raymond Shop,"Shop no 8-9-518, Meenakshi, Near Reliance Petrol pump, Bidar-585 401, KT",Karnataka,Bidar,585401,10:30 AM TO 8:30 PM,"17.9214313,77.5110183",-
The Raymond Shop,"Isidoro Baptista Road, Margao Goa",Goa,Margoa,403601,10:30 AM TO 8:30 PM,"15.2725499,73.9615359",0832-6570426
The Raymond Shop,"Sadar Bazar, Off-Dr.Hemraj Jain Hospitl, Barnala - 148101 Punjab",Punjab,Barnala,148101,10:30 AM TO 8:30 PM,"30.3743393,75.5481173",01679-231459
The Raymond Shop,"Shop No.4, Shri Sai Complet, Station Road,",Maharashtra,Chalisgaon,424101,10:30 AM TO 8:30 PM,-,-
The Raymond Shop,"Shop No.114, First Floor Elante Mall, Industrial Area - I, Chandigarh - 160002, Chandigarh",Chandigarh,Chandigarh,160002,10:30 AM TO 8:30 PM,"30.70623331217357,76.801484684656","0172-4615544, 9814015544"
The Raymond Shop,"MID TOWN, S. V. ROAD, BORIVLI (WEST), Mumbai - 400092, Maharashtra",Maharashtra,Mumbai,400092,10:30 AM TO 8:30 PM,"19.22573312,72.85500051","022-28628650, 9820317104"
The Raymond Shop,"Dharamashala Road, Opp: Old Bus Stand, Kangra Himachal Pradesh",Himachal Pradesh,Kangra,176001,10:30 AM TO 8:30 PM,"32.1112019,76.2790371",01892-260097
The Raymond Shop,"Ainthapali Road, Sambalpur-768004, Orrisa",Orissa,Sambalpur,768004,10:30 AM TO 8:30 PM,"21.4920587,83.9862904","0663-2540668, 7008155609"
The Raymond Shop,"28-1-10-152, Jaiwant Towers, C. P. Bazar,, Opp. Union Bank, Sirsi, Karnataka 581401",Karnataka,Sirsi,581401,10:00 AM TO 9:00 PM,"14.617988235473366,74.82914586383434",083842-23166
The Raymond Shop,"Sector 1/7, Kursi Road, Vikas Nagar,  Lucknow-226010, Up",Uttar Pradesh,Lucknow,226010,10:30 AM TO 8:30 PM,"26.900486,80.955523",0522-4332888
The Raymond Shop,"Shreeji House, Nr.Shopping Plaza, Town Hall Road, Jamnagar - 361 001, Gujarat",Gujarat,Jamnagar,361001,10:30 AM TO 8:30 PM,"22.4700386,70.0704135","0288-2557143, 9428703143"
The Raymond Shop,"27 / 31 Park Stadium, Solapur - 413 001, Maharashtra",Maharashtra,Solapur,413001,10:30 AM TO 8:30 PM,"17.673057,75.907125",0217-2626999
The Raymond Shop,"A,B,C,S63&65 G.C.D.A. Com. Complx, Shanmugham Road, Marine Drive, Kochi - 682 031, Kerala",Kerala,Kochi,682031,10:30 AM TO 8:30 PM,"9.9805631,76.2761515",0484-2351675
The Raymond Shop,"Near Cosmos Bank, Opp-Ani Mamaji Talkies Road,",Maharashtra,Bhusawal,425201,10:30 AM TO 8:30 PM,-,-
The Raymond Shop,"36, Pitambar Nagar, Unnao, 209 801, Up",Uttar Pradesh,Unnao,209801,10:30 AM TO 8:30 PM,"26.5477316,80.5019454",-
The Raymond Shop,"16-2-232, GVS Comrcl. Complex, P.P. Road, Bhimavaram - 534201, Andhra Pradesh",Andhra Pradesh,Bhimavaram,534201,10:30 AM TO 8:30 PM,"16.546614379190853,81.52740664603199","08816-234931, 9848130011"
The Raymond Shop,"Sanjay Raj Tower, # 42 / Eb Cross Yelahanka, Bangalore-560064, Kt",Karnataka,Bangalore,560064,10:30 AM TO 8:30 PM,-,"080-48532495, 9880609147"
The Raymond Shop,"78 Old Bangalore Road, Hosur - 635 109, Tamil Nadu",Tamil Nadu,Hosur,635109,10:30 AM TO 8:30 PM,"12.7360064,77.8240021",04344-245530
The Raymond Shop,"Sir Lakhajiraj Road, Near Town Hall, Rajkot Gujarat",Gujarat,Rajkot,360001,10:30 AM TO 8:30 PM,"22.2957707,70.8036008",0821-2231412
The Raymond Shop,"Plot No. 300, Cidco N - 3, Jalna Raod, Aurangabad - 431 003, Maharashtra",Maharashtra,Aurangabad,431005,10:30 AM TO 8:30 PM,"19.875978,75.3484289","0240-2489060, 9822597305"
The Raymond Shop,"11/13/6-2 Super Bazaar Bldg., Fort Gate, Rajamahendravaram - 533 101, Andhra Pradesh",Andhra Pradesh,Rajahmundry,533101,10:30 AM TO 8:30 PM,"17.006605,81.770422",0883-2444752
The Raymond Shop,"13479,Shrimant Enterprise, Behind S.T.Stand, Islampur Sangli-415 409, Mh",Maharashtra,Sangli,415409,10:30 AM TO 8:30 PM,"17.0477033,74.2590636",9850395008
The Raymond Shop,"No:159, Red Hills Road, Ambattur, Chennai-600053, Tn",Tamil Nadu,Chennai,600053,10:30 AM TO 8:30 PM,"13.1326489,80.1733417",-
The Raymond Shop,"Near Old J.J. College, Mofassil Bus Stand Road, Manpur, Gaya-823 003, Bihar",Bihar,Gaya,823003,10.30 AM TO 9.30 PM,"24.7975119,85.024277",9934290105
The Raymond Shop,"77, Gandhi Road, West Tambaram, Chennai - 600 045, Tamil Nadu",Tamil Nadu,Tambaram,600045,10:30 AM TO 8:30 PM,"12.9264438,80.107862","044-2265980, 9843477591"
The Raymond Shop,"Jamuna Printers, 19 A.D. P.O.- Uttarpara, District-Hoogly-712 258 West Bengal",West Bengal,Hooghly,712258,10:30 AM TO 8:30 PM,"22.669465,88.351168",-
The Raymond Shop,"335, Phase I, Sector No. B, Ideal home Project Township, Rajarajeshwari Temple Road, Bengaluru - 560098, Karnataka",Karnataka,Bangalore,560098,10:00 AM TO 9:00 PM,"12.930104283026077,77.51489220174537",080-28606773
The Raymond Shop,"Mahavir Chowk, Main Road, Rosera, Samastipur-848 210, Bihar",Bihar,Samastipur,848210,10:30 AM TO 8:30 PM,"25.754974,86.0132898",-
The Raymond Shop,"141/61, Rayakotta Road, Next To Indusind Bank, Krishnagiri-635 001, Tn",Tamil Nadu,Krishnagiri,635001,10:30 AM TO 8:30 PM,"12.528131,78.203619",-
The Raymond Shop,"Tp Bose Road (Hatia Road) Madhupur, Dist. Deoghar-815 353, Jharkhand",Jharkhand,Madhupur,815353,10:30 AM TO 8:30 PM,"24.2690731,86.6223703",6203 440036
The Raymond Shop,"Vasant Vihar, Shanti Nagar, Kalyan Ambernath Road, Ulhasnagar - 421 003, Maharahstra",Maharashtra,Ulhasnagar,421003,10:30 AM TO 8:30 PM,"19.2325423,73.1514536","0251-2707465, 9833005193"
The Raymond Shop,"4/3 Trimurti Nagar,",Madhya Pradesh,Dhar,483501,10:30 AM TO 8:30 PM,-,07292- 234234
The Raymond Shop,"Door No:6-6-457/1, Opp.United Bank, Hyderabad, Nalgonda-508 001, Telangana",Telangana,Nalgonda,508001,10:30 AM TO 8:30 PM,"17.0758371,79.2610126",9573778484
The Raymond Shop,"Shop No.14,15,16, M.T.N.L Sheetal Darshan Cs.Ltd., Sheetal Nagar, Mira Road, Mumbai -401 107",Maharashtra,Mumbai,401107,10:30 AM TO 8:30 PM,-,022-28105318
The Raymond Shop,"Ramchandrapur Bazaar,  Main District - Khurda, P.O. -Odisha - 752050",Orissa,Bhubhaneshwar,752050,10:30 AM TO 8:30 PM,"20.161097,85.7002703",-
The Raymond Shop,"Opp: Dsp Office, Nehru Park, Delhi-Rohtak Road, Bahadurgarh - 124 507, Haryana",Haryana,Bahadurgarh,124507,10:30 AM TO 8:30 PM,"28.8881328,76.6083969","01276-232028, 9414081044"
The Raymond Shop,"Main Road, Near State Bank, At-Post Chandur Bazar,Amravati-444 704, Mh",Maharashtra,Amravati,444704,10:30 AM TO 8:30 PM,"21.2338919,77.7394856",-
The Raymond Shop,"8-12-9, Jpn Road, Warangal - 506001,Telagana",Telangana,Warangal,506001,10:30 AM TO 8:30 PM,"17.9794797,79.5983293",-
The Raymond Shop,"Raghunath Ganj,",Madhya Pradesh,Katni,483501,10:30 AM TO 8:30 PM,-,07622-400523
The Raymond Shop,"Hotel Riddhi N Siddhi, Opp. United Bank of India, Bettiah-845 438, Bihar",Bihar,Bettiah,845438,10.30 AM TO 9.30 PM,"26.8055274,84.5111665",9006911111
The Raymond Shop,"Vastra Shopping Mall - 5-Wyra Road, Khammam,",Telangana,Khammam,507002,10:30 AM TO 8:30 PM,-,-
The Raymond Shop,"Near Police Station,  Durgabari Kalibari Road, Barpeta Road - 781315, Assam",Assam,Barpeta Road,781315,10:30 AM TO 8:30 PM,"26.499124440212405,90.96391131534399",-
The Raymond Shop,"SCO 203,SECTOR",Haryana,Panchkula,134113,10.30 AM TO 9.30 PM,-,"0172-4037680, 9872411203"
The Raymond Shop,"Shop No. 41, Shanti Pura, Vaishali Nagar, Ajmer-305001, Rajasthan",Rajasthan,Ajmer,305001,10:30 AM TO 8:30 PM,"26.4839751,74.6309344",0145-2633622
The Raymond Shop,"Fortune Hotel Galaxy, N H No 8, G I D C, Vapi - 396 195, Gujarat",Gujarat,Vapi,396195,10:30 AM TO 8:30 PM,"20.3740207,72.9202134",0260-2424123
The Raymond Shop,"Main Road, Jodhadih More, Near Neelam Hospital, Chas, Bokaro",Jharkhand,Bokaro,827013,10:30 AM TO 8:30 PM,-,"06542-265567, 9771116700"
The Raymond Shop,"Rangoli Extension, No.3-1-836, Cvrn Road (Court Road), Karimnagar Telangana",Telangana,Karimnagar,505001,10:30 AM TO 8:30 PM,"18.442101,79.126299","08786-506505, 9849039996"
The Raymond Shop,"Opp. BATA FACTORY, RAMJEE CMUSHARI ROAD, DANAPUR, PATNA-805 103, BIHAR",Bihar,Patna,805103,10.30 AM TO 9.30 PM,"25.6474215,85.0756332",8294458701
The Raymond Shop,"B-Block, Shilpi Plaza,",Madhya Pradesh,Rewa,486001,10:30 AM TO 8:30 PM,-,07662- 407137
The Raymond Shop,"Ground Floor, Shop No.59, Genesis Mall, Alwar Road, Bhiwadi-301019, Rajasthan",Rajasthan,Bhiwadi,301019,10:30 AM TO 8:30 PM,"28.1915434,76.8139691",-
The Raymond Shop,"Krishna Complex, Near Gujarat Gas Circle, Adajan, Surat - 395 009, Gujarat",Gujarat,Surat,395009,10:30 AM TO 8:30 PM,"21.1948162,72.8020219",0261-2784001
The Raymond Shop,"No. 461/6A,Rajiv Gandhi Salai, Sholinganallur,",Tamil Nadu,Chennai,600119,10:30 AM TO 8:30 PM,-,-
NEW DEEPAK STORES,"# 28-3-86 A. D. S. ROAD, GOVERNORPET, VIJAYAWADA - 520002, Andhra Pradesh",Andhra Pradesh,VIJAYAWADA,520002,10:00 AM TO 9:30 PM,"16.5149476,80.62775796","08662574475, 08662574475"
The Raymond Shop,"No.1, Vinayaka Layout, Opp. Petra Park Apartment, Main Road, Bangalore - 560016, Karnataka",Karnataka,Bangalore,560016,10:00 AM TO 8:30 PM,"13.011695871934956,77.6701839631504",080-49577766
The Raymond Shop,"502, Swami Vivekananda Road, P.O.-Ranaghat, Nadia-741 201,West Bengal",West Bengal,Kolkata,741201,10:30 AM TO 8:30 PM,"23.1740178,88.5623835",-
Formal,"UG-12/13, Jolly Complex, Opp.Rangila park, Ghod Dod, SURAT-395 007, GUJRAT",Gujarat,Surat,395007,10.30 AM TO 9.30 PM,"21.1752259,72.8041682",9925569877
The Raymond Shop,"Diwan Building, Near Trm Pupper Bazar, Gt Road, Modi Nagar-201 204,Up",Uttar Pradesh,Modi Nagar,201204,10:30 AM TO 8:30 PM,"28.8344396,77.5698527",9068559559
The Raymond Shop,"Shop No. F 24,  First Floor, R City Centre,  L.B.S Marg, Ghatkopar (W), Mumbai - 400086, Maharashtra",Maharashtra,Mumbai,400086,10:30 AM TO 8:30 PM,"19.08762057,72.90716351",022-67700009
BAHUBALI N MUTTIN,"MAIN ROAD, , CHADCHAN - 586205, Karnataka",Karnataka,CHADCHAN,586205,10:00 AM TO 7:00 PM,"17.31400478,75.66513648","08422-278473, 9972901175"
HUKUMCHAND SHANTI KUMAR BROS.(UDAY),"SHAHEED CHOWK,, ITWARI, NAGPUR - 440002, Maharashtra",Maharashtra,NAGPUR,440002,10:30 AM TO 8:30 PM,"21.15390701,79.11114434",-
REHMAN'S,"182, Abu Lane, Fowwra Chowk, Meerut, Uttar Pradesh 250001",Uttar Pradesh,Meerut,250001,10:30 AM to 8:30 PM,"28.99615368924011,77.70220282951314","0121-4026507, 09837095093"
The Raymond Shop,"Lalpur C.B. Road, Near Goenka Bhanga Gora, CP.O.Chakdaha, Nadia-741 022",West Bengal,Nadia,741022,10:30 AM TO 8:30 PM,"23.0809185,88.5398492",9831877007
Formal,"Lake View, Dr. Moose Road, Opp. Sai Krupa Hotel, near HDFC Bank Branch, Talaopali, Thane, Maharashtra 400602",Maharashtra,Thane,400602,10:30 AM TO 9:00 PM,"19.192388065358326,72.97370961166332",09137783535
R.C. FIRAYALAL & CO.***,"FIRAYALAL CHOWK, , RANCHI - 834001, Jharkhand",Jharkhand,RANCHI,834001,9:00 AM TO 9:15 PM,"23.3703186,85.32504578",-
The Raymond Shop,"Shop No 120, 1st Floor, Forum Mall, Koramangala, Bengaluru - 560029, Karnataka",Karnataka,Bangalore,560029,10:30 AM TO 8:30 PM,"12.934526261644635,77.61127875628397",080-22067770
The Raymond Shop,"Shantiniketan Business Centre, Opp. Gangotri Bunglows, Nikol, Ahmedabad",Gujarat,Ahmedabad,382350,10:30 AM TO 8:30 PM,-,"079-65453030, 9824017840"
The Raymond Shop,"Sulakshana Complex, Katchery Road, Hathwa Market, Chapra - 841301, Bihar",Bihar,Chapra,841301,10:30 AM TO 8:30 PM,"25.779386342332934,84.74267278465602","06152-245446, 9800867754"
UDAY COLLECTIONS,"3106 GAWALE GALLI, , BARSHI - 413401, Maharashtra",Maharashtra,BARSHI,413401,10:30 AM TO 8:30 PM,"18.23475609,75.69260378",-
The Raymond Shop,"3B, Mount Poonamallee High Road, Porur, Chennai",Tamil Nadu,Chennai,600116,10:30 AM TO 8:30 PM,-,"044-65752829, 9840360029"
The Raymond Shop,"7/8 Meghna Arcade, Station Road, Ankleshwar - 393 001, Gujarat",Gujarat,Ankaleshwar,393001,10:30 AM TO 8:30 PM,"21.634152,72.992262","02646-244357, 9898611501"
JALALUDDIN JAMALUDDIN,"KESRI BAZAR, , JAUNPUR - 222001, Uttar Pradesh",Uttar Pradesh,JAUNPUR,222001,10:00 AM TO 6:00 PM,"25.75183647,82.68471126","545263271, 9415315221"
SHRI GEETA VASTRALAYA,"119/499 DARSHAN PURWA, OPP. KAMLA CLUB, KALPI ROAD, KANPUR - 208012, Uttar Pradesh",Uttar Pradesh,KANPUR,208012,10:00 AM TO 8:30 PM,"26.46308341,80.31780416","9451021848, 7379545077, 9792021848"
The Raymond Shop,"Shop No. 9, Cusrow Baug S.B.S Road, Colaba, Mumbai - 400039, Maharashtra",Maharashtra,Mumbai,400039,10:00 AM - 9:00 PM,"18.9203774,72.8275923",9619054213
The Raymond Shop,"GROUND FLOOR, 234/A1, MAIN SHANKARPALLY-501 203,TELANGANA",Telangana,Shankarpally,501203,10.30 AM TO 9.30 PM,"17.4553645,78.1311666",9493785723
The Raymond Shop,"F-22, Lower Ground Floor, Brookefield Mall, Dr Krishnasamy Road, Coimbatore - 641001, Tamil Nadu",Tamil Nadu,Coimbatore,641001,10:30 AM TO 8:30 PM,"11.00894208635761,76.95933171518222",0422-2255667
The Raymond Shop,"10-3-5, 27-Sakina Complex, Mehdipatnam X Road, Hyderabad - 500 028, Andhra Pradesh",Telangana,Hyderabad,500028,10:30 AM TO 8:30 PM,"17.3943542,78.4420222","040-66446464, 9989636464"
The Raymond Shop,"Ground Floor, Premier Plaza Mall, Near Big bazar, Plot No 4510 / 4513, Pimpri Chinchwad, Pune - 411019, Maharashtra",Maharashtra,Pune,411019,10:30 AM TO 8:30 PM,-,020-46706444
The Raymond Shop,"101 City Tower, Nalgonda Cross Road, Malakpet, Hyderabad - 500 036, Andhra Pradesh",Telangana,Hyderabad,500036,10:30 AM TO 8:30 PM,"17.374576,78.498817",040-24554786
The Raymond Shop,"2222, 100 Feet Road, Gandhi Nagar, Mandya - 571 401, Kt",Karnataka,Mandya,571401,10:30 AM TO 8:30 PM,"12.5215165,76.8936592",-
The Raymond Shop,"Ground Floor, Inorbit Mall, Hi-tech City, Hyderabad - 500081, Andhra Pradesh",Andhra Pradesh,Hyderabad,500081,10:30 AM TO 8:30 PM,"17.44195031588629,78.39197525396801",040-40111797
The Raymond Shop,"16/A/20, Ajmal Khan Road, (Near Metro Station) Karol Bagh, New Delhi - 110 005",Delhi,Delhi,110005,10:30 AM TO 8:30 PM,"28.6452626,77.1883367",011-45046197
The Raymond Shop,"Kothari Chambers, Near Govt.Press, Kothi, Vadodara Gujarat",Gujarat,Vadodara,390001,10:30 AM TO 8:30 PM,"22.3036957,73.193528","0265-2426426, 9376216674"
The Raymond Shop,"Indirapuram Habitat Centre, Shop No. 306 to 09 and 28 Ahinsa Khand-1, Indirapura, Ghaziabad - 201014, Uttar Pradesh",Uttar Pradesh,Ghaziabad,201014,10:30 AM TO 8:30 PM,"28.639470152659516,77.36867677435755","0120-7133116, 8802981800"
The Raymond Shop,"Twins Residency Road, Kollam - 691 001, Kerala",Kerala,Kollam,691001,10:30 AM TO 8:30 PM,"8.89022,76.590461",0474-2763093
The Raymond Shop,"Opp.Drainage Office, Bank Azad Nagar,  Siddharth Nagar-272 207, SIRMOUR HP",Himachal Pradesh,Sirmour,272207,10.30 AM TO 9.30 PM,"27.2601087,83.0576156",6200149832
The Raymond Shop,"T.P. No. 43 B, Ob Ward 10, Station Road, Bagalkot Karnataka",Karnataka,Bagalkot,587101,10:30 AM TO 8:30 PM,"16.1847329,75.6999639","08354-220777, 9449077011"
The Raymond Shop,"C-330, Near Gattewali Puliya, Tonk Road, Jaipur",Rajasthan,Jaipur,302018,10:30 AM TO 8:30 PM,-,"0141-2705215, 9887111115"
The Raymond Shop,"G-18, Main Market, Sector 18, , Noida - 201 301, Uttar Pradesh",Uttar Pradesh,Noida,201301,10:30 AM TO 8:30 PM,"28.570751,77.326188",0120-2510599
The Raymond Shop,"Nagar Panchayat Milkat No Sai Prabha, Agasti Karkhan, Akole, Ahmednagar-422 601, AKOLA",Maharashtra,Akola,422601,10.30 AM TO 9.30 PM,"19.5406298,74.005428",9422496919
The Raymond Shop,"56, Civil Lines, Bareilly Uttar Pradesh",Uttar Pradesh,Bareilly,243003,10:30 AM TO 8:30 PM,"28.3557365,79.4160545",0581-2575403
The Raymond Shop,"38 Shastri Marg, 3A Mahaveer, Colony, Ashok Nagar, Main Road, Udaipur - 313 001, Rajasthan",Rajasthan,Udaipur,313001,10:30 AM TO 8:30 PM,"24.585977,73.7017333","0294-2417491, 9023129009"
The Raymond Shop,"B27/87-A-K, Bhelupur, Durgakund Road, Varanasi - 221 010, Uttar Pradesh",Uttar Pradesh,Varanasi,221010,10:30 AM TO 8:30 PM,"25.295443,83.000797","0542-2277874, 9838887337"
The Raymond Shop,"56 Navyug Market, Ghaziabad - 201 001, Uttar Pradesh",Uttar Pradesh,Ghaziabad,201001,10:30 AM TO 8:30 PM,"28.6680131,77.4274333",0120-2790170
The Raymond Shop,"Challapalli Bungalow, Eluru Road, Vijayawada - 520002, Andhra Pradesh",Andhra Pradesh,Vijayawada,520002,10:30 AM TO 8:30 PM,"16.513991631125183,80.62264796931201","0866-2577312, 9885223344"
The Raymond Shop,"A-15,Gr. Floor, A-15,16,18, Inner Circle, Connaught Place, New Delhi - 110001",Delhi,Newdelhi,110001,10:30 AM TO 8:30 PM,"28.632172420891617,77.21729175717803",011-49843899
The Raymond Shop,"Shop No. 3-3-13, Rashtrapathi Road, Secunderabad - 500 003, Andhra Pradesh",Telangana,Secunderabad,500003,10:30 AM TO 8:30 PM,"17.4318056,78.4928076","040-27813377, 9885418292"
The Raymond Shop,"Shantiniketan Complex, Kamarpara, Jalpaiguri - 735 101, West Bengal",West Bengal,Siliguri,735101,10:30 AM TO 8:30 PM,"26.525226,88.722","03561-224551, 9733198346"
The Raymond Shop,"Deccan Towers, Basheer Bagh, Hyderabad - 500 001, Andhra Pradesh",Telangana,Hyderabad,500001,10:30 AM TO 8:30 PM,"17.4001669,78.4749697",040-23296189
The Raymond Shop,"Boddom Bazar, Gola Road, Hazaribagh - 825 301, Jharkhand",Jharkhand,Hazaribagh,825301,10:30 AM TO 8:30 PM,"24.0110255,85.3158429","06546-222240, 9330858184"
The Raymond Shop,"10-A, Aayekulam Road, Kumbakonam - 612 001, Tamilnadu",Tamil Nadu,Kumbakonam,612001,10:30 AM TO 8:30 PM,"10.9574714,79.3806826","0435-2424311, 9600427690"
The Raymond Shop,"K S Mall, 37 Marris Road, Aligarh - Uttar Pradesh",Uttar Pradesh,Aligarh,202001,10:30 AM TO 8:30 PM,"27.8923678,78.0801659",08171-259595
The Raymond Shop,"""Citi Centre"", 233 West High, Court Road, Dharampeth, Nagpur - 440 010, Maharashtra",Maharashtra,Nagpur,440010,10:30 AM TO 8:30 PM,"21.1439217,79.061411",0712-6612941
The Raymond Shop,"Shop No. 16 To 19, Ground Floor-Plot No. 1, Indira Place, Malviya Nagar, Jaipur - 302017, Rajasthan",Rajasthan,Jaipur,302017,10:30 AM TO 8:30 PM,"26.85515517368529,75.8082445933301",0141-4033996
The Raymond Shop,"Sayaji Road, Near Tower, Navsari - 396 445, Gujarat",Gujarat,Navsari,396445,10:30 AM TO 8:30 PM,"20.9532215,72.9284523",02637-232504
The Raymond Shop,"Siddhi Vinayak Complex, T. B. Hospital Road, Mehsana - 384 002, Gujarat",Gujarat,Mehsana,384002,10:30 AM TO 8:30 PM,"23.5950421,72.3876351","0276-2230545, 9821033268"
The Raymond Shop,"Dream Rise, Shop No.2,  Opp.Trends,Science City, Ahmedabad-380 060, Gujarat",Gujarat,Ahmedabad,380060,10.30 AM TO 9.30 PM,"23.0751628,72.5093321",9979897400
The Raymond Shop,"Link Road, Ward # 13, Opp. Bank Of India, P.O. Arambagh - 712601, Hooghly, West Bengal",West Bengal,Hooghly,712601,10:30 AM TO 8:30 PM,-,03211-256786
The Raymond Shop,"48/4 Hazratganj, Lucknow, Uttar Pradesh",Uttar Pradesh,Lucknow,226001,10:30 AM TO 8:30 PM,"26.848458,80.944011",0522-4070782
The Raymond Shop,"143 Sadar Bazar, Near Kali Mandir, Meerut Cantt., Meerut Uttar Pradesh",Uttar Pradesh,Meerut,250001,10:30 AM TO 8:30 PM,"28.9968175,77.6911618",0121-2660012
The Raymond Shop,"Near Gandhi chowk,",Madhya Pradesh,Shahdol,484001,10:30 AM TO 8:30 PM,-,-
The Raymond Shop,"Near High School, Gaushala Road, Naugachhia - 853204, Bihar",Bihar,Naugachhia,853204,10:00 AM - 7:00 PM,"25.3868523,87.0980788",9934060201
The Raymond Shop,"Near Abhinanda Vatika, Station Road, Kankroli - 313 324, Rajasthan",Rajasthan,Kankroli,313324,10:30 AM TO 8:30 PM,"25.0527971,73.8938651","02952-231203, 9414171900"
The Raymond Shop,"20, Bauser Colony, TALIKOTI-586 214, KARNATAKA",Karnataka,Talikoti,586214,10:30 AM TO 8:30 PM,"16.4939567,76.3289941",9900470104
The Raymond Shop,"Varadaraju Complex, 7 Main Road, Dindigul - 624 001, Tamil Nadu",Tamil Nadu,Dindigul,624001,10:30 AM TO 8:30 PM,"10.363867,77.968108","0451-2429505, 9360970777"
The Raymond Shop,"12, Anand Colony, Near Santosima Temple, Bhuj - 370 001, Gujarat",Gujarat,Bhuj,370 001,10:30 AM TO 8:30 PM,"23.2433681,69.6691586","02832-252241, 9825225081"
The Raymond Shop,"102, Bharathiar Street, Karaikal - 609 602, Pondicherry",Pondicherry,Karaikal,609602,10:30 AM TO 8:30 PM,"10.9207246,79.833014","04368-227866, 9360223337"
The Raymond Shop,"106/82 GANDHI NAGAR, Kanpur - 208012, Uttar Pradesh",Uttar Pradesh,Kanpur,208012,10:30 AM - 8:30 PM,"26.4851045,80.3224028",-
The Raymond Shop,"314, Netaji Road, Khagra - 742 103, Berhampore, Dist Murshidabad, West Bengal",West Bengal,Murshidabad,742103,10:30 AM TO 8:30 PM,"24.1117046,88.2478121",03482-263779
The Raymond Shop,"Vinayak Plaza, Kamarpatty, Fancy Bazar, Guwahati - 781001, Assam",Assam,Guwahati,781001,10:30 AM TO 8:30 PM,"26.183832847283828,91.74043450793599",0361-2607341
The Raymond Shop,"Samra Complex, Samra Square, Main Road, Wardha",Maharashtra,Wardha,442001,10:30 AM TO 8:30 PM,-,0715-2249901
The Raymond Shop,"1-A Officer'S Line, Vellore - 632 001, Tamil Nadu",Tamil Nadu,Vellore,632001,10:30 AM TO 8:30 PM,"12.9122691,79.1319428",0416-2227181
The Raymond Shop,"Maghalakshmi Plaaza, 716, Nehruji Road, Villupuram, Tamil Nadu",Tamil Nadu,Villupuram,605602,10:30 AM TO 8:30 PM,"11.9410956,79.4940705","0414-6224421, 9092533333"
The Raymond Shop,"Asmani Plaza, 1248 - A Deccan Gymkhana, Pune - 411 004, Maharashtra",Maharashtra,Pune,411004,10:30 AM TO 8:30 PM,"18.5172582,73.8419523",020-25531666
The Raymond Shop,"Library Road, Hanuman Chowk, Gurdaspur, Punjab",Punjab,Gurdaspur,143521,10:30 AM TO 8:30 PM,"32.0376637,75.4058074","01874-500347, 9646003434"
The Raymond Shop,"D-116, Ground Floor, Fateh Nagar, (Near Tilak Nagar Metro Station, Fateh Nagar Gurudwara), Jail Road, New Delhi - 110018",Delhi,Delhi,110018,10:30 AM TO 8:30 PM,"28.6329604,77.0989847",011-41811219
The Raymond Shop,"31, Lala Lajpat Rai Mkt, Opp: Nehru Park, Abohar Punjab",Punjab,Abohar,152116,10:30 AM TO 8:30 PM,"30.1432525,74.1994728","01634-500678, 9876207005"
The Raymond Shop,"# 4, Sunraise, 80 Feet Road, Opp. Bda Complex, 6Th Block, 2Nd Stage, Nagarbhavi, Bangalore Karnataka",Karnataka,Bangalore,560072,10:30 AM TO 8:30 PM,-,080-23182774
The Raymond Shop,"Station Road, Near Allahba, Post-Nalhati,",West Bengal,Birbhum,731243,10:30 AM TO 8:30 PM,-,-
The Raymond Shop,"SCF - 121, Phase-7, Mohali (SAS Nagar)  - 160 061, Punjab",Punjab,Mohali,160061,10:30 AM TO 8:30 PM,"30.703996,76.7260766","0172-4612111 , 98142041088"
The Raymond Shop,"E-1/6 GROUND FLOOR, SECTOR-7, Delhi - 110085, Delhi",Delhi,Delhi,110085,10:30 AM TO 8:30 PM,"28.702904074999644,77.117166084656",011-27040401
The Raymond Shop,"5616 Nicholson Road, Opp: Pnb, Sadar Bazar, Ambala Cantt. - 133 001, Haryana",Haryana,Ambala,133001,10:30 AM TO 8:30 PM,"30.3382648,76.8399715","0171-2643286, 9813335550"
The Raymond Shop,"Mithila Tower, Kanpur Road, Agra",Uttar Pradesh,Agra,206122,10:30 AM TO 8:30 PM,-,0568-3246999
The Raymond Shop,"Garg Tower, Plot No.Sr-12, Nursery Circle, Plot No. 1, Indira Place, Malviya Nagar, Jaipur - 302021, Rajasthan",Rajasthan,Jaipur,302021,10:30 AM TO 8:30 PM,"26.91116767,75.73932871",0141-4033554
The Raymond Shop,"115 Agrawal Nagar, Sapna Sangeeta Road, Indore - 452 001, Madhya Pradesh",Madhya Pradesh,Indore,452001,10:30 AM TO 8:30 PM,"22.7015377,75.8704078",0731-2368414
The Raymond Shop,"D No 7/10/13, Rajeev Marg, Gadwal,",Telangana,Jougulamba,509125,10:30 AM TO 8:30 PM,-,08546-273153
The Raymond Shop,"New Amlapatty, Near Multi-Propose Girls School, Tezpur - 784001, Assam",Assam,Tezpur,784001,10:30 AM TO 8:30 PM,"26.625093734520842,92.792412469312",03712-252745
The Raymond Shop,"Hydel Gate, Opp-Wood Packteri Polia, Nainital Road, Haldwani-263 139 Uttarakhald",Uttrakhand,Haldwani,263139,10:30 AM TO 8:30 PM,"29.2083952,79.5278474",-
The Raymond Shop,"Siddharth, Waghawadi Road, Bhavnagar - 364 002, Gujarat",Gujarat,Bhavnagar,364002,10:30 AM TO 8:30 PM,"21.77103794387353,72.14250943862402",0278-2424520
The Raymond Shop,"Manjula Heights, Near Ganeshpar Road,",Maharashtra,Parli Vaijanath,431515,10:30 AM TO 8:30 PM,-,9850284567
The Raymond Shop,"Pani House, Nh-31, Near Tenzing & Tenzing, Gangtok - 737 101, Sikkim",Sikkim,Sikkim,737101,10:30 AM TO 8:30 PM,"27.3256885,88.6098483","03592-281631, 9233592336"
The Raymond Shop,"Khasra No. 2134 & 2135,  Sai Tower, Saivihar Colony, Lucknow-226002, Up",Uttar Pradesh,Lucknow,226002,10:30 AM TO 8:30 PM,"26.7809628,80.9981576","0522-2442102, 9415013828"
The Raymond Shop,"Shop No.A-1, Jilla Panchayt, Sardar Complex, Amreli-365601, Gujarat",Gujarat,Amreli,365601,10:30 AM TO 8:30 PM,"21.6031583,71.2177884",-
The Raymond Shop,"Subhash Road, Beed-431122, Maharashtra",Maharashtra,Beed,431122,10:30 AM TO 8:30 PM,"18.9932831,75.7596583","02442-229022, 9423172223"
The Raymond Shop,"House No 59, Main Market, Sant Ravidas Nagar,",Uttar Pradesh,Khalilabad,272175,10:30 AM TO 8:30 PM,-,7704011899
The Raymond Shop,"Rc Western Mall,",Bihar,Patna,801503,10:30 AM TO 8:30 PM,-,-
The Raymond Shop,"H.No 4-2-236/1, Locality - Mochigalli, Adilabad-504001, Telangana",Telangana,Adilabad,504001,10:30 AM TO 8:30 PM,"19.6708725,78.5315823",-
The Raymond Shop,"59A, J.K.House Bhulabhai Desai Road, Mumbai - 400026, Maharashtra",Maharashtra,Mumbai,400026,10:30 AM TO 8:30 PM,"18.97231443,72.80513815",-
The Raymond Shop,"Near Kunwar Singh Chowk, Main Road, Jaynagar, Madhubani-847 211, Bihar",Bihar,Madhubani,847211,10:30 AM TO 8:30 PM,"26.593659,86.139894",9334404110
The Raymond Shop,"Near Raja Shopping Center, Kadi Thol Road, Kadi,",Gujarat,Mahesana,382715,10:30 AM TO 8:30 PM,-,-
The Raymond Shop,"Line Bazar, Near K K Hospital, Purnia - 854 301, Bihar",Bihar,Purnia,854301,10:30 AM TO 8:30 PM,"25.783949379564433,87.48577922328","0645-4242289, 9431230869"
The Raymond Shop,"Opp. IDBI Bank, Station Road, Jamui-811 307, BIHAR",Bihar,Jamui,811307,10:30 AM TO 8:30 PM,"24.9322225,86.2279012",-
The Raymond Shop,"Near - Bus Stand ,",Jharkhand,Ranchi,815351,10:30 AM TO 8:30 PM,-,7369009437
The Raymond Shop,"The Raymond Shop, Railway Dev Nagar, Near Lakshmi Nagar, Palwal-121102, Haryana",Haryana,Palwal,121102,10:30 AM TO 8:30 PM,"28.1458457,77.329716",8930725877
The Raymond Shop,"Panchayat Samiti Complex, Station Road, Vaijapur, Aurangabad-423701, Mh",Maharashtra,Aurangabad,423701,10:30 AM TO 8:30 PM,"19.9256818,74.7284812",-
The Raymond Shop,"3/354,Vinamra Khand, Gomati Nagar, Lucknow,",Uttar Pradesh,Lucknow,226010,10:30 AM TO 8:30 PM,-,-
The Raymond Shop,"Sigma Sqaure, Opp. Fortune Magdum Colony, ICHALKARANJI-416 115, MH",Maharashtra,Ichalkaranji,416115,10.30 AM TO 9.30 PM,"16.6922607,74.4752941",9821033268
The Raymond Shop,"Pathepur Road, Mahua - 844122, Bihar",Bihar,Mahua,844122,10:30 AM TO 8:30 PM,"25.812965018039534,85.39907727671999",-
The Raymond Shop,"14 New Cloth Market, Ratlam - 457 001, Madhya Pradesh",Madhya Pradesh,Ratlam,457001,10:30 AM TO 8:30 PM,"23.3241295,75.0373102","07412-270012, 9425103376"
The Raymond Shop,"Ward No.8, Near Bus Stand, Dr.Ram Manohar Lohia Path, Forbesganj, Araria-854318, Bihar",Bihar,Araria,854318,10:30 AM TO 8:30 PM,"26.2990652,87.2614022",7634943071
The Raymond Shop,"G/F,3-4 City Center, Near Modasa -Shamlaji Road,",Gujarat,Morbi,833153,10:30 AM TO 8:30 PM,-,02764-242800
The Raymond Shop,"849, Cross Cut Road, Gandhipuram, Coimbatore Tamil Nadu",Tamil Nadu,Coimbatore,641012,10:30 AM TO 8:30 PM,"11.0170552,76.9620783",0422-2495275
The Raymond Shop,"4199 Bhosale Chowk, Navipeth, Pandharpur - 413 304, Maharashtra",Maharashtra,Solapur,413304,10:30 AM TO 8:30 PM,"17.6807213,75.328479","02186 - 222599, 9860565571"
The Raymond Shop,"Gulab Bhawan, Chopasani Road, Jodhpur - 342 003, Rajasthan",Rajasthan,Jodhpur,342003,10:30 AM TO 8:30 PM,"26.283296,73.013307","0291-2617587, 9828124200"
The Raymond Shop,"Shop No.108,109, Chpl Dre Apollo Bsr Hospital Road, Bhilai-490 020, Chhattisgarh Bhilai",Chattisgarh,Bhilai,490020,10:30 AM TO 8:30 PM,"21.2161185,81.3230377",-
The Raymond Shop,"Shamnur Road, Davangere-577 001 ,Karnataka",Karnataka,Davangere,577001,10.30 AM TO 9.30 PM,"14.4526804,75.904282",9845420772
The Raymond Shop,"15/1 Sobhana Complex, Park Road, Gudivada - 521 301, Andhra Pradesh",Andhra Pradesh,Gudivada,521301,10:30 AM TO 8:30 PM,"16.426186150451652,80.99248092328","08674-243355, 9849022272"
The Raymond Shop,"#135, Jawaharlal Nehru Ronear Kanakadasa Cricle,",Karnataka,Bangalore,560098,10:30 AM TO 8:30 PM,-,080-41758176
The Raymond Shop,"109/110, MALAD SHOPPING CENTRE, S. V. ROAD, MALAD (WEST), Mumbai - 400064, Maharashtra",Maharashtra,Mumbai,400064,10:30 AM TO 8:30 PM,"19.18572255,72.84708656",022-28891195
The Raymond Shop,"90, Bapu Bazar,",Rajasthan,Udaipur,313001,10:30 AM TO 8:30 PM,-,0294-2522636
The Raymond Shop,"Shop No 2, Gr.Floor, Deben Holding No.275, Sahebpara, Sonarpur-700150, Wb",West Bengal,Sonarpur,700150,10:30 AM TO 8:30 PM,"22.44276,88.4205238",-
The Raymond Shop,"Opp. Ram Mandir, Agra Road, Dhulia Maharashtra",Maharashtra,Dhule,424001,10:30 AM TO 8:30 PM,"20.9193696,74.7776126",02562-288461
The Raymond Shop,"Purani Bazar,",Bihar,Lakhisarai,811311,10:30 AM TO 8:30 PM,-,0634-6235169
The Raymond Shop,"Satkoudi Complex, Ramgarh Cantt",Jharkhand,Ramgarhcantonment,829122,10:30 AM TO 8:30 PM,-,"06201-145911, 9431114648"
The Raymond Shop,"Plot E-1, MIDC Area, Ajanta Rd, Jalgaon-425003, Maharashtra",Maharashtra,Jalgaon,425003,10:30 AM TO 8:30 PM,"20.98755888,75.58471221",0257-2272480
The Raymond Shop,"Shri Adinath, Jain Mandir, Near Patel Market, Bahubali Colony,",Madhya Pradesh,Sagar,470002,10:30 AM TO 8:30 PM,-,9406520487
The Raymond Shop,"Girnar Building, Cinema Road, Baramati - 413 102, Maharashtra",Maharashtra,Baramati,413102,10:30 AM TO 8:30 PM,"18.148034,74.574585","02112-222812, 9822341212"
The Raymond Shop,"1206, Bel Layout, 2Nd Block, Surabhi Chits Building,Vidyaranyapura, Bangalore-560097, Kt",Karnataka,Bangalore,560097,10:30 AM TO 8:30 PM,"13.0696527,77.5557806","080-48144040, 918048144040"
The Raymond Shop,"Azad Chowk, Mahendragarh-123 029, Haryana",Haryana,Mahendragarh,123029,10:30 AM TO 8:30 PM,"28.2684023,76.1488091",-
The Raymond Shop,"Marwari Muhalla, Chatra-825 401, Jharkhand",Jharkhand,Chatra,825401,10:30 AM TO 8:30 PM,"24.2044912,84.8707989","7033880070, 9297700883"
The Raymond Shop,"10B,Trunk Road(NC Road), Ambur, Tirupattur-635 802, Tamil Nadu",Tamil Nadu,Tirupattur,635802,10.30 AM TO 9.30 PM,"12.7801672,78.7177271",9443289450
The Raymond Shop,"Shop No-2, Hargovind Enclave, Opp. Shanti Mukund Hospital, Metro Pillar No -114, Delhi - 110092, Delhi",Delhi,Newdelhi,110092,10:30 AM TO 8:30 PM,"28.646234036978193,77.30111049765725",9958293999
The Raymond Shop,"Shop No. F-02, First Floor, Phoenix Marketcity, Vellachery, chennai - 600042, Tamil Nadu",Tamil Nadu,Chennai,600042,10:30 AM TO 8:30 PM,"12.991292553514462,80.21641082746993",044-30083592
The Raymond Shop,"No. 23, Krishnagiri Road, Tirupattur, Vellore Dist. Tirupattur-635601, Tn",Tamil Nadu,Tirupattur,635001,10:30 AM TO 8:30 PM,"12.5264334,78.1963404",-
The Raymond Shop,"Old G.T. Road, Gaya District, Aurangabad - 824101, Bihar",Bihar,Aurangabad,824101,10:30 AM TO 8:30 PM,"24.75102059460625,84.377749284656","06186-223097, 9437278731"
The Raymond Shop,2-E,Rajasthan,Bikaner,334001,10.30 AM TO 9.30 PM,-,9829626188
The Raymond Shop,"Opp. Sultania Vastralaya,  Dak Bunglow Chowk,  Main Road, Benipatti - 847223, Bihar",Bihar,Benipatti,847223,10.30 AM TO 9.30 PM,"26.444217968062215,85.9042021",8002615050
The Raymond Shop,"D.No 7-15-19, Behind 38 Bold Gajuwaka Junction, Visakhapatnam-781 005, Ap",Andhra Pradesh,Vishakhapattanam,781 005,10:30 AM TO 8:30 PM,"17.6928,83.2051833",-
The Raymond Shop,"C-11 City Center, Sec-4, Bokaro Steel City, - 827004 Jharkhand",Jharkhand,Bokaro,605001,10:30 AM TO 8:30 PM,"23.6681362,86.1475063","06542-233824, 9304285713"
The Raymond Shop,"9-11-5, More Centre,  Arundelpeta, Opp. Tamil Nadu Mercantile Bank, Narsaraopet - 522601, Andhra Pradesh",Andhra Pradesh,Narsaraopeta,522601,10:30 AM TO 8:30 PM,"16.23645599340643,80.0402554",-
The Raymond Shop,"Shop-23,24,25, Ground Floor, Malhar Mega Mall, A.B.Road, Indore-452 010, MP",Madhya Pradesh,Indore,452010,10:30 AM TO 8:30 PM,"22.7447097,75.8943325",-
The Raymond Shop,"Datta Chowk, Yavatmal",Maharashtra,Yevatmal,445001,10:30 AM TO 8:30 PM,-,"0723-2242295, 9930141614"
The Raymond Shop,"ASA Tower, Near Ashiyana B, Shastri Nagar, Haridwar Road, Dehradun-248 001,Uttarakhand",Uttrakhand,Dehradun,248001,10.30 AM TO 9.30 PM,"30.2918092,78.0601109",8126456443
The Raymond Shop,"Shop No.209, Axis Mall, New Town, Rajarhat, Kolkata - 700 156, West Bengal",West Bengal,Kolkata,700156,10:30 AM TO 8:30 PM,"22.5831333,88.4587189","033-23241051, 9831015447"
The Raymond Shop,"Sharad Shopping Centre, Opp. Handloom House, Ashram Road, Ahmedabad Gujarat",Gujarat,Ahmedabad,380009,10:30 AM TO 8:30 PM,"23.028238,72.571285",079-26589529
The Raymond Shop,"S.F.NO 319/20,Venkatesapuram, Next to Bank of Baroda, Perambalur-612 212,TN",Tamil Nadu,Perambalur,612212,10:30 AM TO 8:30 PM,"11.2342104,78.8806852",9443092467
The Raymond Shop,"At-Bhatdiha, Main Road, Godda - 814 133, Jharkhad",Jharkhand,Godda,814133,10:30 AM TO 8:30 PM,"24.8146704,87.2182786","9065324522, 9431134595"
The Raymond Shop,"Netaji Subash Road, Kharua Bazar, Beside Rainbow, Chinsurah West Bengal",West Bengal,Chinsurah,712101,10:30 AM TO 8:30 PM,"22.886877,88.395716","033-26800665, 9903845601"
The Raymond Shop,"Near Nagdev Temple, Daulat Gunj, Gwalior-474002, Mp",Madhya Pradesh,Gwalior,474002,10:30 AM TO 8:30 PM,"26.2009991,78.1528802",-
The Raymond Shop,"B.F. Road, Post-Alipurduar",West Bengal,Alipurduar,736122,10:30 AM TO 8:30 PM,-,"03564-257113, 9494027917"
The Raymond Shop,"New Road, No 01, Sahibganj-816 109, Jharkhand",Jharkhand,Sahibganj,816109,10.30 AM TO 9.30 PM,"25.2381216,87.6453592",8340527665
The Raymond Shop,Ward No,Uttar Pradesh,Azamgarh,276202,10:30 AM TO 8:30 PM,-,-
The Raymond Shop,"139, Perundurai Road, Paari Nagar,",Tamil Nadu,Erode,638011,10:30 AM TO 8:30 PM,-,-
The Raymond Shop,"Ujjai Market, Shiwan Chapra, Main Road, Siwan - 841 226, Bihar",Bihar,Siwan,841226,10:30 AM TO 8:30 PM,"26.225173,84.357265","06154-244159, 9431448524"
The Raymond Shop,"Alwar Road, Behror, Dist.- Alwar, 301701 Rajasthan",Rajasthan,Alwar,231216,10:30 AM TO 8:30 PM,"27.8895582,76.3012325",01494-231100
The Raymond Shop,"D NO.20-3-23/1, PAMURU ROAD, KANDUKURU, PRAKASAM-532 105, AP",Andhra Pradesh,Prakasam,532105,10:30 AM TO 8:30 PM,"15.2093291,79.8845888",9290078887
The Raymond Shop,"1-3, Mauli Sankul Complex, Savedi Road, Ahmednagar Maharashtra",Maharashtra,Ahmednagar,414001,10:30 AM TO 8:30 PM,"19.114873,74.730492","0241-6611143, 9223382433"
The Raymond Shop,"Main Road, Near SBI, Court Area, Barh-803 213, Bihar",Bihar,Barh,803213,10.30 AM TO 9.30 PM,"25.4722676,85.7081842",7033672662
The Raymond Shop,"Opera City, Revder Road, Manpur, Aburoad-307 026, RJ",Rajasthan,Aburoad,307026,10:30 AM TO 8:30 PM,"24.4981944,72.7860072",9687248802
The Raymond Shop,"13/2 RK Complex Raghuvana, Kanakapura Main Road, Karnataka, Banglore  560062",Karnataka,Bangalore,560062,10.30 AM TO 9.30 PM,"13.0398063,77.5775688",9880194509
The Raymond Shop,"A-1,2, Uttam Nagar,  Main Nazafgarh Rd,  New Delhi-110059",Delhi,Newdelhi,110059,10:30 AM TO 8:30 PM,"28.6210316,77.0493491",011-49404511
The Raymond Shop,"Garh Road, Near P.C jewellers, Hapur-245 101, UTTAR PRADESH",Uttar Pradesh,Hapur,245101,10.30 AM TO 9.30 PM,"28.7292701,77.7858065",8445050844
The Raymond Shop,"Jonepur Chow Matha More, Kalyani-Barrackpur Exp. Kanchrapara - 743145,Wb",West Bengal,Kolkata,743145,10:30 AM TO 8:30 PM,"22.9453796,88.4615836",-
The Raymond Shop,"Bhansali Towers, Tatyapara, G. E. Road, Raipur - 492 001, Chattisgarh",Chattisgarh,Raipur,492001,10:30 AM TO 8:30 PM,"21.24124129872599,81.62974273862402",0771-2555652
The Raymond Shop,"TILAK PATH, OLD MONDHA, AMBAD, JALNA-431 204,MAHARASHTRA",Maharashtra,Jalna,431204,10.30 AM TO 9.30 PM,"19.6127129,75.7927328",9404506306
The Raymond Shop,"Sarbahal Road, Near Anand World, Jharsuguda-768201, Odisha",Orissa,Jharsuguda,768201,10:30 AM TO 8:30 PM,"21.844064,84.0126212",-
The Raymond Shop,"Door No 61,12 T.S.No 33B, Mayilpalayam Main Road, Thanjavur-614 602, Tamilnadu",Tamil Nadu,Thanjavur,614602,10:30 AM TO 8:30 PM,"11.9042065,79.8070074",9443092467
The Raymond Shop,"D 407, Ramphal Chowk,",Delhi,Newdelhi,110075,10:30 AM TO 8:30 PM,-,"011-49403532, 9811340422"
The Raymond Shop,"Hotel Chanakya Market, R-Block, Patna Bihar",Bihar,Patna,800001,10:30 AM TO 8:30 PM,"25.6008851,85.1257",0612-2222775
The Raymond Shop,"8-15-120/C/31/GF, Chintalk, Near LB nagar, Hyderabad-500 074, Telangana",Telangana,Hyderabad,500074,10:30 AM TO 8:30 PM,"17.346515,78.551006",-
The Raymond Shop,"16-2-416, Hydernagar,",Telangana,Hyderabad,500072,10:30 AM TO 8:30 PM,-,040-48528668
The Raymond Shop,"D.No 6- 49, Budha Nagar,",Telangana,Hyderabad,500039,10:30 AM TO 8:30 PM,-,040-49538999
The Raymond Shop,"A4/25, Paschim Vihar, Delhi-110 088, NEW DELHI",Delhi,Newdelhi,110088,10:30 AM TO 8:30 PM,"28.7122105,77.1590304",9811040754
The Raymond Shop,"In Front of Amarnath Mand, Shyam Nandan Road, Muzaffarpur-842 002, BH",Bihar,Muzaffarpur,842002,10.30 AM TO 9.30 PM,"26.1178393,85.3790927",9835262002
The Raymond Shop,"Shop No. 3 & 4, Kuber Vintage, M. G. Road, Porbunder - 360 575, Gujarat",Gujarat,Porbunder,360575,10:30 AM TO 8:30 PM,"21.63827,69.612519","0286-2244432, 9821033268"
The Raymond Shop,"Shop No 11,12,13, Rajasi Sadar Bazar, Powai Naka, Satara-415001, Mh",Maharashtra,Satara,415001,10:30 AM TO 8:30 PM,"17.685191,74.0157785",02162-229229
The Raymond Shop,"Shop No. 1-2, Ananta Squanr. Allahabad Bank, Godhahalol, Gujarat 389350",Gujarat,Vadodara,389350,10:30 AM TO 8:30 PM,-,-
The Raymond Shop,"861, Shashtri Nagar, Maharajganj-273 303,UttarPradesh",Uttar Pradesh,Noida,273303,10.30 AM TO 9.30 PM,"27.1658678,83.5811084",9795503467
The Raymond Shop,"Pehowa Chowk,",Haryana,Kaithal,136027,10:30 AM TO 8:30 PM,-,8295003296
The Raymond Shop,"Nanded Bidar Road, Udgir, Dist. Latur - 413 517, Maharashtra",Maharashtra,Udgir,413517,10:30 AM TO 8:30 PM,"18.3936429,77.1106167","02385-254061 , 98231 51299"
The Raymond Shop,"Unit No. 44/45, Patel Heritage Building, Sector 7, Kharghar, Navi Mumbai - 410210, Maharashtra",Maharashtra,Navi Mumbai,410210,10:30 AM TO 8:30 PM,"19.03541068,73.06470653",022-27740709
The Raymond Shop,"Near Gulab Bagh Maidan,",Rajasthan,Banswara,327001,10:30 AM TO 8:30 PM,-,02962-246740
The Raymond Shop,"126-A, Vikas Nagar,",Uttar Pradesh,Kanpur,208024,10:30 AM TO 8:30 PM,-,-
The Raymond Shop,"Mill Road, Falakata, Jalpaiguri-735 211,West Bangal",West Bengal,Jalpaiguri,735211,10.30 AM TO 9.30 PM,"26.517486,89.2039195",9641027780
The Raymond Shop,"H.no.2-4-101/1, Near Clock, Opp.Vysya Bhavan, Ram Baza, Jagtial-505 327, Telangana",Telangana,Jagtial,505327,10.30 AM TO 9.30 PM,"18.7927964,78.9145914",9966999902
The Raymond Shop,"SATYA COMPLEX, P.NO.51/1, THANA ROAD, KOTHI BAZAR, BETUL-460 001, MADHYA PRADESH",Madhya Pradesh,Betul,460001,10.30 AM TO 9.30 PM,"21.9136699,77.9009716",7489354827
The Raymond Shop,"SC0-42, NAC POCKET NO.1, MANIMAJRA, , Chandigarh - 160101, Chandigarh",Chandigarh,Chandigarh,160101,10:30 AM TO 8:30 PM,"30.710964778464515,76.84228911534402","0172-2735898, 9888014880"
The Raymond Shop,"Shop No.2, Central Business Park, Kamla Nagar, Agra Uttar Pradesh",Uttar Pradesh,Agra,282005,10:30 AM TO 8:30 PM,"27.2115359,78.0178014","0562-2885698, 9412301231"
The Raymond Shop,"Goldighi Mall, 1St Floor, Shop No. F43 To 47, Pream Tola, Silchar - 788015, Assam",Assam,Silchar,788015,10:30 AM TO 8:30 PM,"24.82389058205486,92.799973569312",03842-261103
The Raymond Shop,"61, Yelmeli Complex, S S Road, Bijapur Karnataka",Karnataka,Bijapur,586101,10:30 AM TO 8:30 PM,"16.8342573,75.7166399","08352-243999, 9343890777"
The Raymond Shop,"Hotel Debarshi Complex, Lal Bazar, Bankura - 722 101, West Bengal",West Bengal,Bankura,722101,10:30 AM TO 8:30 PM,"23.229919,87.07964",03242-240043
The Raymond Shop,"Shop 15 -18, Bhagwati Comp, Station Road,  Barmer-344 001, RJ",Rajasthan,Barmer,344001,10:30 AM TO 8:30 PM,"25.7453287,71.3968137",-
The Raymond Shop,"Near Laxminarayan Temple, Waniwad, Chikhli - 396 521, Gujarat",Gujarat,Chikali,396521,10:30 AM TO 8:30 PM,"20.75874485345376,73.06318326931199","02634-234630, 9824127925"
The Raymond Shop,"AA-16, Bhagwan Mahavir Road, Shalimar Bagh, North West Delhi-110088, New Delhi",Delhi,Delhi,110088,10:30 AM TO 8:30 PM,"28.708425,77.167519",9810318331
The Raymond Shop,"Near Chauhan Plaza, G. E. Road, Bhilai - 490 023, Chattisgarh",Chattisgarh,Bhilai,490023,10:30 AM TO 8:30 PM,"21.22379488124251,81.34548783068801",0788-5039200
The Raymond Shop,"Khanna Complex, Plot No. 5, Ram Ganga Vihar Ext, Near C L Gupta Eye Institute, Moradabad",Uttar Pradesh,Moradabad,244001,10:30 AM TO 8:30 PM,-,"0591 6059167, 9219699167"
The Raymond Shop,"Sridevi Complex, Main Road, Narsannapet - 532421, Andhra Pradesh",Andhra Pradesh,Narasannapeta,532421,10:30 AM TO 8:30 PM,"18.41624946382724,84.0389936",-
The Raymond Shop,"SHOP No.1, AMAR SADANAND TMAHALUNGE ROAD, NEAR D-MABANER, PUNE-411 045, MH",Maharashtra,Pune,411045,10:30 AM TO 8:30 PM,"18.5679917,73.767719",9850005292
The Raymond Shop,"No. 15-2147 & 15-2148, Opp. MSR Theater, Chittoor - Vellore Road, Chittoor - 517001, Andhra Pradesh",Andhra Pradesh,Chittoor,517001,10:30 AM TO 8:30 PM,"13.214357813018344,79.09857293862402","08572-236366, 9448133303"
The Raymond Shop,"Holding No.38/1083/A, Jessward No.17(21),P.O.-Bonga District-North 24 Pargana 743235 West Bengal",West Bengal,North24Parganas,743235,10:30 AM TO 8:30 PM,"23.0803282,88.8359032",-
The Raymond Shop,"Elanjimoottil Kandathil Building, Near Railway Over Bridge, T K Road, Thiruvalla",Kerala,Thiruvalla,689101,10:30 AM TO 8:30 PM,-,0469-2620095
The Raymond Shop,"202, Gandhipuram,Near Boy West side,Vinayapuram, Salem-636 102, TN",Tamil Nadu,Salem,636102,10:30 AM TO 8:30 PM,"11.5976175,78.5873759",-
The Raymond Shop,"No-2, Havnoor Extention, Opp. Ammaji Kalyan Mantap, Bangalore, Karnataka- 560073",Karnataka,Bangalore,560073,10:30 AM TO 8:30 PM,-,-
The Raymond Shop,"502, Binay Batika Ranchi Road, Purulia, West Bengal",West Bengal,Purulia,723101,10:30 AM TO 8:30 PM,"23.3329,86.358768","03252-224439, 9831189963"
The Raymond Shop,"Plot N O. 432, Shakumbari Plaza, Sector -12, Vasundhra, Ghaziabad - 201 012, Uttar Pradesh",Uttar Pradesh,Ghaziabad,201012,10:30 AM TO 8:30 PM,"28.6590946,77.3664079","0120-4291952, 9810123316"
The Raymond Shop,"P.K. Parija Road, Cantonment Road, Opp. Dcp Office, Cuttack Odisha",Orissa,Cuttack,753002,10:30 AM TO 8:30 PM,"20.4806345,85.8747955","0671-2305700, 9681641540"
The Raymond Shop,"Ram Chowk, Savsar Plot, Main Road, Morbi - 363 641, Gujarat",Gujarat,Morbi,363641,10:30 AM TO 8:30 PM,"22.8158392,70.8300666","02822-233550, 9825222852"
The Raymond Shop,"Main Road, Kapad Peth, Sangli - 416 416, Maharashtra",Maharashtra,Sangli,416416,10:30 AM TO 8:30 PM,"16.860803,74.5625449",0233-2372980
The Raymond Shop,"126, Gandhiji Road, Thanjavur - 613 001, Tamil Nadu",Tamil Nadu,Thanjavur,613001,10:30 AM TO 8:30 PM,"10.782512,79.1394179",04362-238463
The Raymond Shop,Shop,Haryana,Gurgaon,122017,10:30 AM TO 8:30 PM,-,0124-4570350
The Raymond Shop,"Gandhi Putla Mahal, Badkas Chowk, Itwari Road, Nagpur - 440 009, Maharashtra",Maharashtra,Nagpur,440009,10:30 AM TO 8:30 PM,"21.151376,79.109942",0712-2728282
The Raymond Shop,"Gr. Floor, Plaza Complex, Near Jaycees Crossing, Jaunpur - 222 002, Uttar Pradesh",Uttar Pradesh,Jaunpur,222002,10:30 AM TO 8:30 PM,"25.741334,82.687019","05452-220644, 9936692000"
The Raymond Shop,"Kamala Niwas, 45 Ram Aali, M G Road, Shirur",Maharashtra,Shirur,412210,10:30 AM TO 8:30 PM,-,"02138-223636, 8446798627"
The Raymond Shop,"THE RAYMOND SHOP, CIRCUIT MORWA, DISTT-SINGRAULI,   MADHYA PRADESH 486889",Madhya Pradesh,Bhopal,486889,10.30 AM TO 9.30 PM,"24.2021239,82.669493",9425177049
The Raymond Shop,"Bank Road, Masjid Chowk,  Amritsar, Punjab 152026",Punjab,Amritsar,152026,10:30 AM TO 8:30 PM,-,-
The Raymond Shop,"Shop No.13, Mirja Road, Opp. Police Quarter, Anekal, Karnataka - 562106",Karnataka,Anekal,562106,10:30 AM TO 8:30 PM,"12.712900315184228,77.69713140000259",080-27830000
The Raymond Shop,"Shop No. 1, Kc Plaza, Residency Road, Jammu-180 001",Jammu & Kashmir,Jammu,180001,10:30 AM TO 8:30 PM,"32.734072,74.866194","0191-2549956, 9216599999"
The Raymond Shop,"Opp. I. T. I College, Ausa Road, Latur - 413 531, Maharashtra",Maharashtra,Latur,413531,10:30 AM TO 8:30 PM,"18.3998362,76.5600501",02382-251526
The Raymond Shop,47 Bypass Rd. Near Rams Apt. Madurai - 625016 Tn,Tamil Nadu,Madurai,625016,10:30 AM TO 8:30 PM,"9.9180624,78.0913512",0452-4353416
The Raymond Shop,"124, NEEL PRESIDENCY  MCCH SOC., OPP. TELEPHONE EXCHANGE, Navi Mumbai - 410206, Maharashtra",Maharashtra,Navi Mumbai,410206,10:30 AM TO 8:30 PM,"18.98615172,73.11277249",022-27480757
The Raymond Shop,"Centre Point, R C Dutt Road, Alkapuri, Vadodara - 390 005, Gujarat",Gujarat,Vadodara,390005,10:30 AM TO 8:30 PM,"22.3104872,73.1729091",0265-2333222
The Raymond Shop,"886, Jawaharganj, Opp: Allahabad Bank, Jabalpur Madhya Pradesh - 482 002",Madhya Pradesh,Jabalpur,482002,10:30 AM TO 8:30 PM,"23.1636332,79.9556855","0761-2400888, 9425156000"
The Raymond Shop,"Ground Floor, Govind Deve, Life Ville Building, Sr.NNew BRT Road, Pimple Saud - PUNE 411027",Maharashtra,Pune,411027,10.30 AM TO 9.30 PM,"18.5978307,73.7975774",8605367691
The Raymond Shop,"No:6, Opp Murugan Temple, Gst Road, Chengapet.- 603001,Tamil",Tamil Nadu,Chengapet,603001,10:30 AM TO 8:30 PM,"12.681014,79.97537",-
The Raymond Shop,"M P Building, Gorakhpur - 273 001, Uttar Pradesh",Uttar Pradesh,Gorakhpur,273001,10:30 AM TO 8:30 PM,"26.7512143,83.3762678",0551-2205187
The Raymond Shop,"Shop No. 3, Dev Business Hub, Ghandinagar Highway, Chandkheda - 382 424, Gujarat",Gujarat,Chandkheda,382424,10:30 AM TO 8:30 PM,"23.1069073,72.5982303","0792-3972225 , 9898400555"
The Raymond Shop,"Main Road, Raxaul - 845 305, Bihar",Bihar,Raxaul,845305,10:30 AM TO 8:30 PM,"26.982707,84.852237","06255-225378, 9431233460"
The Raymond Shop,"Purvaganga Tower, Shivaji Road, Parbhani - 431 401, Maharashtra",Maharashtra,Parbhani,431401,10:30 AM TO 8:30 PM,"19.270003,76.779999","02452-222225, 9822999333"
The Raymond Shop,"103, KHATOD LANDMARK, BEED, OPPOSITE BEMBDE HOSPITAL, AURANGABAD-431 005, MH",Maharashtra,Ahmednagar,431005,10.30 AM TO 9.30 PM,"19.8498478,75.3350833",9890062030
The Raymond Shop,"Cinema Road, Dehri-On-Sone, Dehri-On-Sone - 821307, Bihar",Bihar,Dehri-On-Sone,821307,10:30 AM TO 8:30 PM,"24.902029180749814,84.18200776931201","7488584275, 9311198639"
The Raymond Shop,"Shop No. 4, Anmol Nayantara Estate , Sambhaji Chowk, Nashik - 422 002, Maharashtra",Maharashtra,Nashik,422002,10:30 AM TO 8:30 PM,"19.9919239,73.7650903","0253-2315542, 9890010700"
The Raymond Shop,"8/98 Duraiswamy Mansion, Race Course Road, Coimbatore - 641 018, Tamil Nadu",Tamil Nadu,Coimbatore,641018,10:30 AM TO 8:30 PM,"11.004778,76.97285","0422-4393818, 9847065092"
The Raymond Shop,"D1/D2-3, Agarsen Chowk, Civil Lines, Rudrapur - 263 153, Uttrakhand",Uttrakhand,Rudrapur,263153,10:30 AM TO 8:30 PM,"28.9788363,79.3984519","05944-245592, 9820232071"
Raymond RTW,"Raymond Ready To Wear, Old Door No. 25, New Door No. 51, 1St Main Road,Gandhi Nagar, Adayar Chennai, Tamil Nadu- 600020 Tel No.444-2645600",Tamil Nadu,Chennai,600020,10:30 AM TO 8:30 PM,"13.0068837,80.2537483","444-2645600, 9773108045"
The Raymond Shop,"Kala Maruti Road, Near Post Office, Yeola - 423 401, Maharashtra",Maharashtra,Nashik,423401,10:30 AM TO 8:30 PM,"20.0417569,74.4901545",02559-268458
The Raymond Shop,"1 Ashwamegh Complex, Kankaria, Maninagar Road, Ahmedabad - 380 008, Gujarat",Gujarat,Ahmedabad,380008,10:30 AM TO 8:30 PM,"23.0007965,72.5999066","079-25432738, 9825975351"
The Raymond Shop,"S.C.O.39, Sector 17 - E, Chandigarh - 160017, Chandigarh",Chandigarh,Chandigarh,160017,10:30 AM TO 8:30 PM,"30.739595842503817,76.77819361116758",0172-2703760
The Raymond Shop,"212, P. H. Road, Purasawalkkam, Chennai - 600 007, Tamil Nadu",Tamil Nadu,Chennai,600007,10:30 AM TO 8:30 PM,"13.077948,80.244522",044-26612256
The Raymond Shop,"1, Kalasagar Shopping Hub, Opp. Sai Baba Temple, Ahmedabad - 380063, Gujarat",Gujarat,Ahmedabad,380063,10:30 AM TO 8:30 PM,"23.0664024,72.5316551","079-40301236, 9427632344"
The Raymond Shop,"Shop No. 4 / 5, Marimata Complex, Mahavir Chowk, Nanded - 431601, Maharashtra",Maharashtra,Nanded,431601,10:30 AM TO 8:30 PM,"19.1562243,77.3109915","02462-238210, 9890966236"
The Raymond Shop,"Usha Nagar Extension , Ranjit Hanuman Madir Rd. Near Mhow Naka Square, Gumasta Nagar Indore Madhya Pradesh",Madhya Pradesh,Indore,452001,10:30 AM TO 8:30 PM,"22.7044147,75.8423198","0731-4029930, 9893044222"
The Raymond Shop,"Kakani Towers, 34 Kader Nawaz Khan Rd.,Nungambakkam, Chennai - 600 006, Tamil Nadu",Tamil Nadu,Chennai,600006,10:30 AM TO 8:30 PM,"13.0602339,80.2478578",044-28331677
The Raymond Shop,"No.228, Alankar Pearl Plaza, 23, Kempegowda Rd, Bengaluru, Karnataka",Karnataka,Bangalore,560009,10:30 AM TO 8:30 PM,"12.9748516,77.5762863",080 4122 5058
The Raymond Shop,"F-2/16 Krishna Nagar, New Delhi - 110 051",Delhi,Delhi,110051,10:30 AM TO 8:30 PM,"28.659345,77.283511",011-22001996
The Raymond Shop,"Shop no.7, New Satara Tower, Sector 12, Kharghar, Navi Mumbai - 410210, Maharashtra",Maharashtra,Navi Mumbai,410210,10:30 AM TO 8:30 PM,"19.04697669,73.0709983","022-27744411, 7208844244"
The Raymond Shop,"Near Samjuba Hospital, Vijay Chowk, Bapunagar, Ahmedabad - 380 024, Gujarat",Gujarat,Ahmedabad,380024,10:30 AM TO 8:30 PM,"23.03805,72.63034",079-22731089
The Raymond Shop,"Sf No. 102/282, New Katpadi Road, Opp. New Bus Stand, Vellore",Tamil Nadu,Vellore,632004,10:30 AM TO 8:30 PM,-,"0416-2233449, 9443438424"
The Raymond Shop,"Unit Of M/S. Redwin(India) Enterprises P.Ltd., Siripuram Fort, Waltair Uplands Road, Visakhapatnam - 530 003, Andhra Pradesh",Andhra Pradesh,Vizag,530003,10:30 AM TO 8:30 PM,"17.725213,83.316419",0891-6668666
The Raymond Shop,"3 Kakadia Complex, Ghod-Dod Road, Athwaline, Surat - 395 007, Gujarat",Gujarat,Surat,395007,10:30 AM TO 8:30 PM,"21.1720372,72.7972144",0261-2473033
The Raymond Shop,"231, R.B.C. Road, Naihatti, 24 Paragnas (North),West Bengal",West Bengal,Parganas,743165,10:30 AM TO 8:30 PM,"22.8917221,88.4194295","033-25817021, 9830539396"
The Raymond Shop,"Araji No-421/13, Mauja Shivdaspur, Varanasi-221 103, Uttarpradesh",Uttar Pradesh,Varanasi,221103,10.30 AM TO 9.30 PM,"25.3042894,82.9676299",-
The Raymond Shop,"OLD SALES TAX OFFICE, OPP.MAHESHWARI SWEETS, SATNA-485 001, MADHYA PRADESH",Madhya Pradesh,Satna,485001,10.30 AM TO 9.30 PM,"24.57391,80.837664",9407852864
The Raymond Shop,"Station Road, Opp. Lahoti Petrol Pump, Kalaburagi-585102, Karnataka",Karnataka,Kalaburagi,585102,10.30 AM TO 9.30 PM,"17.3250704,76.8319399",8217563301
The Raymond Shop,"Site No.3, 4th Division, 2Budiger Road, S. Narasimh Devanahalli Taluk, Karnataka, 562110",Karnataka,Bangalore,562110,9:30 AM TO 8:00 PM,"13.2437197,77.7172413",8095445543
The Raymond Shop,"NEAR NEW TAHSHEEL, COART ROAD, MAINPURI-205 110, UP",Uttar Pradesh,Mainpuri,205110,10.30 AM TO 9.30 PM,"27.2291228,79.0561152",6307376944
Raymond RTW,"142, Velachery Main Road,Near Gurunanak College,Palladium Mall, Velacherry, Chennai 600042",Tamil Nadu,Chennai,600042,10:30 AM TO 8:30 PM,"12.9904673,80.2169764",044-61153032
The Raymond Shop,"Burdge Town, Nr. B.T.College, Khudiram Basu Road, Midnapore West Bengal",West Bengal,Mednapur,721101,10:30 AM TO 8:30 PM,"22.4255651,87.3146588","03222-261343, 9432321846"
The Raymond Shop,"Municipal corp., near bank, Jatpura gate, Chandrapur-442 402, MH",Maharashtra,Chandrapur,442402,10.30 AM TO 9.30 PM,"19.9459344,79.3024706",9371137080
The Raymond Shop,"Shop No 209, 1St Floor, Fun Republic Mall, Gomti Nagar, Lucknow - 226010",Uttar Pradesh,Lucknow,226010,10:30 AM TO 8:30 PM,"26.858274179777908,80.97616729210957","0522-4004135, 9935145555"
The Raymond Shop,"138/30, FLORIDA TOWER, NELSON MANIKKAM ROAD, CHENNAI-600 029,TAMILNADU",Tamil Nadu,Chennai,600029,10.30 AM TO 9.30 PM,"13.0679535,80.2269294",9884241585
The Raymond Shop,"S.NO. 2-1-40, MAIN ROAD, ZAHEERABAD-502 220, TELANGANA",Telangana,Zaheerabad,502220,10.30 AM TO 9.30 PM,"17.6799728,77.6105075",9849666656
ColorPlus,"2-5-736, SUBEDARI, MAIN ROAD, OPP. D.I.G. BUNGALOW, HANAMKONDA, Telangana - 506002",Telangana,HANAMKONDA,506002,10:30 AM - 8:30 PM,"17.995155029017482,79.54716312287565",08703592873
The Raymond Shop,"Block 34, Shop No 17-18, Opp Sursadan, Lic Building Road, Sanjay Place, Agra-282002",Uttar Pradesh,Agra,282004,10:30 AM TO 8:30 PM,"27.2017247,78.00574",0562-2520922
The Raymond Shop,"Opp.Prabhat super market, Shri Nagar, NANDED-431 602, MH",Maharashtra,Nanded,431602,10.30 AM TO 9.30 PM,"19.1776629,77.3044998",9890966236
The Raymond Shop,"11-E, Connaught Place, Delhi - 110001, Delhi",Delhi,Delhi,110001,10:30 AM TO 8:30 PM,"28.63336864298575,77.221243738624",011-23413867
The Raymond Shop,"TAL GALLI, OPP. ANUP VIJA, DEGLOOR-431 717, MH",Maharashtra,Degloor,431717,10.30 AM TO 9.30 PM,"18.5458672,77.5762703",9422170394
Raymond RTW,"Raymond Ready To Wear, G-010, Prozone Malll, At Old Sivanandha Mills, Sivanandhapuram, Sathy Road, Coimbatore-641035, Tamilnadu, Tel No.422-6628366",Tamil Nadu,Coimbatore,641035,10:30 AM TO 8:30 PM,"11.0548561,76.9938018",022-61528921
The Raymond Shop,"Lalitha Avinash Complex, Society Road, Krishna Nagar, Tanuku - 534211, Andhra Pradesh",Andhra Pradesh,Tanuku,534211,10:30 AM TO 8:30 PM,"16.75171472025204,81.68871940000001","08819-222579, 9949833355"
The Raymond Shop,"Agarwal Tower, G-4, G-5, G-6, F4, F5, Manish Corner Plaza, Sector -11, MLU Dwarka, Delhi - 110075, Delhi",Delhi,Delhi,110075,10:30 AM TO 8:30 PM,"28.596934668760795,77.05061056269392",011-47510412
The Raymond Shop,"Kapda Line, Main Market, Pusad-445204, Maharashtra",Maharashtra,Pusad,445204,10:30 AM TO 8:30 PM,"19.9095218,77.56694",-
Raymond - Ready to Wear,"Sai Darbar, 1306, Srikant Verma Marg, opp. Croma Electronic, Kranti Nagar",Chhattisgarh,Bilaspur,495001,10:00 am - 10:00 pm,-,09009066996
The Raymond Shop,"#11-1-137 Sadgur Sankiran, Near Mahaveer Chowk, M.G.Raichur-584101, Kt",Karnataka,Raichur,584101,10:30 AM TO 8:30 PM,-,-
The Raymond Shop,"S-26 2nd Floor, Treasure Island Mall, South Tukoganj, Indore - 452001, Madhya Pradesh",Madhya Pradesh,Indore,452001,10:30 AM TO 8:30 PM,"22.72132871092026,75.87858174478932",0731-4020733
R.S. ENTERPRISE B4,"B-4, LAWRENCE TERRACE, NEAR LUCKNOW CLUB, HAZRATGANJ, LUCKNOW - 226001, Uttar Pradesh",Uttar Pradesh,LUCKNOW,226001,11:00 AM to 8:00 PM,"26.85049942,80.94619213","9919333234, 9005549995"
The Raymond Shop,"28/323/B-Orbit Plaza, Thondayad, Mavoor Road, Kozhikode-673 017, KERALA",Kerala,Kozhikode,673017,10:30 AM TO 8:30 PM,"11.263954,75.8103045",7902445522
The Raymond Shop,"JIPL Mall, A Block, Shop No. A2, A4, Ekadashi Smart City,  Sheetalpur, Chakia - 845412, Bihar",Bihar,Chakia,845412,10:30 AM TO 8:30 PM,"26.4055191951137,85.011694915344",7004978254
The Raymond Shop,"PLOT NO 1, SATYAM ENCLAVENEAR, APP LABS PHARMACUTICKOMPALLI, SUCHITRA HYDERABAD 500067",Telangana,Hyderabad,500067,10.30 AM TO 9.30 PM,"17.5025348,78.4781753",9640604444
Raj Kamal's,"Shop No. 6, PPN Market, 5, Mall Rd, Kursawan, Civil Lines, Kanpur, Uttar Pradesh 208001",Uttar Pradesh,Kanpur,208001,11:00 AM to 9:30 PM,"26.47437816311342,80.34356696380796",05122367650
The Raymond Shop,"F. K. C. C. I. Building, Kempe Gowda Road, Bangalore Karnataka",Karnataka,Bangalore,560009,10:30 AM TO 8:30 PM,"12.9732586,77.5800051",080-22265550
Raymond RTW,"Raymond Ready To Wear, Lower Ground, Ground & First Floor,6, Gandhi Nagar, Sigra, Post Box No-62, Varanasi-221010 Contact Person-Punit Singh-9305288725",Uttar Pradesh,Varanasi,221010,10:30 AM TO 8:30 PM,"25.3122148,82.9889213","0542-2221697, 9930053221"
The Raymond Shop,"Manjri Farm, Pune-Solapur Road , Beside Dhone Ford ,Haveli , Dist- Pune 412307",Maharashtra,Pune,412307,10:30 AM TO 8:30 PM,"18.4965763,73.9688003",020-26999000
KAMADGIRI VASTRALAYA PVT LTD,"Unit Geeta Vastralaya Kapoorthala, B-1/8 MAHANAGAR EXTENSION, KAPOORTHALA LUCKNOW, LUCKNOW - 226006, Uttar Pradesh",Uttar Pradesh,LUCKNOW,226006,10:00 AM TO 8:30 PM,"26.88139683,80.94160933","9415018906, 8004917322"
The Raymond Shop,"Tajveer Complex, 10-B,schSwamiDayanand Marg,Gol Ba, Sri Ganganagar-335 001,RJ",Rajasthan,Sri Ganganagar,335001,10:30 AM TO 8:30 PM,"29.9093759,73.8799805",7888300019
Atam Prakash & Sons,"110, B.T. Ganj, Opp. State Bank of India, Roorkee, Uttarakhand 247667",Uttarakhand,Roorkee,247667,10:00 AM to 9:00 PM,"29.875419126925138,77.88768956176945",09758290000
The Raymond Shop,"Gandhi Chowk,",Maharashtra,Hingoli,431513,10:30 AM TO 8:30 PM,-,9284226200
The Raymond Shop,"Unit No. 19 & 20, Lower Ground Floor, Palladium Mall, Senapati Bapat Marg, Lower Parel",Maharashtra,Mumbai,400013,11AM to 9:30PM,"18.9943192,72.8239624",022 6808 6844
The Raymond Shop,"Vip Road, Purab Bazar, Saharsa - 852 201, Bihar",Bihar,Saharsa,852201,10:30 AM TO 8:30 PM,"25.877972723354866,86.59690436931199","06478-219070, 9431243125"
The Raymond Shop,"2b, Gayatri Arcade, Near By Capital Hospital, Opposite Karlapudi Function Hall, Vijayawada, Poranki - 521137, Andhra Pradesh",Andhra Pradesh,Poranki,521137,10:30 AM TO 8:30 PM,"16.479196680792203,80.69808763862402",9347244353
The Raymond Shop,"364, Sahid Nagar, Janpath, Bhubaneswar, Orissa 751007",Orissa,Bhubhaneshwar,751007,10:30 AM TO 8:30 PM,"20.2953021,85.8427638","0674-2547171, 9937016150"
The Raymond Shop,"1/832, Mondha, Nutan Road, Sailu (Dist.) Parbhani-431 503,Maharashtra",Maharashtra,Parbhani,431503,10.30 AM TO 9.30 PM,"19.4601762,76.4381695",9890062030
The Raymond Shop,"45, Chinnakadai Street, Periya Anjenayar Temple Complex, Thiruvannamalai",Tamil Nadu,Tiruchirapalli,606601,10:30 AM TO 8:30 PM,-,"04175-250666, 9600525555"
The Raymond Shop,"28, B.T.Road, Kishan Apartment, Near Titagarh Police Station, Kolkata-700 119, WB",West Bengal,Kolkata,700119,10.30 AM TO 9.30 PM,"22.738728,88.3724852",9830233245
The Raymond Shop,"B1, A.K.V.N. Growth Center Kailash Nagar, Boregaon, Dist. Chhindwara, Tehsil:Sausar, Chhindwara - 480106, Madhya Pradesh",Madhya Pradesh,Chhindwara,480106,10:30 AM TO 8:30 PM,"21.5598466,78.8134873",07165-226503
The Raymond Shop,"Motijheel, Muzaffarpur - 842 001, Bihar",Bihar,Muzaffarpur,842001,10:30 AM TO 8:30 PM,"26.1195927,85.3870116","0621-2267143, 9334449090"
The Raymond Shop,"MONDHA road, At-Post Naig, TAL.Naigaon, Dist-Nanded-431 709, MH",Maharashtra,Nanded,431709,10.30 AM TO 9.30 PM,"18.8512091,77.5325991",9423305924
The Raymond Shop,"Tc25/2418 M.G. Road, Thiruvananthapuram - 695 001, Kerala",Kerala,Thiruvanathapuram,695001,10:30 AM TO 8:30 PM,"8.4942055,76.9477817",0471-2330318
The Raymond Shop,"The Raymond Shop, Kotwali Road , Near Sarwar Sahab Ki Masjid Pt. Gopineta Marg , Banda - 210001",Uttar Pradesh,Banda,210001,10:30 AM TO 8:30 PM,"25.4702345,80.3319618",9838081494
ColorPlus,"G-22, Ground Floor, Gram Khajarana, Phoenix Citadel Mall, Main Bypdass Road, MR 10 Rd, Junction",Madhya Pradesh,Indore,452016,10:00 am - 10:00 pm,"22.746005719041015,75.93665436221946",07316744323
S. NALLAPERUMAL AND SONS,"9/702, CAPE ROAD, , NAGARKOIL - 629001, Tamil Nadu",Tamil Nadu,NAGARKOIL,629001,9:30 AM TO 8:30 PM,"8.182718775,77.43218721",4652233016
Ethnix by Raymond,"Shop No. 107/1A, Near Surya Tower Building, The Mall Road, Ludhiana - 141001, Punjab",Punjab,Ludhiana,141001,10:30 AM TO 9:00 PM,"30.90761483077079,75.83996623009415",0161-4073777
The Raymond Shop,"Shop no.3 & 4, Ram krishna chamber, Plot No.114, Linking Road, Santacruz (W) , Mumbai - 400054, Maharashtra",Maharashtra,Mumbai,400054,10:30 AM TO 9:30 PM,"19.074863,72.83433",91677 51854
The Raymond Shop,"J P Nagar, 7Th Phase, Rbi Layout , Puttenahalli, Opp. Brigade Millennium Apartments , Bangalore Karnataka",Karnataka,Bangalore,560078,10:30 AM TO 8:30 PM,"12.892543,77.5797508","080-41477937, 9886378406"
The Raymond Shop,"74 Katra Jaimal Singh, (Nai Sarak), Amritsar Punjab",Punjab,Amritsar,143001,10:30 AM TO 8:30 PM,"31.6436039,74.9089441",0183-2548939
The Raymond Shop,"B1-97/New, B.B.T. Road, Maheshtala , South 24 Par, West Bengal 700140",West Bengal,Maheshtala,700140,10:30 AM TO 8:30 PM,"22.5054952,88.2486213",9831031440
The Raymond Shop,"1-9-144/1-7-50, Mg Road, Basavanna Circle, Gangava Koppal - 583227, Kt",Karnataka,Koppal,583227,10:30 AM TO 8:30 PM,"15.4288065,76.526269",9880176898
The Raymond Shop,"Nanak Pride, Opp. Gurudwara Gate, Jalna Road, Aurangabaad - 431 005, Maharashtra",Maharashtra,Aurangabad,431001,10:30 AM TO 8:30 PM,"19.881661,75.329368","0240-2354949, 9970043344"
The Raymond Shop,"Vivekananda Complex, No.26/13 Sahakaranagar,Bellary Main Road, Bangalore :- 560 092",Karnataka,Bangalore,560092,10:30 AM TO 8:30 PM,"13.0641037,77.5931209","080-42135181, 9342552313"
The Raymond Shop,"Hd-6 Main Road, Pitam Pura, Opposite Metro Pillar No 363, New Delhi - 110 034",Delhi,Delhi,110034,10:30 AM TO 8:30 PM,"28.7172548,77.1755843","011-47055144, 9810135052"
The Raymond Shop,"Near Sukhadia Circle, Udaipur - 313 004, Rajasthan",Rajasthan,Udaipur,313001,10:30 AM TO 8:30 PM,"24.6008813,73.69204",0294-2522401
The Raymond Shop,"B-16 Jenne Plaza, 5 Bharathiar Road, Cantonment, Tiruchirapalli - 620 001, Tamil Nadu",Tamil Nadu,Tiruchirapalli,620001,10:30 AM TO 8:30 PM,"10.7997332,78.6873024",0431-2414450
The Raymond Shop,"182-A, Vidyalakshmi Complex, Abu Lane, Meerut- 250001, Uttar Pradesh",Uttar Pradesh,Meerut,250001,10:30 AM TO 8:30 PM,"28.9956852,77.7018285",0121-4051257
The Raymond Shop,"78, Diamond Harbour Road, Behala, Kolkata-700 008, West Bengal",West Bengal,Kolkata,700008,10:30 AM TO 8:30 PM,"22.5072901,88.3201457",9830050224
The Raymond Shop,"OPP: LAXMI NARAYAN MANDIR,  DHARMASHALA ROAD,  , Kishanganj - 855107, Bihar",Bihar,Kishanganj,855107,10:30 AM TO 8:30 PM,"26.103776129975504,87.953268669312",06456-225560
The Raymond Shop,"Umachigi Complex, Coen Road, Hubli Karnataka",Karnataka,Hubli,580020,10:30 AM TO 8:30 PM,"15.3476885,75.142619",0836-365492
The Raymond Shop,"Raj-Plaza , Opp Hdfc Bank , Anisabad , Patna - 800 002  Bihar",Bihar,Patna,800002,10:30 AM TO 8:30 PM,"25.584319914698153,85.09215769259201","0612-2252007, 9431015999"
The Raymond Shop,"379 K P Road, Next To Pwd Tourist Bungalow, Nagercoil - 629 001, Tamil Nadu",Tamil Nadu,Nagercoil,629001,10:30 AM TO 8:30 PM,"8.1804356,77.4316084",04652-279688
The Raymond Shop,"Muktanand Complex, Gandhi Nagar Highway, MANSA-382 845, GUJRAT",Gujarat,Mansa,382845,10:30 AM TO 8:30 PM,"23.4205608,72.6500254",9825515704
Dhondusa Fabrics,"593, 1, Chickpet Rd, Basettypet, Huriopet, Chickpet, Bengaluru - 560053, Karnataka",Karnataka,Bengaluru,560053,10:00 AM to 8:30 PM,"12.971502677165898,77.5749838613645",-
The Raymond Shop,"Station Road, Sodepur, Opp. Sriniketan, Kolkata - 700 110, West Bengal",West Bengal,Kolkata,700110,10:30 AM TO 8:30 PM,"22.7004503,88.378217","033-25834436, 9831825401"
Ethnix By Raymond,"1st floor, Raymond Ready to Wear, SHOP NO-1, DOOR NO 40/1/154, D Address Mall, LABBIPET,VIJAYAWADA,ANDHRA PRADESH-520010",Andhra Pradesh,Vijaywada,520010,,-,
Ethinix by Raymond,"Shop No.1, Shankar Ashish, Plot bearing CTS No.530, Plot No.68, TPS - I, R.C. Patel Road, Borivali (West),",Maharashtra,Mumbai,400 092,,"72.853394,19.232927",022-46099521
The Raymond Shop,"121-Chawla Bhawan, Jaripatka Main Road, Nagpur - 440014 MH",Maharashtra,Nagpur,440014,10.30 AM TO 9.30 PM,"21.1787068,79.0902422",9225233300
The Raymond Shop,"130, Gokhale Road, Ambedkar Chowk, beside Alok Hotel, Thane - 400601, Maharashtra",Maharashtra,Thane,400601,10:30 AM TO 8:30 PM,"19.18774161,72.97582835",022-25402117
SEEMATI,"P.B. NO. 3561,, M .G. ROAD, ERNAKULAM - 682035, Kerala",Kerala,ERNAKULAM,682035,10:30 AM TO 8:30 PM,"9.980607523,76.28310806",-
The Raymond Shop,"Ramachandra Towers, Plamoodu, Pattom P.O, Trivandrum- 695004",Kerala,Pottam,695001,10:30 AM TO 8:30 PM,"8.5121083,76.943874",0471-2542003
The Raymond Shop,"10 North Car Street, Sivakasi - 626 123, Tamil Nadu",Tamil Nadu,Sivakasi,626123,10:30 AM TO 8:30 PM,"9.4511812,77.7952476","04562-221831, 9444031353"
The Raymond Shop,"Opp: S. D. School, Sarai Chopta, Naya Bazar, Bhiwani - 127021 Haryana",Haryana,Gurgaon,127021,10:30 AM TO 8:30 PM,"28.7982174,76.1372605","01664-243164, 9416709166"
The Raymond Shop,"Near Hanuman Temple, Raopura, Vadodara Gujarat",Gujarat,Vadodara,390001,10:30 AM TO 8:30 PM,"22.3041179,73.1995336",0265-2413276
The Raymond Shop,"44/6, 1St Main Road, Gandhi Nagar, Adayar, Chennai-600020, Tamilnadu Chennai 600 020",Tamil Nadu,Chennai,600002,10:30 AM TO 8:30 PM,"13.0080449,80.248819","044-45554350, 9884681010"
The Raymond Shop,"13-1-49 Beside Lorven'S, Main Road, Kakinada Andra Pradesh",Andhra Pradesh,Kakinada,533001,10:30 AM TO 8:30 PM,"16.948398,82.252336","0884-6691591, 9966943999"
The Raymond Shop,"128/101, G Block, Kanha Dham, Kidwai Nagar, Kanpur - 208012, U.P",Uttar Pradesh,Kanpur,208011,10:30 AM TO 8:30 PM,"26.4328532,80.3258011","0512-2600280, 9415131919"
The Raymond Shop,"136 North Usman Road, Near Panagal Park, T. Nagar, Chennai - 600 017, Tamil Nadu",Tamil Nadu,Chennai,600017,10:30 AM TO 8:30 PM,"13.0412089,80.2332009",044-28143821
The Raymond Shop,"79 Digiha, Near Kb Petroleums, Ghulamalipura, Bahraich - 271 801, Uttar Pradesh",Uttar Pradesh,Bahraich,271801,10:30 AM TO 8:30 PM,"27.579995,81.600003","05252-232641, 9415036883"
The Raymond Shop,"457, Baulia Chowk  G T Road, Sasaram - 821115, Bihar",Bihar,Sasaram,821115,10:30 AM TO 8:30 PM,"24.946323135049496,84.01750335396801",0618-4227227
The Raymond Shop,"252 J. Nehru Street, Pondicherry - 605 001,",Pondicherry,Pondicherry,605001,10:30 AM TO 8:30 PM,"11.9367334,79.8267326",0413-2335056
The Raymond Shop,"Drishti Plaza , Madakini , Kolar Road , Bhopal - 462042 Madhya Pradesh",Madhya Pradesh,Bhopal,462042,10:30 AM TO 8:30 PM,"23.1855461,77.4176568","0755-4298585, 9826076673"
The Raymond Shop,"162 Anna Salai, Opp: Spencers, Chennai - 600 002, Tamil Nadu",Tamil Nadu,Chennai,600002,10:30 AM TO 8:30 PM,"13.0607146,80.2617335",044-28522121
The Raymond Shop,"S.P. House, Opp. Income Tax Office, Abu Road Highway, Palanpur, Banaskantha, Gujarat 385001",Gujarat,Banaskantha,385001,10:30 AM TO 8:30 PM,"24.177843,72.418354",02742-252522
The Raymond Shop,"4C-436, Ii Block, 4Th Cross, Cmr Road, Hrbr Layout, Bangalore - 560 043, Karnataka",Karnataka,Bangalore,560043,10:30 AM TO 8:30 PM,"13.0227635,77.637259","080-25452323, 9845247040"
The Raymond Shop,"RAJA GARDEN CHOWK,  A-6, RAJOURI GARDEN, Delhi - 110027, Delhi",Delhi,Delhi,110027,10:30 AM TO 8:30 PM,"28.6502826960523,77.12456325396799",011-25460894
The Raymond Shop,"87 Arcot Road, Next To Avichi School, Saligramam, Vadapalani, Chennai - 600 093, Tamil Nadu",Tamil Nadu,Chennai,600093,10:30 AM TO 8:30 PM,"13.0486046,80.1977905","044-43599991, 9789826666"
The Raymond Shop,"Near Kailashpuri, G. T. Road, Mughal Sarai - 232 100, Uttar Pradesh",Uttar Pradesh,Mugalsari,232101,10:30 AM TO 8:30 PM,"25.2854621,83.1132584","05412-253186, 9936692000"
The Raymond Shop,"190 Anna Salai, Opp Anand Theatre, Chennai - 600 006, Tamil Nadu",Tamil Nadu,Chennai,600006,10:30 AM TO 8:30 PM,"13.0568824,80.2567104",044-28297508
The Raymond Shop,"Clock Tower, Ludhiana Punjab",Punjab,Ludhiana,141008,10:30 AM TO 8:30 PM,"30.9165091,75.8483129",0161-2745999
The Raymond Shop,"Durga Sutgirni Road, Garkhed, Aurangabad - 431001, Maharashtra",Maharashtra,Aurangabad,431001,10:30 AM TO 8:30 PM,"19.858483,75.338352",0240-2341063
The Raymond Shop,"Residency Road, Srinagar Jammu and Kashmir",Jammu & Kashmir,Srinagar,190001,10:30 AM TO 8:30 PM,"34.0723635,74.822502","0194-2454386, 9419056133"
The Raymond Shop,"Main Market, Railway Road, Nawanshahar Punjab",Punjab,Nawan Shahar,144514,10:30 AM TO 8:30 PM,"31.122141,76.115412",01823-504101
The Raymond Shop,"Parshwanath Chowk, Main Road, Jagdalpur Chhaattisgarh - 494001",Chattisgarh,Jagadalpur,494001,10:30 AM TO 8:30 PM,"19.087764,82.012265","07782-222321, 9424270770"
The Raymond Shop,"H/23 Laxmi Nagar, Vikas Marg, New Delhi - 110 092",Delhi,Delhi,110092,10:30 AM TO 8:30 PM,"28.6425205,77.286847",011-22545759
The Raymond Shop,"Kbs Arcade, # 6/1044, Covai Road, Karur - 639 002, Tamil Nadu",Tamil Nadu,Karur,639002,10:30 AM TO 8:30 PM,-,04324-248322
The Raymond Shop,"Karad- Tasgaon Road, Near Hdfc Bank , Palus, Dist: Sangli - 416310, Maharashtra",Maharashtra,Sangli,416310,10:30 AM TO 8:30 PM,"17.08764,74.45712","02346-226995, 9960163995"
The Raymond Shop,"Opp: Mga Hospital, Marathalli Main Road, Bangalore - 560 037, Karnataka",Karnataka,Bangalore,560037,10:30 AM TO 8:30 PM,"12.9568434,77.700178","080-41262785, 9901022110"
The Raymond Shop,"Link Road, Bilaspur - 495 001, Chattisgarh",Chattisgarh,Bilaspur,495001,10:30 AM TO 8:30 PM,"22.079535689135025,82.15040666931199","07752-411755 , 9755177055"
The Raymond Shop,"Near Baba Ramdev Tent House, Rani Bazar, Bikaner",Rajasthan,Bikaner,334001,10:30 AM TO 8:30 PM,"28.00692183251745,73.31481521778878",9414244477
The Raymond Shop,"66 Super Market, Gulbarga - 585101, Karnataka",Karnataka,Gulbarga,585101,10:30 AM TO 9:30 PM,"17.339918,76.837023",08472-222549
The Raymond Shop,"FF/S/09, Gaur city mall, Sector 04, Greater noida-201 301,Uttar Pradesh",Uttar Pradesh,Noida,201301,10.30 AM TO 9.30 PM,"28.6059279,77.4295438",9811554737
The Raymond Shop,"Shri Rang Arcade, Opp: Nttf, P. B. Road, Dharwad - 580 001, Karnataka",Karnataka,Dharwar,580001,10:30 AM TO 8:30 PM,"15.4446629,75.0134593","0836-2447299, 9886066799"
The Raymond Shop,"N. C. S. ROAD, SRINIVASA NAGAR, Vizianagaram - 535001, Andhra Pradesh",Andhra Pradesh,Vizianagaram,535001,10:30 AM TO 8:30 PM,"18.120032321961666,83.40071408465602","08922-234666, 9949062006"
The Raymond Shop,"42 Manu Marg, Alwar - 301 001, Rajasthan",Rajasthan,Alwar,301001,10:30 AM TO 8:30 PM,"27.5631111,76.605362",0144-2343632
The Raymond Shop,"111 M.I.Road, Jaipur Rajasthan",Rajasthan,Jaipur,302001,10:30 AM TO 8:30 PM,"26.9167368,75.813123","0141-2371601, 9887111116"
The Raymond Shop,"261/4 Tiruchendur Road, Palayamkottai, Tirunelveli - 627 002, Tamil Nadu",Tamil Nadu,Tirunelveli,627002,10:30 AM TO 8:30 PM,"8.726272,77.7307509",0462-2562064
The Raymond Shop,"Opp. D. M. Bunglow, Golaghat Crossing, Civil Lines, Sultanpur - 228001 Uttar Pradesh",Uttar Pradesh,Saharanpur,228001,10:30 AM TO 8:30 PM,"26.2585371,82.0659858","05362-227522, 7054182371"
The Raymond Shop,"2, Mahaveer Bazar, Near Panch Batti, Beawar - 305 901, Rajasthan",Rajasthan,Beawar,305901,10:30 AM TO 8:30 PM,"26.1002221,74.3202567",01462-250917
The Raymond Shop,"6/23, 11Th Main Road, 4Th Block, Jayanagar, Bangalore - 560 011, Karnataka",Karnataka,Bangalore,560011,10:30 AM TO 8:30 PM,"12.9304059,77.5860792",080-22454458
The Raymond Shop,"15-17, Ganesh Market, Station Road, Pali - 306 401, Rajasthan",Rajasthan,Pali,306401,10:30 AM TO 8:30 PM,"25.7861878,73.3297661","02932-251015, 9828421406"
The Raymond Shop,"New Ramalayam Bldg., Nr. Hpo, College Road, Palakkad - 678 001, Kerala",Kerala,Palakkad,678001,10:30 AM TO 8:30 PM,"10.778777,76.655286","0491-2548866, 9895088828"
The Raymond Shop,"R.R.Towers, Beside Hdfc Bank, Yeramukhapalli Circle, Kadappa - 512006 Andra Pradesh",Andhra Pradesh,Cuddapah,516001,10:30 AM TO 8:30 PM,"14.46339,78.8234003",08562-258336
The Raymond Shop,"Shop No. 4-7, Royal Square Complex, Opp New S.T. Bus Depot, Station Road, Vyara - 394650, Dist. Tapi, Gujarat",Gujarat,Vyara,394650,10:30 AM TO 8:30 PM,"21.1139657,73.3859076","02626-224477, 9825119806"
The Raymond Shop,"Tulsian Plaza, 85, P B Road, Near Aruna Theatre, Davangere - 577 002, Karantaka",Karnataka,Davangere,577002,10:30 AM TO 8:30 PM,"14.4675,75.9152",08192-237364
The Raymond Shop,"#11-13-1426, Beside South India Shopping Mall, Kothapet, Hyderabad Telangana",Telangana,Hyderabad,500035,10:30 AM TO 8:30 PM,-,040-24031614
The Raymond Shop,"24, M.G. Road Indore- 452001",Madhya Pradesh,Indore,452001,10:30 AM TO 8:30 PM,"22.7194528,75.8661723","0731-2533223, 0731-2533223"
The Raymond Shop,"Hotel Venkatesh, Ground Floor, K.S. Rao Road, Mangalore - 575001, Karnataka",Karnataka,Mangalore,575001,10:30 AM TO 8:30 PM,"12.869316,74.8415979",0824-4278555
The Raymond Shop,"Empress Mall, Shop No.153, Dr. Bezonji Mehta Road, Nagpur - 440 018, Maharashtra",Maharashtra,Nagpur,440018,10:30 AM TO 8:30 PM,"21.1480962,79.0925248","0712-2722336, 9822565947"
The Raymond Shop,"Cts No. 3196/A/1A, Opp: Sub-Jail Court Road, Gokak - 591 307, Karnataka",Karnataka,Gokak,591307,10:30 AM TO 8:30 PM,"16.159245,74.815689","08332-227299, 9448486151"
The Raymond Shop,"JEEVAN BIMA MARG, Raipur - 492001, Chattisgarh",Chattisgarh,Raipur,492001,10:30 AM TO 8:30 PM,"21.25490360424488,81.650242053968",0771-2426701
The Raymond Shop,"Shop No. 1, White Box, 1667 & 1669, Rajarampuri main road, Rajarampuri 11th lane., Kolhapur - 416008, Maharashtra",Maharashtra,Kolhapur,416008,10:30 AM TO 8:30 PM,"16.69249654,74.24442602",0231-2980800
The Raymond Shop,"Metropolis Mall, Hiland Park, 1925 Chak Garia, Kolkata - 700 094, West Bengal",West Bengal,Kolkata,700094,10:30 AM TO 8:30 PM,"22.4832746,88.3906139",033-24366923
The Raymond Shop,"Shree Mohini Complex, Kingsway Station Road., Nagpur - 440001, Maharashtra",Maharashtra,Nagpur,440001,10:30 AM TO 8:30 PM,"21.15399723,79.08457265",0712-2536229
The Raymond Shop,"11/40 C, Fashion Tower, Cherooty Road, Kozhikode - 673 001, Kerala",Kerala,Kozhikode,673001,10:30 AM TO 8:30 PM,"11.2550237,75.7763217",0495-2760316
The Raymond Shop,"Red Cross Society Complex, Ashoka Road, Tumkur - 572101, Karnataka",Karnataka,Tumkur,572101,10:30 AM TO 8:30 PM,"13.3404133,77.1015115",0816-4014219
The Raymond Shop,"Madaparambil Building, Sub Jail Road, Aluva - 683 001, Kerala",Kerala,Aluva,683101,10:30 AM TO 8:30 PM,"10.1064769,76.3568999","0484-2620897, 9946033777"
The Raymond Shop,"A,B,C,S63&65 G.C.D.A. Com. Complx, Shanmugham Road, Marine Drive, Kochi - 682 031, Kerala",Kerala,Kochi,682031,10:30 AM TO 8:30 PM,"9.9805631,76.2761515",0484-2351675
The Raymond Shop,"Plot No.91, H.No.2-105-5-3, Vani Sadan, Gangaram, Hyderabad - 500 050, Andhra Pradesh",Telangana,Hyderabad,500050,10:30 AM TO 8:30 PM,"17.4938662,78.3308815",040-23032343
The Raymond Shop,"Malancha Apartment, J L Banerjee Road, Rampurhat - 731224, West Bengal",West Bengal,Rampurhat,731224,10:30 AM - 8:30 PM,"24.1705498,87.7852395",-
The Raymond Shop,"2682/2 Ajmal Khan Road, Karol Bagh, Delhi - 110005, Delhi",Delhi,Delhi,110005,10:30 AM TO 8:30 PM,"28.65025923502801,77.191602438624",011-28755134
The Raymond Shop,"101 City Tower, Nalgonda Cross Road, Malakpet, Hyderabad - 500 036, Andhra Pradesh",Telangana,Hyderabad,500036,10:30 AM TO 8:30 PM,"17.374576,78.498817",040-24554786
The Raymond Shop,"Opp, Anutex, Malkajgiri, Hyderabad - 500047, Ap",Telangana,Hyderabad,500047,10:30 AM TO 8:30 PM,"17.4510351,78.5328674",040-42212064
The Raymond Shop,"No.5, Adhiaman Bypass Road, (Land Mark: Four Road Circle), Dharmapuri",Tamil Nadu,Dharampuri,636701,10:30 AM TO 8:30 PM,-,"04342261616, 9443169798"
The Raymond Shop,"G - 14, Urban Oasis Mall, Gokul Road, Hubli Karnataka",Karnataka,Hubli,580030,10:30 AM TO 8:30 PM,"15.3502737,75.1115565",0836-4253599
The Raymond Shop,"Shree Sankeshwar, No. 17/18, 7Th Cross Street, Rajalakshmi Nagar, Next To Excellent Hospital, Velacherry, Chennai - 600042, Tamilnadu",Tamil Nadu,Chennai,600042,10:30 AM TO 8:30 PM,"12.9856233,80.2184309",044-22450008
The Raymond Shop,"Kalakhet Road No Ii,",Madhya Pradesh,Indore,458001,10:30 AM TO 8:30 PM,-,07422- 400090
The Raymond Shop,"Near Gandhi Chowk, Keile Ke Dhaal, Nagaur - 341001, Rajsthan",Rajasthan,Nagaur,341001,10:30 AM TO 8:30 PM,"27.1985474,73.7406488","01582-241119, 9413678810"
The Raymond Shop,"121, Ff, First Floor, Ambience Mall, Ambience Island, Nh-8, Gurgaon-122001, Haryana.",Haryana,Gurgaon,110027,10:30 AM TO 8:30 PM,"28.503641,77.0973407","0124-4029203, 9910771299"
The Raymond Shop,"Opp. Kala Mandir, Ghamodia, Nanded - 431 601, Maharashtra",Maharashtra,Nanded,431601,10:30 AM TO 8:30 PM,"19.151107,77.314407",02462-244632
The Raymond Shop,"21-1-112 Madina Circle, Pathergatti, Hyderabad - 500 002, Andhra Pradesh",Telangana,Hyderabad,500002,10:30 AM TO 8:30 PM,"17.365612,78.477325",040-24512314
The Raymond Shop,"Apsara Enterprises, No. 114, Mahatma Gandhi Road, Mayiladuthurai - 609001, Tamil Nadu",Tamil Nadu,Mayiladuthurai,609003,10:30 AM TO 8:30 PM,"11.085407,79.661425",04364-220166
The Raymond Shop,"Raje Babu Market, Bulandshahr - 203 001, Uttar Pradesh",Uttar Pradesh,Bulandshahr,203001,10:30 AM TO 8:30 PM,"28.4010085,77.8498714","05732-259144, 9818840537"
The Raymond Shop,"Race Course Chowk, Rajkot - 360 001, Gujarat",Gujarat,Rajkot,360001,10:30 AM TO 8:30 PM,"22.298193,70.791106",0281-2294460
The Raymond Shop,"D-0002,GROUND FLOOR, CITY CENTRE, UTTORYAN TOWNSHOP, Siliguri - 734010, West Bengal",West Bengal,Siliguri,734010,10:30 AM -09:00 PM,"26.7248,88.3951",9800887997
The Raymond Shop,"Shop No. 3 to 6, Mahavir Chambers, Liberty Circle, Himayathnagar, Hyderabad - 500029, Telangana",Telangana,Hyderabad,500029,10:00 AM - 9:00 PM,"17.4063806,78.4757902",9848054540
The Raymond Shop,"Shivappa Nayaka Statue Circle, Gandhi Bazar, Shimoga - 577 202, Karnataka",Karnataka,Shimoga,577202,10:30 AM TO 8:30 PM,"13.9275643,75.5835958",08182-223091
The Raymond Shop,"Syamala  Nagar Branch, D. No.78-3-8, Near RTC Compound, RAJAHMUNDRY - 533 103, AP",Andhra Pradesh,Rajahmundry,533103,10.30 AM TO 9.30 PM,"17.0016854,81.7891255",9966141122
The Raymond Shop,"N H 17, Edapally, Kochi - 682024, Kerala",Kerala,Kochi,682035,10:30 AM TO 8:30 PM,"13.4354679,74.7445927",0484-4016668
The Raymond Shop,"15-149, S.R. PLAZA, SUBHASH ROAD, Anantapur - 515001, Andhra Pradesh",Andhra Pradesh,Anantpur,515001,10:30 AM TO 8:30 PM,"14.679371679279114,77.60153898465697",9849611205
The Raymond Shop,"25 Commercial Street, Bangalore Karnataka",Karnataka,Bangalore,560001,10:30 AM TO 8:30 PM,"12.9818564,77.6090501",080-15588599
The Raymond Shop,"127-129, First Floor, Forum Sujana Mall, Kukatpally, Hyderabad 500 072",Telangana,Hyderabad,500072,10:30 AM TO 8:30 PM,"17.4842731,78.38908",0124-4570350
The Raymond Shop,"Harsh Nagar, Civil Line Road, Near Katchahari, Sonbhadra, Robertsganj,",Uttar Pradesh,Allahabad,231216,10:30 AM TO 8:30 PM,-,0544-4222444
The Raymond Shop,"131,Singam Padayachi Compex, Velur Rd, Kamalar, Near Tiruchengode, Namakkal- 637 211 TL",Tamil Nadu,Namakkal,637211,10.30 AM TO 9.30 PM,"11.3778793,77.8943517",9443242181
The Raymond Shop,"Meera Heights, 237 Civil, Opp.Treasury, Katra Gulab, Pratapgarh-230001, Up",Uttar Pradesh,Pratapgarh,230001,10:30 AM TO 8:30 PM,"25.9168862,81.8604986","05342-220312, 8874447700"
The Raymond Shop,"Post Office Chowk, Main Bazar, Pathankot Punjab",Punjab,Pathankot,145001,10:30 AM TO 8:30 PM,"32.274667,75.654105",0186-2222358
The Raymond Shop,"Adarsh Market, Gandhi Chowk, Bhandara - 441 904, Maharashtra",Maharashtra,Bhandara,441904,10:30 AM TO 8:30 PM,"21.1700747,79.6560217","07184-256661, 9422131204"
The Raymond Shop,"Mudnal Comp.,Cmc No.5/1/55/Gf2, Sy No.251 Shastri Chk. Main Rd, Yadgir Karnataka",Karnataka,Yadgir,585201,10:30 AM TO 8:30 PM,"16.7691664,77.133632","08473-253499, 9880366680"
The Raymond Shop,"Near Shivaji Chowk, Jalna - 431 203, Maharashtra",Maharashtra,Jalna,431203,10:30 AM TO 8:30 PM,"19.8468956,75.9096681",02482-240330
The Raymond Shop,"6-3-456/A1 Model House, Punjagutta, Hyderabad - 500 482, Andhra Pradesh",Telangana,Hyderabad,500482,10:30 AM TO 8:30 PM,"17.424271,78.453469",040-23353468
The Raymond Shop,"337, 8Th Main, 3Rd Stage, 4Th Block, Basaveshwara Nagar, Bangalore - 560 079, Karnataka",Karnataka,Bangalore,560079,10:30 AM TO 8:30 PM,"12.9914814,77.5380903","080-23235656, 9845037999"
The Raymond Shop,"9-1-33, Perumalla Complex, Kaman Bazar, Khammam - 507 001, Andhra Pradesh",Telangana,Khammam,507001,10:30 AM TO 8:30 PM,"17.2457617,80.1403377","08742-255189, 9849128870"
The Raymond Shop,"Nanak Towers, Paithan Gate, Tilak Path, Aurangabad - 431 001, Maharashtra",Maharashtra,Aurangabad,431001,10:30 AM TO 8:30 PM,"19.8815947,75.3294507",0240-2343322
The Raymond Shop,"126/98 H-Block, Govind Nagar, 119/499 Darshan Purwa, Kanpur - 208 006, Uttar Pradesh",Uttar Pradesh,Kanpur,208006,10:30 AM TO 8:30 PM,"26.471707,80.303598","0512-2604744, 9451021848"
The Raymond Shop,"Chandra Nagar, Dist. Jalaun, Orai - 285201, Uttar Pradesh",Uttar Pradesh,Orai,285201,10:30 AM - 8:30 PM,"25.4526198,78.5579047",-
The Raymond Shop,"No.70, G.S.T. Road, Chrompet, Chennai - 600 044, Tamilnadu",Tamil Nadu,Chennai,600044,10:30 AM TO 8:30 PM,"12.9392828,80.1299406","044-22416634, 9444076989"
The Raymond Shop,"16-11-741 Dilsukhnagar, Hyderabad - 500 036, Andhra Pradesh",Telangana,Hyderabad,500036,10:30 AM TO 8:30 PM,"17.3698322,78.5149805",040-24054934
The Raymond Shop,"6-2-220, Punnamchander Complex, Chowrasta, Hanamkonda - 506 011, Andhra Pradesh",Telangana,Hanamkonda,506011,10:30 AM TO 8:30 PM,"18.005874,79.570168",0870-2570268
